country_code,postal_code,place_name,latitude,longitude
HU,7188,Szárász,46.349,18.3736
HU,7300,Komló,46.1928,18.2649
HU,7304,Mánfa,46.1667,18.25
HU,7305,Mecsekpölöske,46.2221,18.2112
HU,7331,Liget,46.236,18.1921
HU,7332,Magyaregregy,46.2527,18.3119
HU,7333,Vékény,46.2687,18.3416
HU,7333,Kárász,46.2643,18.312
HU,7334,Szalatnak,46.29,18.2812
HU,7334,Köblény,46.2955,18.3025
HU,7342,Mágocs,46.35,18.2324
HU,7343,Nagyhajmás,46.3754,18.2888
HU,7344,Mekényes,46.3912,18.3334
HU,7345,Alsómocsolád,46.3142,18.2479
HU,7346,Bikal,46.3311,18.283
HU,7347,Egyházaskozár,46.3318,18.3177
HU,7348,Tófű,46.3111,18.3571
HU,7348,Hegyhátmaróc,46.3112,18.3366
HU,7349,Szászvár,46.2767,18.3757
HU,7351,Máza,46.2674,18.3972
HU,7370,Felsőegerszeg,46.2544,18.1341
HU,7370,Vázsnok,46.2653,18.1248
HU,7370,Palé,46.2602,18.07
HU,7370,Meződ,46.2904,18.1026
HU,7370,Oroszló,46.2184,18.1233
HU,7370,Sásd,46.2552,18.1078
HU,7370,Varga,46.2472,18.1431
HU,7381,Ág,46.2833,18.2
HU,7381,Kisvaszar,46.2745,18.2148
HU,7381,Tékes,46.2874,18.1783
HU,7383,Tormás,46.2333,18
HU,7383,Szágy,46.2243,17.9468
HU,7383,Baranyaszentgyörgy,46.2445,18.0139
HU,7384,Baranyajenő,46.2727,18.0449
HU,7385,Gödre,46.2861,17.9729
HU,7386,Gödre,46.2861,17.9729
HU,7391,Kisbeszterce,46.2054,18.0347
HU,7391,Kishajmás,46.1993,18.0809
HU,7391,Mindszentgodisa,46.2246,18.0623
HU,7393,Bakóca,46.2069,18.0007
HU,7394,Magyarhertelend,46.1895,18.1491
HU,7394,Bodolyabér,46.2014,18.1111
HU,7396,Magyarszék,46.1973,18.1973
HU,7600,Pécs,46.0945,18.2268
HU,7621,Pécs,46.0833,18.2333
HU,7622,Pécs,46.0833,18.2333
HU,7623,Pécs,46.0833,18.2333
HU,7624,Pécs,46.0833,18.2333
HU,7625,Pécs,46.0833,18.2333
HU,7626,Pécs,46.0833,18.2333
HU,7627,Pécs,46.0833,18.2333
HU,7628,Pécs,46.0833,18.2333
HU,7629,Pécs,46.0833,18.2333
HU,7630,Pécs,46.0833,18.2333
HU,7631,Pécs,46.0833,18.2333
HU,7632,Pécs,46.0833,18.2333
HU,7633,Pécs,46.0833,18.2333
HU,7634,Pécs,46.0833,18.2333
HU,7635,Pécs,46.0833,18.2333
HU,7636,Pécs,46.0833,18.2333
HU,7639,Pécs,46.0833,18.2333
HU,7639,Kökény,46.0008,18.2049
HU,7661,Kékesd,46.1025,18.4732
HU,7661,Kátoly,46.0596,18.4517
HU,7661,Erzsébet,46.1004,18.4567
HU,7661,Szellő,46.0735,18.4611
HU,7663,Máriakéménd,46.027,18.4618
HU,7664,Szilágy,46.1012,18.4074
HU,7664,Pereked,46.0937,18.3765
HU,7664,Berkesd,46.0757,18.4088
HU,7666,Pogány,45.98,18.26
HU,7668,Gyód,45.9958,18.1786
HU,7668,Keszü,46.0151,18.1901
HU,7668,Pécs,46.0833,18.2333
HU,7671,Aranyosgadány,46.0063,18.1206
HU,7671,Zók,46.0093,18.0969
HU,7671,Bicsérd,46.0229,18.0813
HU,7672,Boda,46.0806,18.049
HU,7673,Kővágószőlős,46.0841,18.1267
HU,7673,Cserkút,46.0757,18.135
HU,7675,Bakonya,46.0852,18.0831
HU,7675,Kővágótöttös,46.0852,18.0831
HU,7677,Orfű,46.1333,18.15
HU,7678,Husztót,46.1667,18.0833
HU,7678,Kovácsszénája,46.171,18.1097
HU,7678,Abaliget,46.1426,18.1168
HU,7681,Szentkatalin,46.174,18.0501
HU,7681,Hetvehely,46.1331,18.0438
HU,7681,Okorvölgy,46.1524,18.0589
HU,7682,Bükkösd,46.1075,17.9882
HU,7683,Dinnyeberki,46.0977,17.9566
HU,7683,Cserdi,46.0831,17.9904
HU,7683,Helesfa,46.0898,17.976
HU,7691,Pécs,46.0833,18.2333
HU,7693,Pécs,46.0833,18.2333
HU,7694,Hosszúhetény,46.1641,18.3508
HU,7695,Mecseknádasd,46.2247,18.4708
HU,7695,Óbánya,46.221,18.4103
HU,7695,Ófalu,46.2208,18.5324
HU,7696,Hidas,46.2568,18.4954
HU,7700,Mohács,45.9902,18.6862
HU,7711,Bár,46.0531,18.7164
HU,7712,Dunaszekcső,46.0874,18.7587
HU,7714,Mohács,45.9902,18.6862
HU,7715,Mohács,45.9902,18.6862
HU,7716,Homorúd,45.9814,18.7922
HU,7717,Kölked,45.9503,18.7078
HU,7718,Udvar,45.9006,18.6597
HU,7720,Zengővárkony,46.1726,18.432
HU,7720,Martonfa,46.1163,18.3718
HU,7720,Lovászhetény,46.1559,18.4739
HU,7720,Pécsvárad,46.1603,18.4232
HU,7720,Apátvarasd,46.1868,18.4804
HU,7723,Erdősmecske,46.1773,18.5114
HU,7724,Feked,46.1619,18.5588
HU,7725,Szebény,46.1315,18.5859
HU,7726,Véménd,46.1563,18.6153
HU,7727,Palotabozsok,46.1269,18.642
HU,7728,Somberek,46.0805,18.6589
HU,7728,Görcsönydoboka,46.071,18.627
HU,7731,Nagypall,46.1443,18.4558
HU,7732,Fazekasboda,46.1245,18.4842
HU,7733,Geresdlak,46.1084,18.5236
HU,7733,Maráza,46.0753,18.5133
HU,7735,Szűr,46.1,18.5833
HU,7735,Erdősmárok,46.0567,18.5451
HU,7735,Himesháza,46.0882,18.57
HU,7737,Székelyszabar,46.0445,18.604
HU,7741,Nagykozár,46.066,18.3199
HU,7742,Bogád,46.0873,18.3231
HU,7743,Romonya,46.0872,18.3394
HU,7744,Ellend,46.0597,18.3754
HU,7745,Hásságy,46.0347,18.3872
HU,7745,Olasz,46.0096,18.4144
HU,7747,Belvárdgyula,45.973,18.4329
HU,7747,Birján,45.9979,18.375
HU,7751,Szederkény,46.0007,18.4484
HU,7751,Monyoród,46.0104,18.4764
HU,7752,Versend,45.9964,18.5117
HU,7753,Szajk,45.9927,18.5346
HU,7754,Bóly,45.9672,18.5183
HU,7755,Töttös,45.9156,18.5422
HU,7756,Nagybudmér,45.9361,18.4456
HU,7756,Borjád,45.9339,18.4672
HU,7756,Pócsa,45.9097,18.4708
HU,7756,Kisbudmér,45.9125,18.4475
HU,7757,Liptód,46.0457,18.5163
HU,7757,Babarc,46.0042,18.5518
HU,7759,Lánycsók,46.0054,18.6253
HU,7759,Kisnyárád,46.0357,18.5664
HU,7761,Kozármisleny,46.0297,18.2921
HU,7761,Lothárd,46.0016,18.354
HU,7761,Magyarsarlós,46.042,18.3533
HU,7762,Pécsudvard,46.0111,18.2734
HU,7763,Szemely,46.0072,18.3281
HU,7763,Kisherend,45.9661,18.3297
HU,7763,Egerág,45.9839,18.3047
HU,7763,Szőkéd,45.9661,18.2882
HU,7763,Áta,45.939,18.2985
HU,7766,Újpetre,45.9367,18.3625
HU,7766,Pécsdevecser,45.9593,18.3844
HU,7766,Peterd,45.9729,18.3603
HU,7766,Kiskassa,45.9531,18.3978
HU,7768,Kistótfalu,45.9079,18.308
HU,7768,Vokány,45.9094,18.3361
HU,7771,Palkonya,45.8967,18.3898
HU,7772,Villánykövesd,45.8822,18.4253
HU,7772,Ivánbattyán,45.9072,18.4181
HU,7773,Villány,45.8689,18.4539
HU,7773,Kisjakabfalva,45.8975,18.4336
HU,7774,Márok,45.8742,18.5088
HU,7775,Illocska,45.8006,18.5232
HU,7775,Lapáncsa,45.8192,18.4978
HU,7775,Magyarbóly,45.8456,18.4873
HU,7775,Kislippó,45.8288,18.5343
HU,7781,Lippó,45.8628,18.57
HU,7781,Ivándárda,45.8326,18.5912
HU,7781,Sárok,45.8423,18.6119
HU,7782,Bezedek,45.8647,18.5864
HU,7783,Majs,45.9058,18.5975
HU,7784,Nagynyárád,45.9443,18.5785
HU,7785,Sátorhely,45.9418,18.6329
HU,7800,Nagytótfalu,45.8639,18.3453
HU,7800,Siklós,45.855,18.2975
HU,7800,Kisharsány,45.8586,18.3642
HU,7811,Túrony,45.9026,18.2327
HU,7811,Bosta,45.9504,18.2108
HU,7811,Szilvás,45.9628,18.1996
HU,7811,Csarnóta,45.8951,18.2164
HU,7811,Szalánta,45.9486,18.2375
HU,7811,Bisse,45.9093,18.2595
HU,7812,Garé,45.9174,18.1928
HU,7813,Szava,45.9024,18.1777
HU,7814,Kisdér,45.9406,18.1281
HU,7814,Babarcszőlős,45.9,18.1364
HU,7814,Ócsárd,45.9342,18.1519
HU,7814,Siklósbodony,45.9103,18.1203
HU,7815,Harkány,45.85,18.2367
HU,7817,Rádfalva,45.8597,18.1258
HU,7817,Diósviszló,45.8777,18.166
HU,7817,Márfa,45.86,18.1853
HU,7822,Nagyharsány,45.8474,18.3971
HU,7823,Kistapolca,45.8216,18.383
HU,7823,Siklósnagyfalu,45.8202,18.3627
HU,7824,Egyházasharaszti,45.8104,18.3342
HU,7825,Old,45.7889,18.3523
HU,7826,Alsószentmárton,45.7895,18.3057
HU,7827,Beremend,45.7911,18.4326
HU,7827,Kásád,45.7783,18.3989
HU,7831,Pellérd,46.0344,18.154
HU,7833,Szőke,45.96,18.1858
HU,7833,Görcsöny,45.9694,18.1358
HU,7833,Regenye,45.97,18.1684
HU,7834,Tengeri,45.9261,18.0881
HU,7834,Téseny,45.9399,18.0885
HU,7834,Baksa,45.9536,18.0889
HU,7836,Bogádmindszent,45.9069,18.0406
HU,7836,Ózdfalu,45.9292,18.0217
HU,7837,Hegyszentmárton,45.9039,18.09
HU,7838,Vajszló,45.8596,17.9841
HU,7838,Besence,45.8956,17.9663
HU,7838,Vejti,45.8104,17.971
HU,7838,Piskó,45.8134,17.937
HU,7838,Lúzsok,45.8382,17.9438
HU,7838,Nagycsány,45.8717,17.9443
HU,7838,Páprád,45.8925,18.0097
HU,7838,Hirics,45.8269,17.994
HU,7839,Kemse,45.8233,17.9136
HU,7839,Zaláta,45.8092,17.8912
HU,7841,Sámod,45.8544,18.0375
HU,7841,Baranyahídvég,45.8464,18.0233
HU,7841,Kórós,45.8669,18.0844
HU,7841,Kisszentmárton,45.8242,18.0242
HU,7841,Adorjás,45.8506,18.0628
HU,7843,Drávapiski,45.84,18.1011
HU,7843,Cún,45.8125,18.0669
HU,7843,Kémes,45.8242,18.1011
HU,7843,Szaporca,45.8136,18.1044
HU,7843,Tésenfa,45.8131,18.1183
HU,7846,Drávacsepely,45.8292,18.1386
HU,7847,Drávaszerdahely,45.8369,18.1611
HU,7847,Ipacsfa,45.8345,18.2055
HU,7847,Kovácshida,45.8325,18.1856
HU,7849,Drávacsehi,45.8128,18.1672
HU,7850,Drávapalkonya,45.8031,18.1789
HU,7851,Drávaszabolcs,45.8068,18.2105
HU,7853,Gordisa,45.7964,18.2333
HU,7854,Matty,45.7981,18.2661
HU,7900,Botykapeterd,46.0505,17.8666
HU,7900,Csertő,46.0948,17.8061
HU,7900,Szigetvár,46.0487,17.8055
HU,7912,Nyugotszenterzsébet,46.0767,17.9112
HU,7912,Nagypeterd,46.0465,17.8986
HU,7912,Nagyváty,46.0611,17.9328
HU,7913,Szentdénes,46.0071,17.9271
HU,7914,Katádfa,45.9979,17.87
HU,7914,Rózsafa,46.0219,17.8884
HU,7914,Bánfa,45.9945,17.8793
HU,7915,Szentegát,45.9742,17.8257
HU,7915,Dencsháza,45.993,17.8359
HU,7921,Somogyhatvan,46.1137,17.7137
HU,7922,Somogyapáti,46.0913,17.7497
HU,7923,Basal,46.0734,17.7839
HU,7923,Patapoklosi,46.0754,17.743
HU,7924,Somogyviszló,46.1153,17.7649
HU,7925,Magyarlukafa,46.169,17.7567
HU,7925,Somogyhárságy,46.1619,17.7731
HU,7926,Vásárosbéc,46.1829,17.7242
HU,7932,Almáskeresztúr,46.1199,17.8956
HU,7932,Mozsgó,46.1174,17.8503
HU,7932,Szulimán,46.1276,17.8031
HU,7934,Almamellék,46.1569,17.874
HU,7935,Horváthertelend,46.1758,17.9255
HU,7935,Csebény,46.1899,17.9324
HU,7935,Ibafa,46.1552,17.9163
HU,7936,Szentlászló,46.1567,17.8345
HU,7937,Boldogasszonyfa,46.1836,17.8379
HU,7940,Csonkamindszent,46.0531,17.9658
HU,7940,Kacsóta,46.0388,17.9565
HU,7940,Szentlőrinc,46.0402,17.9872
HU,7951,Pécsbagota,45.9903,18.0733
HU,7951,Gerde,45.9897,18.0242
HU,7951,Velény,45.9803,18.0533
HU,7951,Szabadszentkirály,46.0057,18.0447
HU,7953,Királyegyháza,45.9992,17.9691
HU,7954,Magyarmecske,45.9446,17.9637
HU,7954,Kisasszonyfa,45.9467,18.0061
HU,7954,Magyartelek,45.9423,17.9847
HU,7954,Gilvánfa,45.9187,17.9627
HU,7954,Gyöngyfa,45.9602,17.9513
HU,7957,Okorág,45.9259,17.8751
HU,7958,Kákics,45.9044,17.8577
HU,7960,Sósvertike,45.8354,17.8599
HU,7960,Drávaiványi,45.8466,17.817
HU,7960,Drávasztára,45.8275,17.8206
HU,7960,Marócsa,45.9141,17.8145
HU,7960,Sellye,45.8725,17.8471
HU,7960,Sumony,45.9686,17.917
HU,7964,Csányoszró,45.8814,17.911
HU,7966,Bogdása,45.8756,17.7903
HU,7967,Drávakeresztúr,45.8392,17.7587
HU,7967,Markóc,45.8653,17.7706
HU,7967,Drávafok,45.8847,17.764
HU,7968,Felsőszentmárton,45.8522,17.7
HU,7971,Hobol,46.0239,17.7765
HU,7972,Gyöngyösmellék,45.9875,17.7013
HU,7973,Bürüs,45.9655,17.7601
HU,7973,Várad,45.9744,17.7458
HU,7973,Endrőc,45.9301,17.7605
HU,7973,Teklafalu,45.9502,17.7284
HU,7975,Kétújfalu,45.9655,17.7121
HU,7976,Szörény,45.9675,17.682
HU,7976,Zádor,45.9593,17.6593
HU,7980,Pettend,46,17.7
HU,7981,Tótszentgyörgy,46.05,17.7167
HU,7981,Molvány,46.0301,17.7444
HU,7981,Merenye,46.0703,17.698
HU,7981,Kistamási,46.0112,17.7209
HU,7981,Nemeske,46.0201,17.713
HU,7985,Nagydobsza,46.0333,17.6667
HU,7985,Kisdobsza,46.0309,17.654
HU,5500,Gyomaendrőd,46.9333,20.8333
HU,5502,Gyomaendrőd,46.9333,20.8333
HU,5510,Dévaványa,47.0333,20.9667
HU,5515,Ecsegfalva,47.15,20.9167
HU,5516,Körösladány,46.9667,21.0833
HU,5520,Szeghalom,47.0333,21.1667
HU,5525,Füzesgyarmat,47.1,21.2167
HU,5526,Kertészsziget,47.15,21.0667
HU,5527,Bucsa,47.2,21
HU,5530,Vésztő,46.9167,21.2667
HU,5534,Okány,46.9,21.35
HU,5536,Körösújfalu,46.9667,21.4
HU,5537,Zsadány,46.9167,21.5
HU,5538,Biharugra,46.9667,21.6
HU,5539,Körösnagyharsány,47,21.65
HU,5540,Szarvas,46.8667,20.55
HU,5551,Csabacsűd,46.8333,20.65
HU,5552,Kardos,46.7978,20.7179
HU,5553,Kondoros,46.7667,20.8
HU,5555,Hunya,46.8167,20.85
HU,5556,Örménykút,46.85,20.7833
HU,5561,Békésszentandrás,46.8667,20.4833
HU,5600,Békéscsaba,46.6833,21.1
HU,5609,Csabaszabadi,46.6833,21.0833
HU,5621,Csárdaszállás,46.8667,20.9333
HU,5622,Köröstarcsa,46.8833,21.0333
HU,5623,Békéscsaba,46.6833,21.1
HU,5624,Doboz,46.7333,21.25
HU,5630,Békés,46.7667,21.1333
HU,5641,Tarhos,46.8167,21.2167
HU,5643,Bélmegyer,46.8667,21.1833
HU,5650,Mezőberény,46.8167,21.0333
HU,5661,Újkígyós,46.5833,21.0333
HU,5662,Csanádapáca,46.55,20.8833
HU,5663,Medgyesbodzás,46.5167,20.9667
HU,5664,Medgyesbodzás,46.5167,20.9667
HU,5665,Pusztaottlaka,46.55,20.9833
HU,5666,Medgyesegyháza,46.5,21.0333
HU,5667,Magyarbánhegyes,46.45,20.9667
HU,5668,Nagybánhegyes,46.4667,20.9
HU,5671,Békéscsaba,46.6833,21.1
HU,5672,Murony,46.7667,21.05
HU,5673,Kamut,46.7667,20.9833
HU,5674,Kétsoprony,46.7167,20.8667
HU,5675,Telekgerendás,46.65,20.9667
HU,5700,Gyula,46.65,21.2833
HU,5711,Gyula,46.65,21.2833
HU,5712,Szabadkígyós,46.6167,21.1
HU,5720,Sarkad,46.75,21.3833
HU,5725,Kötegyán,46.7333,21.4833
HU,5726,Méhkerék,46.7833,21.45
HU,5727,Újszalonta,46.8,21.5
HU,5731,Sarkadkeresztúr,46.8,21.3833
HU,5732,Mezőgyán,46.8667,21.5333
HU,5734,Geszt,46.8833,21.5833
HU,5741,Kétegyháza,46.5333,21.1833
HU,5742,Elek,46.5333,21.25
HU,5743,Lőkösháza,46.4333,21.2333
HU,5744,Kevermes,46.4167,21.1833
HU,5745,Dombiratos,46.4167,21.1167
HU,5746,Kunágota,46.4333,21.05
HU,5747,Almáskamarás,46.4667,21.1
HU,5751,Nagykamarás,46.4667,21.1167
HU,5752,Medgyesegyháza,46.5,21.0333
HU,5800,Mezőkovácsháza,46.4,20.9167
HU,5811,Végegyháza,46.3833,20.8667
HU,5820,Mezőhegyes,46.3167,20.8167
HU,5830,Battonya,46.2833,21.0167
HU,5836,Dombegyház,46.3333,21.1333
HU,5837,Kisdombegyház,46.3667,21.1
HU,5838,Magyardombegyház,46.3833,21.0667
HU,5900,Orosháza,46.5667,20.6667
HU,5903,Orosháza,46.5667,20.6667
HU,5904,Orosháza,46.5667,20.6667
HU,5905,Orosháza,46.5667,20.6667
HU,5919,Pusztaföldvár,46.5333,20.8
HU,5920,Csorvás,46.6333,20.8333
HU,5925,Gerendás,46.6,20.8667
HU,5931,Nagyszénás,46.6833,20.6667
HU,5932,Gádoros,46.6667,20.6
HU,5940,Tótkomlós,46.4167,20.7333
HU,5945,Kardoskút,46.4833,20.6667
HU,5946,Békéssámson,46.4167,20.6333
HU,5948,Kaszaper,46.4667,20.8333
HU,6000,Kecskemét,46.9062,19.6913
HU,6008,Kecskemét,46.9062,19.6913
HU,6031,Szentkirály,46.9189,19.9185
HU,6032,Nyárlőrinc,46.8602,19.8784
HU,6033,Városföld,46.8167,19.7567
HU,6034,Helvécia,46.8366,19.6225
HU,6035,Ballószög,46.8622,19.5709
HU,6041,Kerekegyháza,46.9372,19.4781
HU,6042,Fülöpháza,46.8833,19.4167
HU,6043,Kunbaracs,46.989,19.4031
HU,6044,Kecskemét,46.9062,19.6913
HU,6045,Ladánybene,47.0342,19.4561
HU,6050,Lajosmizse,47.0213,19.5617
HU,6055,Felsőlajos,47.0672,19.4971
HU,6060,Tiszakécske,46.9326,20.1035
HU,6062,Tiszakécske,46.9326,20.1035
HU,6064,Tiszaug,46.8555,20.0549
HU,6065,Lakitelek,46.876,19.995
HU,6066,Tiszaalpár,46.8128,19.9984
HU,6067,Tiszaalpár,46.8128,19.9984
HU,6070,Izsák,46.8045,19.3517
HU,6075,Páhi,46.7129,19.3869
HU,6076,Ágasegyháza,46.8403,19.4521
HU,6077,Orgovány,46.7509,19.4726
HU,6078,Jakabszállás,46.7603,19.6072
HU,6080,Szabadszállás,46.8758,19.2232
HU,6085,Fülöpszállás,46.8208,19.2375
HU,6086,Szalkszentmárton,46.9757,19.0118
HU,6087,Dunavecse,46.9148,18.9713
HU,6088,Apostag,46.8821,18.9621
HU,6090,Kunszentmiklós,47.027,19.1258
HU,6096,Kunpeszér,47.0589,19.2761
HU,6097,Kunadacs,46.9557,19.2892
HU,6098,Tass,47.021,19.0299
HU,6100,Kiskunfélegyháza,46.7121,19.8446
HU,6111,Gátér,46.679,19.961
HU,6112,Pálmonostora,46.6242,19.9516
HU,6113,Petőfiszállás,46.6218,19.8621
HU,6114,Bugac,46.687,19.6807
HU,6114,Bugacpusztaháza,46.699,19.6315
HU,6115,Kunszállás,46.7625,19.7537
HU,6116,Fülöpjakab,46.7422,19.7213
HU,6120,Kiskunmajsa,46.4903,19.74
HU,6131,Szank,46.5571,19.661
HU,6132,Móricgát,46.6323,19.6702
HU,6133,Jászszentlászló,46.5669,19.7606
HU,6134,Kömpöc,46.4635,19.8667
HU,6135,Csólyospálos,46.4184,19.8395
HU,6136,Harkakötöny,46.4631,19.6076
HU,6200,Kiskőrös,46.6214,19.2853
HU,6211,Kaskantyú,46.672,19.3868
HU,6221,Akasztó,46.6917,19.2042
HU,6222,Csengőd,46.7154,19.268
HU,6223,Soltszentimre,46.7714,19.287
HU,6224,Tabdi,46.6819,19.3265
HU,6230,Soltvadkert,46.5789,19.3939
HU,6235,Bócsa,46.6097,19.4844
HU,6236,Tázlár,46.5482,19.5144
HU,6237,Kecel,46.5253,19.2519
HU,6238,Imrehegy,46.4774,19.3122
HU,6239,Császártöltés,46.4219,19.1836
HU,6300,Kalocsa,46.5298,18.9728
HU,6311,Öregcsertő,46.5181,19.1155
HU,6320,Solt,46.801,19.001
HU,6321,Újsolt,46.8727,19.1207
HU,6323,Dunaegyháza,46.8381,18.9543
HU,6325,Dunatetétlen,46.7575,19.0953
HU,6326,Harta,46.6976,19.0311
HU,6327,Harta,46.6976,19.0311
HU,6328,Dunapataj,46.644,18.9963
HU,6331,Foktő,46.5275,18.9193
HU,6332,Uszód,46.5701,18.9012
HU,6333,Dunaszentbenedek,46.5933,18.8945
HU,6334,Géderlak,46.6068,18.9144
HU,6335,Ordas,46.6359,18.9463
HU,6336,Szakmár,46.5554,19.0753
HU,6337,Újtelek,46.59,19.0586
HU,6341,Homokmégy,46.49,19.0731
HU,6342,Drágszél,46.4675,19.0397
HU,6343,Miske,46.4464,19.0331
HU,6344,Hajós,46.3986,19.1206
HU,6345,Nemesnádudvar,46.3405,19.0512
HU,6346,Sükösd,46.2818,18.9952
HU,6347,Érsekcsanád,46.2535,18.9846
HU,6348,Érsekhalma,46.3488,19.1215
HU,6351,Bátya,46.488,18.9542
HU,6352,Fajsz,46.417,18.9194
HU,6353,Dusnok,46.3909,18.963
HU,6400,Kiskunhalas,46.434,19.4848
HU,6411,Zsana,46.406,19.6815
HU,6412,Balotaszállás,46.351,19.5403
HU,6413,Kunfehértó,46.3609,19.4145
HU,6414,Pirtó,46.5138,19.4323
HU,6421,Kisszállás,46.2801,19.4895
HU,6422,Tompa,46.2061,19.5391
HU,6423,Kelebia,46.1968,19.6166
HU,6424,Csikéria,46.1285,19.4713
HU,6425,Bácsszőlős,46.15,19.45
HU,6430,Bácsalmás,46.1265,19.3326
HU,6435,Kunbaja,46.0842,19.4208
HU,6440,Jánoshalma,46.2986,19.3258
HU,6444,Kéleshalom,46.3654,19.2818
HU,6445,Borota,46.266,19.2228
HU,6446,Rém,46.2473,19.1414
HU,6447,Felsőszentiván,46.1971,19.1869
HU,6448,Csávoly,46.1892,19.1467
HU,6449,Mélykút,46.2151,19.381
HU,6451,Tataháza,46.1741,19.3003
HU,6452,Mátételke,46.1617,19.2804
HU,6453,Bácsbokod,46.125,19.1562
HU,6454,Bácsborsód,46.0987,19.1581
HU,6455,Katymár,46.034,19.2094
HU,6456,Madaras,46.0587,19.2612
HU,6500,Baja,46.183,18.9531
HU,6503,Baja,46.183,18.9531
HU,6511,Bácsszentgyörgy,45.9727,19.0362
HU,6512,Szeremle,46.1437,18.8812
HU,6513,Dunafalva,46.0582,18.9587
HU,6521,Vaskút,46.1078,18.9851
HU,6522,Gara,46.0319,19.0428
HU,6523,Csátalja,46.0367,18.9469
HU,6524,Dávod,45.995,18.9172
HU,6525,Hercegszántó,45.95,18.9392
HU,6527,Nagybaracska,46.0425,18.9059
HU,6528,Bátmonostor,46.1022,18.9285
HU,1007,Budapest,47.4984,19.0404
HU,1011,Budapest,47.4984,19.0404
HU,1012,Budapest,47.4984,19.0404
HU,1013,Budapest,47.4984,19.0404
HU,1014,Budapest,47.4984,19.0404
HU,1015,Budapest,47.4984,19.0404
HU,1016,Budapest,47.4984,19.0404
HU,1021,Budapest,47.4984,19.0404
HU,1022,Budapest,47.4984,19.0404
HU,1023,Budapest,47.4984,19.0404
HU,1024,Budapest,47.4984,19.0404
HU,1025,Budapest,47.4984,19.0404
HU,1026,Budapest,47.4984,19.0404
HU,1027,Budapest,47.4984,19.0404
HU,1028,Budapest,47.4984,19.0404
HU,1029,Budapest,47.4984,19.0404
HU,1031,Budapest,47.4984,19.0404
HU,1032,Budapest,47.4984,19.0404
HU,1033,Budapest,47.4984,19.0404
HU,1034,Budapest,47.4984,19.0404
HU,1035,Budapest,47.4984,19.0404
HU,1036,Budapest,47.4984,19.0404
HU,1037,Budapest,47.4984,19.0404
HU,1038,Budapest,47.4984,19.0404
HU,1039,Budapest,47.4984,19.0404
HU,1041,Budapest,47.4984,19.0404
HU,1042,Budapest,47.4984,19.0404
HU,1043,Budapest,47.4984,19.0404
HU,1044,Budapest,47.4984,19.0404
HU,1045,Budapest,47.4984,19.0404
HU,1046,Budapest,47.4984,19.0404
HU,1047,Budapest,47.4984,19.0404
HU,1048,Budapest,47.4984,19.0404
HU,1051,Budapest,47.4984,19.0404
HU,1052,Budapest,47.4984,19.0404
HU,1053,Budapest,47.4984,19.0404
HU,1054,Budapest,47.4984,19.0404
HU,1055,Budapest,47.4984,19.0404
HU,1056,Budapest,47.4984,19.0404
HU,1061,Budapest,47.4984,19.0404
HU,1062,Budapest,47.4984,19.0404
HU,1063,Budapest,47.4984,19.0404
HU,1064,Budapest,47.4984,19.0404
HU,1065,Budapest,47.4984,19.0404
HU,1066,Budapest,47.4984,19.0404
HU,1067,Budapest,47.4984,19.0404
HU,1068,Budapest,47.4984,19.0404
HU,1071,Budapest,47.4984,19.0404
HU,1072,Budapest,47.4984,19.0404
HU,1073,Budapest,47.4984,19.0404
HU,1074,Budapest,47.4984,19.0404
HU,1075,Budapest,47.4984,19.0404
HU,1076,Budapest,47.4984,19.0404
HU,1077,Budapest,47.4984,19.0404
HU,1078,Budapest,47.4984,19.0404
HU,1081,Budapest,47.4984,19.0404
HU,1082,Budapest,47.4984,19.0404
HU,1083,Budapest,47.4984,19.0404
HU,1084,Budapest,47.4984,19.0404
HU,1085,Budapest,47.4984,19.0404
HU,1086,Budapest,47.4984,19.0404
HU,1087,Budapest,47.4984,19.0404
HU,1088,Budapest,47.4984,19.0404
HU,1089,Budapest,47.4984,19.0404
HU,1091,Budapest,47.4984,19.0404
HU,1092,Budapest,47.4984,19.0404
HU,1093,Budapest,47.4984,19.0404
HU,1094,Budapest,47.4984,19.0404
HU,1095,Budapest,47.4984,19.0404
HU,1096,Budapest,47.4984,19.0404
HU,1097,Budapest,47.4984,19.0404
HU,1098,Budapest,47.4984,19.0404
HU,1101,Budapest,47.4984,19.0404
HU,1102,Budapest,47.4984,19.0404
HU,1103,Budapest,47.4984,19.0404
HU,1104,Budapest,47.4984,19.0404
HU,1105,Budapest,47.4984,19.0404
HU,1106,Budapest,47.4984,19.0404
HU,1107,Budapest,47.4984,19.0404
HU,1108,Budapest,47.4984,19.0404
HU,1111,Budapest,47.4984,19.0404
HU,1112,Budapest,47.4984,19.0404
HU,1113,Budapest,47.4984,19.0404
HU,1114,Budapest,47.4984,19.0404
HU,1115,Budapest,47.4984,19.0404
HU,1116,Budapest,47.4984,19.0404
HU,1117,Budapest,47.4984,19.0404
HU,1118,Budapest,47.4984,19.0404
HU,1119,Budapest,47.4984,19.0404
HU,1121,Budapest,47.4984,19.0404
HU,1122,Budapest,47.4984,19.0404
HU,1123,Budapest,47.4984,19.0404
HU,1124,Budapest,47.4984,19.0404
HU,1125,Budapest,47.4984,19.0404
HU,1126,Budapest,47.4984,19.0404
HU,1131,Budapest,47.4984,19.0404
HU,1132,Budapest,47.4984,19.0404
HU,1133,Budapest,47.4984,19.0404
HU,1134,Budapest,47.4984,19.0404
HU,1135,Budapest,47.4984,19.0404
HU,1136,Budapest,47.4984,19.0404
HU,1137,Budapest,47.4984,19.0404
HU,1138,Budapest,47.4984,19.0404
HU,1139,Budapest,47.4984,19.0404
HU,1141,Budapest,47.4984,19.0404
HU,1142,Budapest,47.4984,19.0404
HU,1143,Budapest,47.4984,19.0404
HU,1144,Budapest,47.4984,19.0404
HU,1145,Budapest,47.4984,19.0404
HU,1146,Budapest,47.4984,19.0404
HU,1147,Budapest,47.4984,19.0404
HU,1148,Budapest,47.4984,19.0404
HU,1149,Budapest,47.4984,19.0404
HU,1151,Budapest,47.4984,19.0404
HU,1152,Budapest,47.4984,19.0404
HU,1153,Budapest,47.4984,19.0404
HU,1154,Budapest,47.4984,19.0404
HU,1155,Budapest,47.4984,19.0404
HU,1156,Budapest,47.4984,19.0404
HU,1157,Budapest,47.4984,19.0404
HU,1158,Budapest,47.4984,19.0404
HU,1161,Budapest,47.4984,19.0404
HU,1162,Budapest,47.4984,19.0404
HU,1163,Budapest,47.4984,19.0404
HU,1164,Budapest,47.4984,19.0404
HU,1165,Budapest,47.4984,19.0404
HU,1171,Budapest,47.4984,19.0404
HU,1172,Budapest,47.4984,19.0404
HU,1173,Budapest,47.4984,19.0404
HU,1174,Budapest,47.4984,19.0404
HU,1181,Budapest,47.4984,19.0404
HU,1182,Budapest,47.4984,19.0404
HU,1183,Budapest,47.4984,19.0404
HU,1184,Budapest,47.4984,19.0404
HU,1185,Budapest,47.4984,19.0404
HU,1186,Budapest,47.4984,19.0404
HU,1188,Budapest,47.4984,19.0404
HU,1191,Budapest,47.4984,19.0404
HU,1192,Budapest,47.4984,19.0404
HU,1193,Budapest,47.4984,19.0404
HU,1194,Budapest,47.4984,19.0404
HU,1195,Budapest,47.4984,19.0404
HU,1196,Budapest,47.4984,19.0404
HU,1201,Budapest,47.4984,19.0404
HU,1202,Budapest,47.4984,19.0404
HU,1203,Budapest,47.4984,19.0404
HU,1204,Budapest,47.4984,19.0404
HU,1205,Budapest,47.4984,19.0404
HU,1211,Budapest,47.4984,19.0404
HU,1212,Budapest,47.4984,19.0404
HU,1213,Budapest,47.4984,19.0404
HU,1214,Budapest,47.4984,19.0404
HU,1215,Budapest,47.4984,19.0404
HU,1221,Budapest,47.4984,19.0404
HU,1222,Budapest,47.4984,19.0404
HU,1223,Budapest,47.4984,19.0404
HU,1224,Budapest,47.4984,19.0404
HU,1225,Budapest,47.4984,19.0404
HU,1237,Budapest,47.4984,19.0404
HU,1238,Budapest,47.4984,19.0404
HU,1239,Budapest,47.4984,19.0404
HU,3400,Mezőkövesd,47.8167,20.5833
HU,3411,Szomolya,47.9,20.5
HU,3412,Bogács,47.9,20.5333
HU,3413,Cserépfalu,47.9333,20.5333
HU,3414,Bükkzsérc,47.9667,20.5
HU,3416,Tard,47.8833,20.6167
HU,3417,Cserépváralja,47.9333,20.5667
HU,3418,Szentistván,47.7667,20.6667
HU,3421,Mezőnyárád,47.8667,20.6833
HU,3422,Bükkábrány,47.8833,20.6833
HU,3423,Tibolddaróc,47.9167,20.6333
HU,3424,Kács,47.95,20.6167
HU,3425,Sály,47.95,20.6667
HU,3426,Borsodgeszt,47.95,20.7
HU,3431,Vatta,47.9167,20.75
HU,3432,Emőd,47.9333,20.8167
HU,3433,Nyékládháza,47.9833,20.8333
HU,3434,Mályi,48.0167,20.8333
HU,3441,Mezőkeresztes,47.8333,20.7
HU,3442,Csincse,47.887,20.7681
HU,3443,Mezőnagymihály,47.8167,20.7333
HU,3444,Gelej,47.8333,20.7833
HU,3450,Mezőcsát,47.8167,20.9167
HU,3458,Tiszakeszi,47.7833,21
HU,3459,Igrici,47.8667,20.8833
HU,3461,Egerlövő,47.7167,20.6333
HU,3462,Borsodivánka,47.7,20.6667
HU,3463,Négyes,47.7,20.7167
HU,3464,Tiszavalk,47.6833,20.75
HU,3465,Tiszabábolna,47.6833,20.8167
HU,3466,Tiszadorogma,47.6833,20.8667
HU,3467,Ároktő,47.7333,20.95
HU,3500,Miskolc,48.1,20.7833
HU,3501,Miskolc,48.1,20.7833
HU,3508,Miskolc,48.1,20.7833
HU,3515,Miskolc,48.1,20.7833
HU,3516,Miskolc,48.1,20.7833
HU,3517,Miskolc,48.1,20.7833
HU,3518,Miskolc,48.1,20.7833
HU,3519,Miskolc,48.1,20.7833
HU,3521,Miskolc,48.1,20.7833
HU,3524,Miskolc,48.1,20.7833
HU,3525,Miskolc,48.1,20.7833
HU,3526,Miskolc,48.1,20.7833
HU,3527,Miskolc,48.1,20.7833
HU,3528,Miskolc,48.1,20.7833
HU,3529,Miskolc,48.1,20.7833
HU,3530,Miskolc,48.1,20.7833
HU,3531,Miskolc,48.1,20.7833
HU,3532,Miskolc,48.1,20.7833
HU,3533,Miskolc,48.1,20.7833
HU,3534,Miskolc,48.1,20.7833
HU,3535,Miskolc,48.1,20.7833
HU,3551,Ónod,48,20.9167
HU,3552,Muhi,47.9833,20.9333
HU,3553,Kistokaj,48.05,20.85
HU,3554,Bükkaranyos,47.9833,20.7833
HU,3555,Harsány,47.9667,20.75
HU,3556,Kisgyőr,48.0167,20.7
HU,3557,Bükkszentkereszt,48.0667,20.6333
HU,3558,Miskolc,48.1,20.7833
HU,3559,Répáshuta,48.05,20.5333
HU,3561,Felsőzsolca,48.1,20.8667
HU,3562,Onga,48.1167,20.9167
HU,3563,Hernádkak,48.0833,20.9667
HU,3564,Hernádnémeti,48.0667,20.9833
HU,3565,Tiszalúc,48.0377,21.0726
HU,3571,Alsózsolca,48.0698,20.8805
HU,3572,Sajólád,48.05,20.9
HU,3573,Sajópetri,48.0333,20.9
HU,3574,Bőcs,48.05,20.9667
HU,3575,Berzék,48.0167,20.95
HU,3576,Sajóhídvég,48,20.95
HU,3577,Köröm,47.9833,20.95
HU,3578,Girincs,47.9667,20.9833
HU,3578,Kiscsécs,47.9667,21.0167
HU,3579,Kesznyéten,47.9667,21.05
HU,3580,Tiszaújváros,47.9333,21.0833
HU,3586,Sajóörös,47.95,21.0333
HU,3587,Tiszapalkonya,47.8833,21.0667
HU,3588,Hejőkürt,47.8667,21
HU,3589,Tiszatarján,47.8333,21.0167
HU,3591,Oszlár,47.8833,21.0333
HU,3592,Nemesbikk,47.8833,20.9667
HU,3593,Hejőbába,47.9,20.95
HU,3594,Hejőpapi,47.9,20.9167
HU,3595,Hejőszalonta,47.9333,20.8833
HU,3596,Szakáld,47.95,20.9167
HU,3597,Hejőkeresztúr,47.9667,20.8833
HU,3598,Nagycsécs,47.9667,20.95
HU,3599,Sajószöged,47.95,21
HU,3600,Ózd,48.2167,20.3
HU,3603,Ózd,48.2167,20.3
HU,3604,Ózd,48.2167,20.3
HU,3608,Farkaslyuk,48.1833,20.3167
HU,3621,Ózd,48.2167,20.3
HU,3622,Uppony,48.2167,20.4333
HU,3623,Borsodszentgyörgy,48.1833,20.2
HU,3625,Ózd,48.2167,20.3
HU,3626,Hangony,48.2333,20.2
HU,3627,Kissikátor,48.2,20.1333
HU,3627,Domaháza,48.1833,20.1167
HU,3630,Putnok,48.3,20.4333
HU,3635,Dubicsány,48.2833,20.5
HU,3636,Sajógalgóc,48.3,20.5333
HU,3636,Vadna,48.2667,20.5667
HU,3641,Nagybarca,48.25,20.5333
HU,3642,Bánhorváti,48.2333,20.5167
HU,3643,Dédestapolcsány,48.1833,20.4833
HU,3644,Tardona,48.1667,20.5333
HU,3645,Mályinka,48.155,20.4956
HU,3646,Nekézseny,48.1667,20.4333
HU,3647,Csokvaomány,48.1667,20.3833
HU,3648,Csernely,48.15,20.35
HU,3648,Lénárddaróc,48.15,20.3833
HU,3648,Bükkmogyorósd,48.1333,20.3667
HU,3651,Ózd,48.2167,20.3
HU,3652,Sajónémeti,48.2667,20.3833
HU,3653,Sajópüspöki,48.2833,20.35
HU,3654,Bánréve,48.3,20.3667
HU,3655,Hét,48.2833,20.3833
HU,3656,Sajómercse,48.25,20.4167
HU,3656,Sajóvelezd,48.2667,20.4667
HU,3657,Királd,48.25,20.4
HU,3658,Borsodbóta,48.2167,20.4
HU,3659,Sáta,48.1833,20.4
HU,3661,Ózd,48.2167,20.3
HU,3662,Ózd,48.2167,20.3
HU,3663,Arló,48.1833,20.2667
HU,3664,Járdánháza,48.15,20.25
HU,3671,Borsodnádasd,48.1167,20.25
HU,3672,Borsodnádasd,48.1167,20.25
HU,3700,Kazincbarcika,48.25,20.6333
HU,3704,Berente,48.2333,20.6667
HU,3711,Szirmabesenyő,48.15,20.8
HU,3712,Sajósenye,48.2,20.8333
HU,3712,Sajóvámos,48.1817,20.8315
HU,3713,Arnót,48.1306,20.8583
HU,3714,Sajópálfala,48.1667,20.85
HU,3715,Gesztely,48.1,20.9667
HU,3716,Újcsanálos,48.1333,21.0167
HU,3716,Sóstófalva,48.15,21
HU,3717,Alsódobsza,48.1833,21
HU,3718,Megyaszó,48.1833,21.05
HU,3720,Sajóivánka,48.2667,20.5833
HU,3720,Sajókaza,48.2833,20.5833
HU,3721,Felsőnyárád,48.3333,20.6
HU,3721,Jákfalva,48.3333,20.5833
HU,3721,Dövény,48.35,20.55
HU,3722,Felsőkelecsény,48.3667,20.6
HU,3723,Zubogy,48.3833,20.5833
HU,3724,Ragály,48.4,20.5167
HU,3724,Trizs,48.4333,20.5
HU,3725,Imola,48.4167,20.55
HU,3726,Szuhafő,48.4167,20.45
HU,3726,Zádorfalva,48.3833,20.4833
HU,3726,Alsószuha,48.3714,20.5045
HU,3728,Gömörszőlős,48.3833,20.4333
HU,3728,Kelemér,48.35,20.4333
HU,3729,Serényfalva,48.3167,20.4
HU,3731,Szuhakálló,48.2833,20.6667
HU,3732,Kurityán,48.3167,20.6333
HU,3733,Rudabánya,48.3833,20.6333
HU,3734,Szuhogy,48.3833,20.6833
HU,3735,Alsótelekes,48.4167,20.6667
HU,3735,Felsőtelekes,48.4,20.6333
HU,3735,Kánó,48.4333,20.6
HU,3741,Izsófalva,48.3,20.6667
HU,3742,Rudolftelep,48.3167,20.6833
HU,3743,Ormosbánya,48.35,20.65
HU,3744,Múcsony,48.2667,20.6833
HU,3751,Szendrőlád,48.35,20.75
HU,3752,Galvács,48.4167,20.7833
HU,3752,Szendrő,48.4,20.7333
HU,3753,Abod,48.4,20.8
HU,3754,Szalonna,48.45,20.75
HU,3754,Meszes,48.4333,20.8
HU,3755,Martonyi,48.4667,20.7667
HU,3756,Perkupa,48.4667,20.7
HU,3756,Varbóc,48.4667,20.65
HU,3757,Teresztenye,48.45,20.6167
HU,3757,Égerszög,48.45,20.5833
HU,3757,Szőlősardó,48.45,20.6333
HU,3758,Jósvafő,48.4833,20.5667
HU,3759,Aggtelek,48.4667,20.5167
HU,3761,Szinpetri,48.4833,20.6333
HU,3761,Tornakápolna,48.4667,20.6167
HU,3761,Szin,48.5,20.6667
HU,3762,Szögliget,48.5167,20.6833
HU,3763,Bódvaszilas,48.5333,20.7333
HU,3764,Bódvarákó,48.5167,20.75
HU,3765,Tornabarakony,48.5,20.8167
HU,3765,Tornaszentandrás,48.5167,20.7833
HU,3765,Komjáti,48.55,20.7667
HU,3767,Tornanádaska,48.5667,20.7833
HU,3768,Bódvalenke,48.55,20.8167
HU,3768,Becskeháza,48.5333,20.85
HU,3768,Hidvégardó,48.5667,20.85
HU,3769,Tornaszentjakab,48.5167,20.8833
HU,3770,Sajószentpéter,48.2167,20.7167
HU,3773,Sajólászlófalva,48.1833,20.6833
HU,3773,Sajókápolna,48.2,20.7
HU,3775,Kondó,48.2,20.65
HU,3776,Radostyán,48.1833,20.6667
HU,3777,Parasznya,48.1667,20.65
HU,3778,Varbó,48.1667,20.6333
HU,3779,Alacska,48.2167,20.65
HU,3780,Ládbesenyő,48.3431,20.7866
HU,3780,Edelény,48.3,20.7333
HU,3780,Balajt,48.3209,20.7878
HU,3780,Damak,48.3167,20.8333
HU,3783,Edelény,48.3,20.7333
HU,3786,Irota,48.4,20.8833
HU,3786,Hegymeg,48.3333,20.8667
HU,3786,Szakácsi,48.3833,20.8667
HU,3786,Lak,48.35,20.8667
HU,3787,Tomor,48.3333,20.8833
HU,3791,Sajókeresztúr,48.1667,20.7833
HU,3792,Sajóbábony,48.1667,20.7333
HU,3793,Sajóecseg,48.2,20.7833
HU,3794,Boldva,48.2167,20.8
HU,3794,Ziliz,48.25,20.8
HU,3795,Nyomár,48.2755,20.8203
HU,3795,Hangács,48.3,20.8333
HU,3796,Borsodszirák,48.2667,20.7667
HU,3800,Szikszó,48.2,20.9333
HU,3809,Abaújszolnok,48.3667,20.9833
HU,3809,Selyeb,48.3333,20.9667
HU,3809,Nyésta,48.3667,20.95
HU,3811,Alsóvadász,48.25,20.9167
HU,3812,Homrogd,48.2833,20.9167
HU,3812,Monaj,48.3,20.95
HU,3813,Kupa,48.3333,20.9167
HU,3814,Felsővadász,48.3667,20.9333
HU,3815,Abaújlak,48.4,20.9667
HU,3815,Gadna,48.4,20.9333
HU,3816,Gagyvendégi,48.4333,20.9833
HU,3817,Gagybátor,48.4333,20.95
HU,3821,Keresztéte,48.5,20.95
HU,3821,Kány,48.5167,21.0167
HU,3821,Krasznokvajda,48.4667,20.9833
HU,3821,Perecse,48.5,21
HU,3821,Szászfa,48.4667,20.95
HU,3821,Büttös,48.4833,21.0167
HU,3821,Pamlény,48.5,20.9333
HU,3825,Debréte,48.5,20.8667
HU,3825,Rakaca,48.4667,20.9
HU,3825,Viszló,48.5,20.9
HU,3826,Rakacaszend,48.4667,20.85
HU,3831,Kázsmárk,48.2833,20.9833
HU,3832,Léh,48.2833,20.9833
HU,3833,Rásonysápberencs,48.3167,21
HU,3834,Beret,48.35,21.0333
HU,3834,Detek,48.3333,21.0333
HU,3836,Baktakék,48.3833,21.0333
HU,3837,Gagyapáti,48.4167,21
HU,3837,Alsógagy,48.4,21.0333
HU,3837,Csenyéte,48.4333,21.05
HU,3837,Felsőgagy,48.4333,21.0167
HU,3841,Aszaló,48.2167,20.9667
HU,3842,Halmaj,48.25,21
HU,3843,Kiskinizs,48.2509,21.0346
HU,3844,Nagykinizs,48.2333,21.0333
HU,3844,Szentistvánbaksa,48.2237,21.0281
HU,3846,Hernádkércs,48.25,21.05
HU,3847,Felsődobsza,48.2565,21.0752
HU,3848,Csobád,48.2833,21.0333
HU,3849,Forró,48.3167,21.0833
HU,3851,Ináncs,48.2833,21.0667
HU,3852,Hernádszentandrás,48.2904,21.0882
HU,3853,Pere,48.2847,21.1181
HU,3853,Hernádbűd,48.3,21.1333
HU,3854,Gibárt,48.3333,21.1333
HU,3855,Fancsal,48.35,21.0667
HU,3860,Encs,48.3333,21.1333
HU,3863,Szalaszend,48.3833,21.1333
HU,3864,Fulókércs,48.4333,21.1167
HU,3865,Fáj,48.4167,21.0833
HU,3866,Litka,48.45,21.0667
HU,3866,Szemere,48.4667,21.1
HU,3871,Méra,48.35,21.15
HU,3872,Novajidrány,48.4,21.1833
HU,3873,Garadna,48.4167,21.1833
HU,3874,Hernádpetri,48.4833,21.1667
HU,3874,Hernádvécse,48.45,21.1667
HU,3874,Pusztaradvány,48.4667,21.1333
HU,3875,Hernádszurdok,48.4833,21.2167
HU,3876,Hidasnémeti,48.5,21.2333
HU,3877,Tornyosnémeti,48.5167,21.2667
HU,3881,Baskó,48.3333,21.3333
HU,3881,Abaújszántó,48.2833,21.2
HU,3881,Sima,48.3,21.3
HU,3882,Abaújalpár,48.3067,21.2332
HU,3882,Abaújkér,48.3,21.2
HU,3884,Boldogkőújfalu,48.3185,21.2414
HU,3885,Boldogkőváralja,48.3333,21.2333
HU,3885,Arka,48.35,21.25
HU,3886,Korlát,48.3833,21.25
HU,3887,Hernádcéce,48.35,21.2
HU,3888,Vizsoly,48.3833,21.2167
HU,3891,Vilmány,48.4167,21.2333
HU,3892,Hejce,48.4333,21.2833
HU,3893,Fony,48.4,21.3
HU,3893,Regéc,48.4,21.35
HU,3893,Mogyoróska,48.3833,21.3333
HU,3894,Göncruszka,48.45,21.25
HU,3895,Gönc,48.4667,21.2833
HU,3896,Telkibánya,48.4833,21.3667
HU,3897,Zsujta,48.5,21.2833
HU,3898,Abaújvár,48.5333,21.3167
HU,3898,Pányok,48.5333,21.3667
HU,3899,Kéked,48.55,21.35
HU,3900,Szerencs,48.1599,21.2097
HU,3902,Szerencs,48.1599,21.2097
HU,3903,Bekecs,48.15,21.1833
HU,3904,Legyesbénye,48.1667,21.15
HU,3905,Monok,48.211,21.1505
HU,3906,Golop,48.2333,21.2
HU,3907,Tállya,48.2333,21.2333
HU,3908,Rátka,48.2167,21.2333
HU,3909,Mád,48.1944,21.2821
HU,3910,Tokaj,48.1167,21.4167
HU,3915,Tarcal,48.1333,21.35
HU,3916,Bodrogkeresztúr,48.1667,21.3667
HU,3917,Bodrogkisfalud,48.1833,21.3667
HU,3918,Szegi,48.2,21.3833
HU,3918,Szegilong,48.2167,21.4
HU,3921,Taktaszada,48.1167,21.1833
HU,3922,Taktaharkány,48.0833,21.1333
HU,3923,Gesztely,48.1,20.9667
HU,3924,Taktakenéz,48.05,21.2167
HU,3925,Prügy,48.0833,21.25
HU,3926,Taktabáj,48.0667,21.3167
HU,3927,Csobaj,48.05,21.35
HU,3928,Tiszatardos,48.05,21.3833
HU,3929,Tiszaladány,48.0667,21.4167
HU,3931,Mezőzombor,48.15,21.2667
HU,3932,Erdőbénye,48.2667,21.3667
HU,3933,Olaszliszka,48.25,21.4333
HU,3934,Tolcsva,48.2833,21.45
HU,3935,Erdőhorváti,48.3167,21.4333
HU,3936,Háromhuta,48.3833,21.4333
HU,3937,Komlóska,48.3333,21.4667
HU,3941,Vámosújfalu,48.2667,21.4667
HU,3942,Sárazsadány,48.2667,21.5
HU,3943,Bodrogolaszi,48.2833,21.5167
HU,3944,Sátoraljaújhely,48.3949,21.6587
HU,3945,Sátoraljaújhely,48.3949,21.6587
HU,3950,Sárospatak,48.3245,21.5738
HU,3954,Györgytarló,48.2,21.6667
HU,3955,Kenézlő,48.2,21.5333
HU,3956,Viss,48.2167,21.5167
HU,3957,Zalkod,48.1833,21.4667
HU,3958,Hercegkút,48.3333,21.5333
HU,3959,Makkoshotyka,48.35,21.5167
HU,3961,Vajdácska,48.3167,21.6667
HU,3962,Karos,48.3333,21.75
HU,3963,Karcsa,48.3113,21.8054
HU,3964,Pácin,48.3348,21.8361
HU,3965,Nagyrozvágy,48.3418,21.9207
HU,3965,Kisrozvágy,48.3497,21.9381
HU,3967,Lácacséke,48.3667,22
HU,3971,Tiszakarád,48.2,21.7167
HU,3972,Tiszacsermely,48.2333,21.7833
HU,3973,Cigánd,48.2556,21.8919
HU,3974,Semjén,48.3501,21.9722
HU,3974,Ricse,48.3256,21.9707
HU,3976,Révleányvár,48.3238,22.0425
HU,3977,Zemplénagárd,48.3574,22.0807
HU,3978,Dámóc,48.3752,22.0338
HU,3980,Sátoraljaújhely,48.3949,21.6587
HU,3985,Alsóberecki,48.35,21.7
HU,3985,Felsőberecki,48.3667,21.7
HU,3987,Bodroghalom,48.3,21.7167
HU,3988,Sátoraljaújhely,48.3949,21.6587
HU,3989,Alsóregmec,48.4667,21.6167
HU,3989,Mikóháza,48.475,21.6167
HU,3989,Felsőregmec,48.4833,21.6167
HU,3991,Vilyvitány,48.5,21.5667
HU,3992,Kovácsvágás,48.45,21.5333
HU,3992,Vágáshuta,48.4167,21.55
HU,3993,Füzérradvány,48.4833,21.5333
HU,3994,Kishuta,48.45,21.4833
HU,3994,Füzérkajata,48.5167,21.5
HU,3994,Filkeháza,48.5,21.5
HU,3994,Bózsva,48.4667,21.4667
HU,3994,Nagyhuta,48.4333,21.5
HU,3994,Pálháza,48.4667,21.5167
HU,3995,Pusztafalu,48.55,21.5
HU,3996,Füzér,48.55,21.4667
HU,3997,Füzérkomlós,48.5167,21.4667
HU,3998,Nyíri,48.5,21.45
HU,3999,Hollóháza,48.55,21.4167
HU,6600,Szentes,46.6583,20.2608
HU,6612,Nagytőke,46.7,20.2833
HU,6621,Derekegyház,46.5833,20.3667
HU,6622,Nagymágocs,46.5833,20.5
HU,6623,Árpádhalom,46.6167,20.55
HU,6624,Eperjes,46.6833,20.5667
HU,6625,Fábiánsebestyén,46.6833,20.4667
HU,6630,Mindszent,46.5236,20.1904
HU,6635,Szegvár,46.5874,20.2241
HU,6636,Mártély,46.4886,20.232
HU,6640,Csongrád,46.7133,20.1424
HU,6645,Felgyő,46.6474,20.1053
HU,6646,Tömörkény,46.6172,20.0436
HU,6647,Csanytelek,46.595,20.1234
HU,6648,Csongrád,46.7133,20.1424
HU,6700,Szeged,46.2956,20.0703
HU,6710,Szeged,46.253,20.1482
HU,6720,Szeged,46.253,20.1482
HU,6721,Szeged,46.253,20.1482
HU,6722,Szeged,46.253,20.1482
HU,6723,Szeged,46.253,20.1482
HU,6724,Szeged,46.253,20.1482
HU,6725,Szeged,46.253,20.1482
HU,6726,Szeged,46.253,20.1482
HU,6727,Szeged,46.253,20.1482
HU,6728,Szeged,46.253,20.1482
HU,6729,Szeged,46.253,20.1482
HU,6750,Algyő,46.3347,20.2085
HU,6753,Szeged,46.253,20.1482
HU,6754,Újszentiván,46.186,20.1845
HU,6755,Kübekháza,46.1499,20.2766
HU,6756,Tiszasziget,46.1747,20.1644
HU,6757,Szeged,46.253,20.1482
HU,6758,Röszke,46.188,20.0337
HU,6760,Kistelek,46.4725,19.9797
HU,6762,Sándorfalva,46.3609,20.0989
HU,6763,Szatymaz,46.3431,20.0402
HU,6764,Balástya,46.4228,20.0082
HU,6765,Csengele,46.5423,19.8636
HU,6766,Dóc,46.4378,20.1375
HU,6767,Ópusztaszer,46.4859,20.0872
HU,6768,Baks,46.543,20.1021
HU,6769,Pusztaszer,46.5508,19.9882
HU,6771,Szeged,46.253,20.1482
HU,6772,Deszk,46.218,20.2432
HU,6773,Klárafalva,46.2167,20.3333
HU,6774,Ferencszállás,46.2167,20.35
HU,6775,Kiszombor,46.1833,20.4333
HU,6781,Domaszék,46.2492,20.0111
HU,6782,Mórahalom,46.2181,19.8851
HU,6783,Ásotthalom,46.1988,19.7833
HU,6784,Öttömös,46.2816,19.682
HU,6785,Pusztamérges,46.3285,19.685
HU,6786,Ruzsa,46.2881,19.7471
HU,6787,Zákányszék,46.2745,19.8898
HU,6791,Szeged,46.253,20.1482
HU,6792,Zsombó,46.3257,19.9746
HU,6793,Forráskút,46.3653,19.9097
HU,6794,Üllés,46.3361,19.8445
HU,6795,Bordány,46.3184,19.9231
HU,6800,Hódmezővásárhely,46.4167,20.3333
HU,6805,Hódmezővásárhely,46.4167,20.3333
HU,6806,Hódmezővásárhely,46.4167,20.3333
HU,6821,Székkutas,46.5,20.5333
HU,6900,Makó,46.2167,20.4833
HU,6903,Makó,46.2167,20.4833
HU,6911,Királyhegyes,46.2667,20.6167
HU,6912,Kövegy,46.2167,20.6833
HU,6913,Csanádpalota,46.25,20.7333
HU,6914,Pitvaros,46.3167,20.7333
HU,6915,Csanádalberti,46.3333,20.7167
HU,6916,Ambrózfalva,46.35,20.7333
HU,6917,Nagyér,46.3667,20.7333
HU,6921,Maroslele,46.2667,20.35
HU,6922,Földeák,46.3167,20.5
HU,6923,Óföldeák,46.3,20.45
HU,6931,Apátfalva,46.1667,20.5833
HU,6932,Magyarcsanád,46.1667,20.6167
HU,6933,Nagylak,46.1667,20.7167
HU,2060,Bicske,47.4842,18.644
HU,2063,Óbarok,47.5,18.5833
HU,2064,Csabdi,47.5196,18.6124
HU,2065,Mány,47.5335,18.6563
HU,2066,Szár,47.4808,18.5139
HU,2066,Újbarok,47.4795,18.5594
HU,2067,Szárliget,47.5158,18.4948
HU,2091,Etyek,47.4479,18.7533
HU,2400,Dunaújváros,46.9674,18.9329
HU,2407,Dunaújváros,46.9674,18.9329
HU,2421,Nagyvenyim,46.9576,18.8635
HU,2422,Mezőfalva,46.9318,18.7718
HU,2423,Daruszentmiklós,46.8933,18.8552
HU,2424,Előszállás,46.8309,18.8348
HU,2425,Nagykarácsony,46.8712,18.7724
HU,2426,Baracs,46.882,18.9066
HU,2427,Baracs,46.882,18.9066
HU,2428,Kisapostag,46.8973,18.9307
HU,2431,Perkáta,47.047,18.7873
HU,2432,Szabadegyháza,47.0761,18.6899
HU,2433,Sárosd,47.0427,18.6436
HU,2434,Hantos,46.9952,18.6954
HU,2435,Nagylók,46.9763,18.6464
HU,2451,Ercsi,47.2519,18.8962
HU,2453,Ercsi,47.2519,18.8962
HU,2454,Iváncsa,47.1567,18.8203
HU,2455,Beloiannisz,47.1824,18.8238
HU,2456,Besnyő,47.1887,18.793
HU,2457,Adony,47.1194,18.8649
HU,2458,Kulcs,47.05,18.9167
HU,2459,Rácalmás,47.0226,18.9406
HU,2462,Martonvásár,47.316,18.7904
HU,2463,Tordas,47.344,18.7525
HU,2464,Gyúró,47.3719,18.734
HU,2465,Ráckeresztúr,47.2736,18.8334
HU,2471,Baracska,47.2822,18.7585
HU,2472,Kajászó,47.3242,18.7235
HU,2473,Vál,47.3626,18.6793
HU,2475,Kápolnásnyék,47.24,18.6756
HU,2476,Pázmánd,47.2875,18.6536
HU,2477,Vereb,47.3139,18.6296
HU,2481,Velence,47.2385,18.6548
HU,2483,Gárdony,47.2094,18.6361
HU,2484,Gárdony,47.2094,18.6361
HU,2485,Gárdony,47.2094,18.6361
HU,2490,Pusztaszabolcs,47.1372,18.767
HU,7000,Sárbogárd,46.8869,18.6204
HU,7003,Sárbogárd,46.8869,18.6204
HU,7011,Alap,46.7991,18.6894
HU,7012,Alsószentiván,46.7866,18.7296
HU,7013,Cece,46.7706,18.6283
HU,7014,Sáregres,46.7809,18.5924
HU,7015,Igar,46.7814,18.5157
HU,7017,Mezőszilas,46.8111,18.4779
HU,7018,Sárbogárd,46.8869,18.6204
HU,7019,Sárbogárd,46.8869,18.6204
HU,7041,Vajta,46.7176,18.6657
HU,8000,Székesfehérvár,47.1899,18.4103
HU,8019,Székesfehérvár,47.1899,18.4103
HU,8041,Csór,47.2057,18.2567
HU,8042,Moha,47.243,18.3349
HU,8043,Iszkaszentgyörgy,47.2372,18.2948
HU,8044,Kincsesbánya,47.2644,18.2779
HU,8045,Isztimér,47.2788,18.1954
HU,8046,Bakonykúti,47.2457,18.1954
HU,8051,Sárkeresztes,47.2548,18.3488
HU,8052,Fehérvárcsurgó,47.2935,18.2646
HU,8053,Bodajk,47.3235,18.2331
HU,8054,Balinka,47.3135,18.1895
HU,8055,Balinka,47.3135,18.1895
HU,8056,Bakonycsernye,47.3239,18.0751
HU,8060,Mór,47.3779,18.2035
HU,8065,Nagyveleg,47.3598,18.1096
HU,8066,Pusztavám,47.4295,18.2265
HU,8071,Magyaralmás,47.291,18.3265
HU,8072,Söréd,47.3243,18.2793
HU,8073,Csákberény,47.3464,18.3288
HU,8074,Csókakő,47.3518,18.2702
HU,8080,Bodmér,47.45,18.535
HU,8081,Zámoly,47.3167,18.4081
HU,8082,Gánt,47.3911,18.3887
HU,8083,Csákvár,47.3918,18.465
HU,8085,Vértesboglár,47.4287,18.5248
HU,8086,Felcsút,47.458,18.5863
HU,8087,Alcsútdoboz,47.4284,18.6043
HU,8088,Tabajd,47.4075,18.6251
HU,8089,Vértesacsa,47.3715,18.5776
HU,8092,Pátka,47.2785,18.4878
HU,8093,Lovasberény,47.31,18.5518
HU,8095,Pákozd,47.2137,18.5331
HU,8096,Sukoró,47.2393,18.6034
HU,8097,Nadap,47.2566,18.6152
HU,8111,Seregélyes,47.1105,18.565
HU,8112,Zichyújfalu,47.1333,18.6833
HU,8121,Tác,47.0824,18.3998
HU,8122,Csősz,47.0376,18.415
HU,8123,Soponya,47.0148,18.4534
HU,8124,Káloz,46.9546,18.4826
HU,8125,Sárkeresztúr,47.0054,18.5439
HU,8126,Sárszentágota,46.9719,18.5659
HU,8127,Aba,47.0291,18.5217
HU,8130,Enying,46.9305,18.242
HU,8131,Enying,46.9305,18.242
HU,8132,Lepsény,46.9904,18.2436
HU,8133,Mezőszentgyörgy,46.992,18.282
HU,8134,Mátyásdomb,46.9222,18.3478
HU,8135,Dég,46.8681,18.4504
HU,8136,Lajoskomárom,46.842,18.3376
HU,8137,Mezőkomárom,46.8259,18.2935
HU,8138,Szabadhídvég,46.8174,18.2685
HU,8142,Úrhida,47.1386,18.338
HU,8143,Sárszentmihály,47.1532,18.3388
HU,8144,Sárkeszi,47.1582,18.2864
HU,8145,Nádasdladány,47.1383,18.2397
HU,8146,Jenő,47.1046,18.2509
HU,8151,Szabadbattyán,47.119,18.3682
HU,8152,Kőszárhegy,47.0925,18.3456
HU,8154,Polgárdi,47.061,18.302
HU,8156,Kisláng,46.9574,18.3881
HU,8157,Füle,47.0533,18.2484
HU,9000,Győr,47.6308,17.7295
HU,9011,Győr,47.6833,17.6351
HU,9012,Győr,47.6833,17.6351
HU,9019,Győr,47.6833,17.6351
HU,9021,Győr,47.6833,17.6351
HU,9022,Győr,47.6833,17.6351
HU,9023,Győr,47.6833,17.6351
HU,9024,Győr,47.6833,17.6351
HU,9025,Győr,47.6833,17.6351
HU,9026,Győr,47.6833,17.6351
HU,9027,Győr,47.6833,17.6351
HU,9028,Győr,47.6833,17.6351
HU,9029,Győr,47.6833,17.6351
HU,9030,Győr,47.6833,17.6351
HU,9061,Vámosszabadi,47.7552,17.6477
HU,9062,Kisbajcs,47.746,17.6806
HU,9062,Vének,47.7398,17.7583
HU,9063,Nagybajcs,47.7661,17.6886
HU,9064,Vámosszabadi,47.7552,17.6477
HU,9071,Gönyű,47.7333,17.8333
HU,9072,Nagyszentjános,47.7103,17.8696
HU,9073,Bőny,47.65,17.8698
HU,9074,Rétalap,47.6061,17.909
HU,9081,Győrújbarát,47.6064,17.6488
HU,9082,Nyúl,47.5905,17.689
HU,9083,Écs,47.5609,17.7067
HU,9084,Győrság,47.5806,17.7525
HU,9085,Pázmándfalu,47.5702,17.7856
HU,9086,Töltéstava,47.6261,17.7338
HU,9088,Bakonypéterd,47.4668,17.797
HU,9089,Lázi,47.4645,17.8346
HU,9090,Pannonhalma,47.5495,17.7554
HU,9091,Ravazd,47.5142,17.7536
HU,9092,Tarjánpuszta,47.5,17.7833
HU,9093,Győrasszonyfa,47.5,17.8
HU,9094,Tápszentmiklós,47.5,17.85
HU,9095,Táp,47.52,17.8249
HU,9096,Nyalka,47.5436,17.8083
HU,9097,Mezőörs,47.5689,17.8824
HU,9098,Pér,47.6115,17.8063
HU,9099,Pér,47.6115,17.8063
HU,9100,Tét,47.5192,17.508
HU,9111,Tényő,47.5376,17.6386
HU,9112,Sokorópátka,47.4808,17.702
HU,9113,Koroncó,47.5988,17.5265
HU,9121,Győrszemere,47.5526,17.5636
HU,9122,Felpéc,47.5234,17.5971
HU,9123,Kajárpéc,47.4907,17.6385
HU,9124,Gyömöre,47.4977,17.5659
HU,9125,Szerecseny,47.4628,17.555
HU,9126,Gyarmat,47.4612,17.4973
HU,9127,Csikvánd,47.4667,17.4517
HU,9131,Mórichida,47.5133,17.4195
HU,9132,Árpás,47.5167,17.4
HU,9133,Kisbabot,47.5558,17.4157
HU,9133,Rábaszentmiklós,47.5383,17.4185
HU,9134,Bodonhely,47.5637,17.4079
HU,9135,Rábaszentmihály,47.5775,17.4325
HU,9136,Mérges,47.6018,17.4433
HU,9136,Rábacsécsény,47.5861,17.4238
HU,9141,Ikrény,47.655,17.5275
HU,9142,Rábapatona,47.6322,17.48
HU,9143,Enese,47.6463,17.4233
HU,9144,Kóny,47.6305,17.3572
HU,9145,Bágyogszovát,47.5844,17.3639
HU,9146,Rábapordány,47.5577,17.3275
HU,9147,Dör,47.5988,17.2998
HU,9151,Abda,47.6946,17.5449
HU,9152,Börcs,47.6853,17.4999
HU,9153,Öttevény,47.7195,17.4847
HU,9154,Mosonszentmiklós,47.7278,17.4278
HU,9155,Lébény,47.7357,17.3908
HU,9161,Győrsövényház,47.6896,17.3736
HU,9162,Bezi,47.6737,17.3912
HU,9163,Fehértó,47.676,17.3466
HU,9164,Markotabödöge,47.6819,17.3101
HU,9165,Tárnokréti,47.7212,17.307
HU,9165,Cakóháza,47.6966,17.2874
HU,9165,Rábcakapi,47.709,17.2757
HU,9167,Bősárkány,47.6882,17.25
HU,9167,Jánossomorja,47.7862,17.136
HU,9168,Acsalag,47.6785,17.1971
HU,9168,Csorna,47.6116,17.2501
HU,9169,Maglóca,47.6619,17.2743
HU,9169,Barbacs,47.6452,17.2976
HU,9171,Győrújfalu,47.7252,17.6061
HU,9172,Győrzámoly,47.7432,17.581
HU,9173,Győrladamér,47.7565,17.5622
HU,9174,Dunaszeg,47.7704,17.5385
HU,9175,Dunaszentpál,47.7786,17.5083
HU,9176,Mecsér,47.7956,17.4754
HU,9177,Ásványráró,47.8273,17.4942
HU,9178,Hédervár,47.8293,17.4531
HU,9181,Kimle,47.8173,17.3664
HU,9182,Károlyháza,47.7,17.7333
HU,9183,Mosonszentmiklós,47.7278,17.4278
HU,9184,Kunsziget,47.7402,17.5225
HU,9200,Mosonmagyaróvár,47.8679,17.2699
HU,9211,Feketeerdő,47.9365,17.2792
HU,9221,Levél,47.8944,17.2039
HU,9222,Hegyeshalom,47.9134,17.1539
HU,9223,Bezenye,47.9605,17.2154
HU,9224,Rajka,47.9964,17.1982
HU,9225,Dunakiliti,47.9654,17.2866
HU,9226,Dunasziget,47.9403,17.3527
HU,9228,Halászi,47.8893,17.3261
HU,9231,Máriakálnok,47.8611,17.3251
HU,9232,Darnózseli,47.8494,17.4237
HU,9233,Lipót,47.8619,17.4631
HU,9234,Kisbodak,47.8962,17.4192
HU,9235,Dunaremete,47.877,17.4361
HU,9235,Püski,47.8848,17.4076
HU,9241,Jánossomorja,47.7862,17.136
HU,9242,Jánossomorja,47.7862,17.136
HU,9243,Várbalog,47.8334,17.0693
HU,9243,Jánossomorja,47.7862,17.136
HU,9244,Újrónafő,47.8093,17.2013
HU,9245,Mosonszolnok,47.8515,17.1739
HU,9246,Mosonudvar,47.8439,17.2274
HU,9300,Csorna,47.6116,17.2501
HU,9311,Pásztori,47.5561,17.2711
HU,9312,Szilsárkány,47.5396,17.2562
HU,9313,Rábacsanak,47.526,17.2899
HU,9314,Egyed,47.5207,17.3387
HU,9315,Sobor,47.4768,17.3658
HU,9316,Rábaszentandrás,47.4591,17.3294
HU,9317,Szany,47.4642,17.304
HU,9321,Farád,47.6063,17.2002
HU,9322,Rábatamási,47.5878,17.1696
HU,9323,Jobaháza,47.5804,17.1864
HU,9324,Potyond,47.5494,17.1817
HU,9324,Bogyoszló,47.5612,17.1844
HU,9325,Sopronnémeti,47.5364,17.2069
HU,9326,Szil,47.5011,17.2331
HU,9327,Rábasebes,47.4403,17.2423
HU,9327,Vág,47.4466,17.2101
HU,9330,Kapuvár,47.5922,17.0289
HU,9339,Kapuvár,47.5922,17.0289
HU,9341,Kisfalud,47.5138,17.0951
HU,9342,Mihályi,47.5138,17.0951
HU,9343,Beled,47.4659,17.0929
HU,9343,Edve,47.45,17.1333
HU,9343,Vásárosfalu,47.4541,17.115
HU,9344,Rábakecöl,47.4325,17.1142
HU,9345,Páli,47.4754,17.1654
HU,9346,Magyarkeresztúr,47.5215,17.1661
HU,9346,Vadosfa,47.4981,17.1287
HU,9346,Zsebeháza,47.5105,17.1911
HU,9351,Babót,47.5757,17.0743
HU,9352,Veszkény,47.5999,17.0845
HU,9353,Szárföld,47.5927,17.1223
HU,9354,Osli,47.6377,17.0752
HU,9361,Hövej,47.5511,17.0194
HU,9362,Himod,47.5198,17.0042
HU,9363,Gyóró,47.4912,17.0232
HU,9364,Cirák,47.4782,17.0288
HU,9365,Dénesfa,47.4579,17.0306
HU,9371,Vitnyéd,47.5865,16.9828
HU,9372,Csapod,47.5191,16.9277
HU,9373,Pusztacsalád,47.4857,16.9021
HU,9374,Iván,47.4438,16.906
HU,9375,Csáfordjánosfa,47.416,16.9501
HU,9375,Répceszemere,47.4276,16.9744
HU,9375,Csér,47.4175,16.9341
HU,9400,Sopron,47.685,16.5905
HU,9407,Sopron,47.685,16.5905
HU,9408,Sopron,47.685,16.5905
HU,9421,Fertőrákos,47.7202,16.6504
HU,9422,Harka,47.6333,16.6
HU,9423,Ágfalva,47.6899,16.5166
HU,9431,Fertőd,47.6217,16.8709
HU,9433,Fertőd,47.6217,16.8709
HU,9434,Sarród,47.6352,16.8618
HU,9435,Sarród,47.6352,16.8618
HU,9436,Fertőszéplak,47.6153,16.8353
HU,9437,Hegykő,47.6187,16.797
HU,9438,Sarród,47.6352,16.8618
HU,9441,Agyagosszergény,47.6101,16.9379
HU,9442,Fertőendréd,47.6056,16.909
HU,9443,Petőháza,47.5974,16.8935
HU,9444,Fertőszentmiklós,47.59,16.8752
HU,9451,Röjtökmuzsaj,47.5565,16.8356
HU,9451,Ebergőc,47.5636,16.8113
HU,9461,Lövő,47.5014,16.7863
HU,9462,Völcsej,47.497,16.761
HU,9463,Sopronhorpács,47.4834,16.7353
HU,9464,Und,47.4891,16.6957
HU,9471,Nemeskér,47.4833,16.8056
HU,9472,Újkér,47.4609,16.818
HU,9473,Egyházasfalu,47.4659,16.7647
HU,9474,Szakony,47.4254,16.7155
HU,9474,Gyalóka,47.4437,16.695
HU,9475,Répcevis,47.4421,16.6715
HU,9476,Zsira,47.4576,16.6773
HU,9481,Pinnye,47.5849,16.7691
HU,9482,Nagylózs,47.565,16.7682
HU,9483,Sopronkövesd,47.5448,16.7451
HU,9484,Pereszteg,47.5921,16.7344
HU,9485,Nagycenk,47.6044,16.6973
HU,9491,Hidegség,47.6265,16.7415
HU,9492,Fertőhomok,47.6209,16.7686
HU,9493,Fertőboz,47.6364,16.7009
HU,9494,Sopron,47.685,16.5905
HU,9495,Kópháza,47.6366,16.6426
HU,4000,Debrecen,47.5333,21.6333
HU,4002,Debrecen,47.5333,21.6333
HU,4024,Debrecen,47.5333,21.6333
HU,4025,Debrecen,47.5333,21.6333
HU,4026,Debrecen,47.5333,21.6333
HU,4027,Debrecen,47.5333,21.6333
HU,4028,Debrecen,47.5333,21.6333
HU,4029,Debrecen,47.5333,21.6333
HU,4030,Debrecen,47.5333,21.6333
HU,4031,Debrecen,47.5333,21.6333
HU,4032,Debrecen,47.5333,21.6333
HU,4033,Debrecen,47.5333,21.6333
HU,4034,Debrecen,47.5333,21.6333
HU,4042,Debrecen,47.5333,21.6333
HU,4060,Balmazújváros,47.6167,21.35
HU,4063,Debrecen,47.5333,21.6333
HU,4064,Nagyhegyes,47.5167,21.4167
HU,4065,Újszentmargita,47.7333,21.1
HU,4066,Tiszacsege,47.7,21
HU,4067,Egyek,47.6333,20.9
HU,4069,Egyek,47.6333,20.9
HU,4071,Hortobágy,47.5828,21.1511
HU,4074,Hajdúböszörmény,47.6667,21.5167
HU,4075,Görbeháza,47.8333,21.2333
HU,4078,Debrecen,47.5333,21.6333
HU,4079,Debrecen,47.5333,21.6333
HU,4080,Hajdúnánás,47.85,21.4333
HU,4085,Hajdúnánás,47.85,21.4333
HU,4086,Hajdúböszörmény,47.6667,21.5167
HU,4087,Hajdúdorog,47.8167,21.5
HU,4090,Polgár,47.8667,21.1167
HU,4095,Folyás,47.8,21.1333
HU,4096,Újtikos,47.9167,21.1833
HU,4097,Tiszagyulaháza,47.95,21.15
HU,4100,Berettyóújfalu,47.2167,21.55
HU,4110,Biharkeresztes,47.1333,21.7167
HU,4114,Bojt,47.2,21.7333
HU,4115,Ártánd,47.1167,21.7667
HU,4116,Berekböszörmény,47.0667,21.6833
HU,4117,Told,47.1167,21.65
HU,4118,Mezőpeterd,47.1667,21.6167
HU,4119,Váncsod,47.2,21.65
HU,4121,Szentpéterszeg,47.2333,21.6167
HU,4122,Gáborján,47.2333,21.6667
HU,4123,Hencida,47.25,21.7
HU,4124,Esztár,47.2833,21.7833
HU,4125,Pocsaj,47.2833,21.8167
HU,4126,Kismarja,47.25,21.8333
HU,4127,Nagykereki,47.1833,21.8
HU,4128,Bedő,47.1667,21.75
HU,4130,Derecske,47.35,21.5667
HU,4132,Tépe,47.3167,21.5833
HU,4133,Konyár,47.3167,21.6667
HU,4134,Mezősas,47.1167,21.5667
HU,4135,Körösszegapáti,47.0333,21.6333
HU,4136,Körösszakál,47.0167,21.6
HU,4137,Magyarhomorog,47.0167,21.55
HU,4138,Komádi,47,21.5
HU,4141,Furta,47.1333,21.4667
HU,4142,Zsáka,47.1333,21.4333
HU,4143,Vekerd,47.1,21.4
HU,4144,Darvas,47.1,21.35
HU,4145,Csökmő,47.0333,21.3
HU,4146,Újiráz,46.9833,21.3667
HU,4150,Püspökladány,47.3167,21.1167
HU,4161,Báránd,47.3,21.2333
HU,4162,Szerep,47.2333,21.15
HU,4163,Szerep,47.2333,21.15
HU,4164,Bakonszeg,47.1833,21.45
HU,4171,Sárrétudvari,47.2333,21.2
HU,4172,Biharnagybajom,47.2167,21.2333
HU,4173,Nagyrábé,47.2,21.3333
HU,4174,Bihartorda,47.2167,21.3667
HU,4175,Bihardancsháza,47.2333,21.3167
HU,4176,Sáp,47.25,21.3667
HU,4177,Földes,47.3,21.3667
HU,4181,Nádudvar,47.4167,21.1667
HU,4183,Kaba,47.35,21.2833
HU,4184,Tetétlen,47.3167,21.3
HU,4200,Hajdúszoboszló,47.45,21.4
HU,4211,Ebes,47.4667,21.5
HU,4212,Hajdúszovát,47.3833,21.4833
HU,4220,Hajdúböszörmény,47.6667,21.5167
HU,4224,Hajdúböszörmény,47.6667,21.5167
HU,4225,Debrecen,47.5333,21.6333
HU,4241,Bocskaikert,47.43,21.9107
HU,4242,Hajdúhadház,47.6833,21.6667
HU,4243,Téglás,47.7167,21.6833
HU,4251,Hajdúsámson,47.6,21.7667
HU,4252,Nyíradony,47.6975,21.9188
HU,4253,Nyíradony,47.6975,21.9188
HU,4254,Nyíradony,47.6975,21.9188
HU,4262,Nyíracsád,47.6033,21.9721
HU,4263,Nyírmártonfalva,47.5833,21.9
HU,4264,Nyírábrány,47.5531,22.024
HU,4266,Fülöp,47.6188,22.0835
HU,4271,Mikepércs,47.45,21.6333
HU,4272,Sáránd,47.4,21.6333
HU,4273,Hajdúbagos,47.3929,21.6655
HU,4274,Hosszúpályi,47.393,21.7328
HU,4275,Monostorpályi,47.4,21.7833
HU,4281,Létavértes,47.3833,21.9
HU,4283,Létavértes,47.3833,21.9
HU,4284,Kokad,47.4062,21.9345
HU,4285,Álmosd,47.4187,21.978
HU,4286,Bagamér,47.4488,21.989
HU,4287,Vámospércs,47.5333,21.9
HU,4288,Újléta,47.4667,21.8833
HU,3000,Hatvan,47.6667,19.6833
HU,3009,Kerekharaszt,47.6667,19.6167
HU,3011,Heréd,47.7064,19.6331
HU,3012,Nagykökényes,47.7337,19.5987
HU,3013,Ecséd,47.7327,19.767
HU,3014,Hort,47.6908,19.7893
HU,3015,Csány,47.6483,19.8297
HU,3016,Boldog,47.6029,19.6884
HU,3021,Lőrinci,47.733,19.6787
HU,3022,Lőrinci,47.733,19.6787
HU,3023,Petőfibánya,47.7696,19.6999
HU,3024,Lőrinci,47.733,19.6787
HU,3031,Zagyvaszántó,47.777,19.6709
HU,3032,Apc,47.7942,19.6943
HU,3033,Rózsaszentmárton,47.782,19.7421
HU,3034,Szűcsi,47.8,19.7667
HU,3035,Gyöngyöspata,47.815,19.7892
HU,3036,Gyöngyöstarján,47.8137,19.8672
HU,3200,Gyöngyös,47.7826,19.928
HU,3211,Gyöngyösoroszi,47.8273,19.8917
HU,3212,Gyöngyöshalász,47.7416,19.9288
HU,3213,Atkár,47.7208,19.8913
HU,3214,Nagyréde,47.7654,19.8482
HU,3221,Gyöngyös,47.7826,19.928
HU,3231,Gyöngyössolymos,47.8172,19.9362
HU,3232,Gyöngyös,47.7826,19.928
HU,3233,Gyöngyös,47.7826,19.928
HU,3234,Mátraszentimre,47.9093,19.8782
HU,3235,Mátraszentimre,47.9093,19.8782
HU,3240,Parád,47.9232,20.0297
HU,3242,Parádsasvár,47.9126,19.9771
HU,3243,Bodony,47.9434,20.0231
HU,3244,Parád,47.9232,20.0297
HU,3245,Recsk,47.9333,20.1167
HU,3246,Mátraderecske,47.95,20.0833
HU,3247,Mátraballa,47.9857,20.0229
HU,3248,Ivád,48.0167,20.0667
HU,3250,Pétervására,48.0167,20.1
HU,3252,Erdőkövesd,48.0333,20.1
HU,3253,Istenmezeje,48.0794,20.0507
HU,3254,Váraszó,48.0333,20.1167
HU,3255,Fedémes,48.0333,20.2
HU,3256,Kisfüzes,47.9833,20.1333
HU,3257,Bükkszenterzsébet,48.0546,20.1633
HU,3258,Tarnalelesz,48.05,20.1833
HU,3259,Szentdomonkos,48.0667,20.2
HU,3261,Abasár,47.797,20.0032
HU,3261,Pálosvörösmart,47.797,20.0032
HU,3262,Markaz,47.8167,20.0667
HU,3263,Domoszló,47.8333,20.1167
HU,3264,Kisnána,47.85,20.15
HU,3265,Vécs,47.8167,20.1667
HU,3271,Visonta,47.78,20.0291
HU,3272,Visonta,47.78,20.0291
HU,3273,Halmajugra,47.7667,20.0667
HU,3274,Ludas,47.7333,20.1
HU,3275,Detk,47.75,20.1
HU,3281,Karácsond,47.7296,20.0308
HU,3282,Nagyfüged,47.6833,20.1167
HU,3283,Tarnazsadány,47.6667,20.1667
HU,3284,Tarnaméra,47.65,20.1667
HU,3291,Vámosgyörk,47.6843,19.9292
HU,3292,Adács,47.6921,19.977
HU,3293,Visznek,47.6425,20.0277
HU,3294,Tarnaörs,47.595,20.0525
HU,3295,Erk,47.6167,20.0833
HU,3296,Zaránk,47.65,20.1167
HU,3300,Eger,47.9026,20.3733
HU,3321,Egerbakta,47.9333,20.3
HU,3322,Hevesaranyos,48.0167,20.2333
HU,3323,Szarvaskő,47.9026,20.3733
HU,3324,Felsőtárkány,47.9667,20.4167
HU,3325,Noszvaj,47.9333,20.4833
HU,3326,Ostoros,47.8667,20.4333
HU,3327,Novaj,47.85,20.4833
HU,3328,Egerszólát,47.8833,20.2667
HU,3331,Tarnaszentmária,47.8833,20.2
HU,3332,Sirok,47.9333,20.2
HU,3333,Terpes,47.9667,20.15
HU,3334,Szajla,47.9667,20.15
HU,3335,Bükkszék,47.9833,20.1833
HU,3336,Bátor,47.9833,20.2667
HU,3337,Egerbocs,48.0333,20.2667
HU,3341,Egercsehi,48.05,20.2833
HU,3341,Szúcs,48.05,20.25
HU,3343,Bekölce,48.0833,20.2833
HU,3344,Mikófalva,48.05,20.3167
HU,3345,Mónosbél,48.034,20.3318
HU,3346,Bélapátfalva,48.05,20.3667
HU,3346,Bükkszentmárton,48.0667,20.35
HU,3347,Balaton,48.0928,20.3062
HU,3348,Szilvásvárad,48.1,20.4
HU,3349,Nagyvisnyó,48.1333,20.4333
HU,3350,Kál,47.7333,20.2667
HU,3351,Verpelét,47.85,20.2333
HU,3352,Feldebrő,47.8167,20.25
HU,3353,Aldebrő,47.8,20.2333
HU,3354,Tófalu,47.7833,20.25
HU,3355,Kápolna,47.7667,20.25
HU,3356,Kompolt,47.7333,20.25
HU,3357,Nagyút,47.7167,20.1667
HU,3358,Erdőtelek,47.6833,20.3167
HU,3359,Tenk,47.65,20.35
HU,3360,Heves,47.6,20.2833
HU,3368,Boconád,47.6333,20.2
HU,3369,Tarnabod,47.6833,20.2333
HU,3371,Átány,47.6156,20.3625
HU,3372,Kömlő,47.6,20.45
HU,3373,Besenyőtelek,47.7,20.4333
HU,3374,Dormánd,47.7167,20.4167
HU,3375,Mezőtárkány,47.7167,20.4833
HU,3377,Szihalom,47.7667,20.4833
HU,3378,Mezőszemere,47.75,20.5333
HU,3379,Egerfarmos,47.7167,20.55
HU,3381,Pély,47.4833,20.35
HU,3382,Tarnaszentmiklós,47.5333,20.3833
HU,3383,Hevesvezekény,47.55,20.3667
HU,3384,Kisköre,47.5,20.5
HU,3385,Tiszanána,47.5667,20.5333
HU,3386,Sarud,47.5833,20.6
HU,3387,Újlőrincfalva,47.6333,20.6
HU,3388,Poroszló,47.65,20.6667
HU,3390,Füzesabony,47.75,20.4167
HU,3394,Egerszalók,47.8667,20.3333
HU,3395,Demjén,47.8333,20.3333
HU,3396,Kerecsend,47.8,20.35
HU,3397,Maklár,47.8,20.4167
HU,3398,Nagytálya,47.8167,20.4167
HU,3399,Andornaktálya,47.85,20.4167
HU,5000,Szolnok,47.1833,20.2
HU,5008,Szolnok,47.1833,20.2
HU,5051,Zagyvarékas,47.2667,20.1333
HU,5052,Újszász,47.3,20.0833
HU,5053,Szászberek,47.3167,20.1
HU,5054,Jászalsószentgyörgy,47.3667,20.1
HU,5055,Jászladány,47.3667,20.1667
HU,5061,Tiszasüly,47.3833,20.4
HU,5062,Kőtelek,47.3333,20.45
HU,5063,Hunyadfalva,47.3167,20.3833
HU,5064,Csataszög,47.2833,20.4
HU,5065,Nagykörű,47.2667,20.45
HU,5071,Besenyszög,47.3,20.2667
HU,5081,Szajol,47.1833,20.3
HU,5082,Tiszatenyő,47.1333,20.3833
HU,5083,Kengyel,47.0833,20.3333
HU,5084,Rákócziújfalu,47.0667,20.2667
HU,5085,Rákóczifalva,47.0833,20.2333
HU,5091,Tószeg,47.1,20.15
HU,5092,Tiszavárkony,47.0667,20.1833
HU,5093,Vezseny,47.0333,20.2167
HU,5094,Tiszajenő,47.0333,20.15
HU,5095,Tiszavárkony,47.0667,20.1833
HU,5100,Jászberény,47.5,19.9167
HU,5111,Jászfelsőszentgyörgy,47.5074,19.7839
HU,5121,Jászjákóhalma,47.5204,19.9909
HU,5122,Jászdózsa,47.5661,20.0153
HU,5123,Jászárokszállás,47.6424,19.9804
HU,5124,Jászágó,47.5931,19.8559
HU,5125,Pusztamonostor,47.5559,19.7966
HU,5126,Jászfényszaru,47.5702,19.724
HU,5130,Jászapáti,47.5167,20.15
HU,5135,Jászivány,47.5222,20.2446
HU,5136,Jászszentandrás,47.5833,20.1833
HU,5137,Jászkisér,47.45,20.2167
HU,5141,Jásztelek,47.4829,20.0037
HU,5142,Alattyán,47.4271,20.0422
HU,5143,Jánoshida,47.3833,20.0667
HU,5144,Jászboldogháza,47.3676,19.9961
HU,5152,Jászberény,47.5,19.9167
HU,5200,Törökszentmiklós,47.1833,20.4167
HU,5211,Tiszapüspöki,47.2167,20.3167
HU,5212,Törökszentmiklós,47.1833,20.4167
HU,5213,Fegyvernek,47.2667,20.5333
HU,5222,Örményes,47.2,20.5833
HU,5231,Fegyvernek,47.2667,20.5333
HU,5232,Tiszabő,47.3,20.4833
HU,5233,Tiszagyenda,47.3833,20.5167
HU,5234,Tiszaroff,47.4,20.45
HU,5235,Tiszabura,47.45,20.4667
HU,5241,Abádszalók,47.4667,20.6
HU,5243,Tiszaderzs,47.5167,20.65
HU,5244,Tiszaszőlős,47.5571,20.7195
HU,5300,Karcag,47.3167,20.9333
HU,5309,Berekfürdő,47.3833,20.85
HU,5310,Kisújszállás,47.2167,20.7667
HU,5321,Kunmadaras,47.4333,20.8
HU,5322,Tiszaszentimre,47.4833,20.7333
HU,5323,Tiszaszentimre,47.4833,20.7333
HU,5324,Tomajmonostora,47.4333,20.7167
HU,5331,Kenderes,47.25,20.6833
HU,5340,Kunhegyes,47.3667,20.6333
HU,5349,Kenderes,47.25,20.6833
HU,5350,Tiszafüred,47.6167,20.7667
HU,5358,Tiszafüred,47.6167,20.7667
HU,5359,Tiszafüred,47.6167,20.7667
HU,5361,Tiszaigar,47.5333,20.8
HU,5362,Tiszaörs,47.5167,20.8333
HU,5363,Nagyiván,47.4833,20.9333
HU,5400,Mezőtúr,47,20.6333
HU,5411,Kétpó,47.0833,20.4667
HU,5412,Kuncsorba,47.1333,20.5667
HU,5420,Túrkeve,47.1,20.75
HU,5430,Tiszaföldvár,46.9833,20.25
HU,5435,Martfű,47.0167,20.2833
HU,5440,Kunszentmárton,46.8392,20.2888
HU,5449,Kunszentmárton,46.8392,20.2888
HU,5451,Öcsöd,46.9,20.4
HU,5452,Mesterszállás,46.95,20.4333
HU,5453,Mezőhék,47,20.4
HU,5461,Tiszaföldvár,46.9833,20.25
HU,5462,Cibakháza,46.9598,20.1975
HU,5463,Nagyrév,46.9458,20.1432
HU,5464,Tiszainoka,46.9041,20.1537
HU,5465,Cserkeszőlő,46.8632,20.187
HU,5471,Tiszakürt,46.8851,20.1255
HU,5474,Tiszasas,46.8223,20.0792
HU,5475,Csépa,46.8055,20.1327
HU,5476,Szelevény,46.8026,20.2028
HU,2027,Dömös,47.7616,18.9131
HU,2028,Pilismarót,47.7846,18.8754
HU,2500,Esztergom,47.7928,18.7415
HU,2508,Esztergom,47.7928,18.7415
HU,2509,Esztergom,47.7928,18.7415
HU,2510,Dorog,47.721,18.7364
HU,2517,Kesztölc,47.7127,18.8018
HU,2518,Leányvár,47.6777,18.7772
HU,2519,Piliscsév,47.6792,18.8187
HU,2521,Csolnok,47.6912,18.7161
HU,2522,Dág,47.6626,18.7205
HU,2523,Sárisáp,47.677,18.6793
HU,2524,Nagysáp,47.6851,18.5984
HU,2525,Bajna,47.654,18.5972
HU,2526,Epöl,47.6462,18.6362
HU,2527,Máriahalom,47.6278,18.7087
HU,2528,Úny,47.6424,18.746
HU,2529,Annavölgy,47.6608,18.6753
HU,2531,Tokod,47.7228,18.6589
HU,2532,Tokodaltáró,47.7339,18.6895
HU,2533,Bajót,47.7278,18.5559
HU,2534,Tát,47.7415,18.6481
HU,2535,Mogyorósbánya,47.7284,18.5974
HU,2536,Nyergesújfalu,47.7603,18.5569
HU,2541,Lábatlan,47.7473,18.4962
HU,2543,Süttő,47.7589,18.4487
HU,2544,Neszmély,47.7359,18.3597
HU,2545,Dunaalmás,47.7287,18.3223
HU,2800,Tatabánya,47.5849,18.3933
HU,2821,Gyermely,47.5926,18.6445
HU,2822,Szomor,47.592,18.6637
HU,2823,Vértessomló,47.5105,18.3667
HU,2824,Várgesztes,47.4748,18.3967
HU,2831,Tarján,47.6104,18.5107
HU,2832,Héreg,47.6493,18.5097
HU,2833,Vértestolna,47.6274,18.4546
HU,2834,Tardos,47.6619,18.4442
HU,2835,Tata,47.6529,18.3184
HU,2836,Baj,47.6459,18.3641
HU,2837,Vértesszőlős,47.6211,18.3813
HU,2840,Oroszlány,47.4867,18.3122
HU,2851,Környe,47.5467,18.3208
HU,2852,Kecskéd,47.523,18.3094
HU,2853,Kömlőd,47.5465,18.2602
HU,2854,Dad,47.5191,18.2263
HU,2855,Bokod,47.4919,18.2474
HU,2856,Szákszend,47.5575,18.1647
HU,2858,Császár,47.498,18.1427
HU,2859,Vérteskethely,47.4888,18.084
HU,2861,Bakonysárkány,47.4479,18.1022
HU,2862,Aka,47.4024,18.0713
HU,2870,Kisbér,47.5029,18.0367
HU,2879,Kisbér,47.5029,18.0367
HU,2881,Ászár,47.5117,18.0015
HU,2882,Kerékteleki,47.5129,17.9368
HU,2883,Bársonyos,47.5102,17.9186
HU,2884,Bakonyszombathely,47.4717,17.9652
HU,2885,Bakonybánk,47.4671,17.9041
HU,2886,Réde,47.4298,17.9138
HU,2887,Ácsteszér,47.4053,18.0062
HU,2888,Csatka,47.3786,17.9781
HU,2889,Súr,47.369,18.0304
HU,2890,Tata,47.6529,18.3184
HU,2896,Szomód,47.6849,18.3406
HU,2897,Dunaszentmiklós,47.7039,18.3818
HU,2898,Kocs,47.6075,18.2152
HU,2899,Naszály,47.7033,18.2575
HU,2900,Komárom,47.7432,18.1191
HU,2903,Komárom,47.7432,18.1191
HU,2911,Mocsa,47.67,18.185
HU,2921,Komárom,47.7432,18.1191
HU,2931,Almásfüzitő,47.7275,18.2615
HU,2941,Ács,47.7123,18.0113
HU,2942,Nagyigmánd,47.6409,18.0813
HU,2943,Bábolna,47.6436,17.978
HU,2943,Tárkány,47.5929,18.0006
HU,2944,Bana,47.6517,17.9218
HU,2945,Tárkány,47.5929,18.0006
HU,2946,Csép,47.5781,18.0636
HU,2947,Ete,47.5308,18.0753
HU,2948,Kisigmánd,47.654,18.0989
HU,2949,Csém,47.6812,18.0872
HU,2175,Kálló,47.7486,19.4861
HU,2176,Erdőkürt,47.7734,19.4609
HU,2177,Erdőtarcsa,47.7667,19.55
HU,2610,Nőtincs,47.8854,19.1443
HU,2610,Ősagárd,47.8585,19.1934
HU,2611,Felsőpetény,47.8912,19.1969
HU,2616,Keszeg,47.8385,19.2461
HU,2617,Alsópetény,47.8758,19.244
HU,2618,Nézsa,47.8443,19.303
HU,2619,Legénd,47.8798,19.3103
HU,2640,Szendehely,47.8555,19.1044
HU,2641,Berkenye,47.8888,19.0736
HU,2642,Nógrád,47.9085,19.0481
HU,2643,Diósjenő,47.9397,19.0432
HU,2644,Borsosberény,47.9743,19.1168
HU,2645,Nagyoroszi,48.005,19.0905
HU,2646,Drégelypalánk,48.0472,19.0519
HU,2647,Hont,48.0511,18.9919
HU,2648,Patak,48.0229,19.1452
HU,2649,Dejtár,48.0371,19.1646
HU,2651,Rétság,47.9282,19.1372
HU,2652,Tereske,47.9491,19.201
HU,2653,Bánk,47.925,19.1736
HU,2654,Romhány,47.9262,19.2572
HU,2655,Szente,47.9664,19.2874
HU,2655,Kétbodony,47.9374,19.2855
HU,2655,Kisecset,47.9349,19.3164
HU,2656,Szátok,47.9563,19.2306
HU,2657,Tolmács,47.9294,19.1093
HU,2658,Pusztaberki,47.9751,19.1623
HU,2658,Horpács,47.9972,19.1291
HU,2659,Érsekvadkert,47.9962,19.2023
HU,2660,Balassagyarmat,48.073,19.2961
HU,2660,Ipolyszög,48.073,19.2961
HU,2668,Patvarc,48.0651,19.3468
HU,2669,Ipolyvece,48.0608,19.1072
HU,2671,Őrhalom,48.0785,19.4107
HU,2672,Hugyag,48.089,19.4309
HU,2673,Csitár,48.0539,19.4307
HU,2674,Iliny,48.0331,19.4275
HU,2675,Nógrádmarcal,48.0271,19.3859
HU,2676,Cserhátsurány,47.9791,19.4277
HU,2677,Herencsény,47.9783,19.4761
HU,2678,Csesztve,48.0149,19.2793
HU,2685,Nógrádsáp,47.8389,19.355
HU,2686,Galgaguta,47.851,19.3876
HU,2687,Bercel,47.8706,19.4071
HU,2688,Vanyarc,47.8257,19.4527
HU,2691,Nógrádkövesd,47.8743,19.374
HU,2692,Szécsénke,47.9051,19.3337
HU,2693,Becske,47.9092,19.3763
HU,2694,Debercsény,47.9599,19.3176
HU,2694,Magyarnándor,47.9652,19.3378
HU,2694,Cserháthaláp,47.9823,19.3755
HU,2696,Terény,47.947,19.4438
HU,2697,Szanda,47.927,19.4408
HU,2698,Mohora,47.9923,19.3357
HU,2699,Szügy,48.0353,19.3253
HU,3041,Héhalom,47.7802,19.5852
HU,3042,Palotás,47.7953,19.5962
HU,3043,Egyházasdengeleg,47.8003,19.5503
HU,3044,Szirák,47.831,19.531
HU,3045,Bér,47.8657,19.5022
HU,3046,Kisbágyon,47.8244,19.5835
HU,3047,Buják,47.8835,19.5438
HU,3051,Szarvasgede,47.8213,19.6417
HU,3052,Csécse,47.8667,19.6333
HU,3053,Kozárd,47.9144,19.6192
HU,3053,Ecseg,47.8981,19.6061
HU,3060,Pásztó,47.9202,19.6983
HU,3063,Jobbágyi,47.8324,19.6776
HU,3064,Szurdokpüspöki,47.8592,19.6922
HU,3065,Pásztó,47.9202,19.6983
HU,3066,Bokor,47.933,19.5403
HU,3066,Kutasó,47.9484,19.5422
HU,3066,Cserhátszentiván,47.9394,19.5829
HU,3067,Felsőtold,47.9715,19.6105
HU,3067,Garáb,47.9778,19.6408
HU,3068,Mátraszőlős,47.9587,19.6852
HU,3069,Alsótold,47.9518,19.5972
HU,3070,Bátonyterenye,47.9696,19.8408
HU,3071,Bátonyterenye,47.9696,19.8408
HU,3073,Tar,47.9537,19.7461
HU,3074,Sámsonháza,47.9873,19.7247
HU,3075,Nagybárkány,47.9973,19.7012
HU,3075,Márkháza,48.0172,19.7265
HU,3075,Kisbárkány,48.0167,19.6833
HU,3077,Mátraverebély,47.9742,19.7805
HU,3078,Bátonyterenye,47.9696,19.8408
HU,3082,Pásztó,47.9202,19.6983
HU,3100,Salgótarján,48.0987,19.803
HU,3102,Salgótarján,48.0987,19.803
HU,3104,Salgótarján,48.0987,19.803
HU,3109,Salgótarján,48.0987,19.803
HU,3121,Somoskőújfalu,48.1637,19.823
HU,3123,Cered,48.1467,19.9662
HU,3124,Zabar,48.1444,20.0491
HU,3125,Szilaspogony,48.1176,20.027
HU,3126,Bárna,48.1004,19.9355
HU,3127,Kazár,48.0495,19.8614
HU,3128,Vizslás,48.0517,19.8199
HU,3129,Lucfalva,48.0299,19.6902
HU,3129,Nagykeresztúr,48.0333,19.7333
HU,3131,Sóshartyán,48.0731,19.6791
HU,3132,Nógrádmegyer,48.0683,19.6249
HU,3133,Magyargéc,48.083,19.6026
HU,3134,Piliny,48.141,19.599
HU,3135,Szécsényfelfalu,48.1471,19.5678
HU,3136,Etes,48.1111,19.7192
HU,3137,Karancsberény,48.1839,19.7481
HU,3138,Ipolytarnóc,48.2382,19.6247
HU,3141,Salgótarján,48.0987,19.803
HU,3142,Mátraszele,48.0549,19.8957
HU,3143,Mátranovák,48.0381,19.9826
HU,3144,Mátranovák,48.0381,19.9826
HU,3145,Mátraterenye,48.0327,19.9476
HU,3146,Mátraterenye,48.0327,19.9476
HU,3147,Kazár,48.0495,19.8614
HU,3151,Rákóczibánya,47.99,19.9147
HU,3152,Nemti,48.0079,19.8982
HU,3153,Dorogháza,47.9873,19.9015
HU,3154,Szuha,47.9792,19.919
HU,3155,Mátramindszent,47.9856,19.9402
HU,3161,Kishartyán,48.0837,19.706
HU,3162,Ságújfalu,48.1036,19.6798
HU,3163,Karancsság,48.1174,19.6594
HU,3163,Szalmatercs,48.1234,19.6365
HU,3165,Endrefalva,48.1271,19.5771
HU,3170,Szécsény,48.0806,19.5202
HU,3175,Nagylóc,48.0342,19.5783
HU,3176,Hollókő,47.998,19.5941
HU,3177,Rimóc,48.0369,19.5301
HU,3178,Varsány,48.0391,19.4899
HU,3179,Nógrádsipek,48.0078,19.5033
HU,3181,Karancsalja,48.1372,19.7519
HU,3182,Karancslapujtő,48.15,19.7333
HU,3183,Karancskeszi,48.1635,19.6969
HU,3184,Mihálygerge,48.1966,19.6373
HU,3185,Egyházasgerge,48.1796,19.6457
HU,3186,Litke,48.2115,19.5974
HU,3187,Nógrádszakál,48.1829,19.5259
HU,3188,Ludányhalászi,48.1335,19.522
HU,2000,Szentendre,47.6694,19.0756
HU,2009,Pilisszentlászló,47.7167,19
HU,2011,Budakalász,47.6167,19.05
HU,2013,Pomáz,47.6423,19.0278
HU,2014,Csobánka,47.6464,18.9619
HU,2015,Szigetmonostor,47.6867,19.1059
HU,2016,Leányfalu,47.7178,19.0858
HU,2017,Pócsmegyer,47.7153,19.096
HU,2021,Tahitótfalu,47.75,19.1
HU,2022,Tahitótfalu,47.75,19.1
HU,2023,Dunabogdány,47.7905,19.0412
HU,2024,Kisoroszi,47.8069,19.0097
HU,2025,Visegrád,47.7853,18.9709
HU,2026,Visegrád,47.7853,18.9709
HU,2030,Érd,47.3949,18.9136
HU,2038,Sóskút,47.4066,18.8225
HU,2039,Pusztazámor,47.4038,18.7802
HU,2040,Budaörs,47.4618,18.9585
HU,2045,Törökbálint,47.4293,18.9136
HU,2049,Diósd,47.4095,18.949
HU,2051,Biatorbágy,47.4706,18.8189
HU,2053,Herceghalom,47.5031,18.7506
HU,2071,Páty,47.5171,18.8285
HU,2072,Zsámbék,47.5481,18.7201
HU,2073,Tök,47.5686,18.7315
HU,2074,Perbál,47.5896,18.761
HU,2080,Pilisjászfalu,47.6553,18.7894
HU,2081,Piliscsaba,47.6342,18.8289
HU,2083,Solymár,47.5925,18.9321
HU,2084,Pilisszentiván,47.6096,18.8994
HU,2085,Pilisvörösvár,47.6139,18.9089
HU,2086,Tinnye,47.6204,18.7778
HU,2089,Telki,47.5479,18.8282
HU,2090,Remeteszőlős,47.5603,18.92
HU,2092,Budakeszi,47.5108,18.9272
HU,2093,Budajenő,47.5569,18.8021
HU,2094,Nagykovácsi,47.5752,18.8734
HU,2095,Pilisszántó,47.6691,18.8876
HU,2096,Üröm,47.5967,19.0158
HU,2097,Pilisborosjenő,47.6074,18.9932
HU,2098,Pilisszentkereszt,47.6914,18.905
HU,2099,Pilisszentkereszt,47.6914,18.905
HU,2100,Gödöllő,47.5966,19.3552
HU,2111,Szada,47.6333,19.3167
HU,2112,Veresegyház,47.6459,19.2954
HU,2113,Erdőkertes,47.6726,19.3079
HU,2114,Valkó,47.5639,19.5127
HU,2115,Vácszentlászló,47.574,19.5377
HU,2116,Zsámbok,47.5438,19.6105
HU,2117,Isaszeg,47.5301,19.4021
HU,2118,Dány,47.52,19.544
HU,2119,Pécel,47.4896,19.3416
HU,2120,Dunakeszi,47.6364,19.1386
HU,2131,Göd,47.6832,19.1342
HU,2132,Göd,47.6832,19.1342
HU,2133,Sződliget,47.7326,19.1475
HU,2134,Sződ,47.7244,19.1705
HU,2135,Csörög,47.7303,19.1669
HU,2141,Csömör,47.55,19.2333
HU,2142,Nagytarcsa,47.5313,19.2834
HU,2143,Kistarcsa,47.5476,19.2625
HU,2144,Kerepes,47.5601,19.2829
HU,2145,Kerepes,47.5601,19.2829
HU,2146,Mogyoród,47.5975,19.2407
HU,2151,Fót,47.6177,19.1887
HU,2161,Csomád,47.6604,19.2394
HU,2162,Őrbottyán,47.6871,19.2824
HU,2163,Vácrátót,47.7099,19.2346
HU,2164,Váchartyán,47.7221,19.2625
HU,2165,Kisnémedi,47.7402,19.285
HU,2166,Püspökszilágy,47.7404,19.3142
HU,2167,Vácduka,47.746,19.2087
HU,2170,Aszód,47.6517,19.4785
HU,2173,Kartal,47.6713,19.542
HU,2174,Verseg,47.7223,19.5478
HU,2181,Iklad,47.6653,19.4361
HU,2182,Domony,47.6555,19.4323
HU,2183,Galgamácsa,47.6956,19.3872
HU,2184,Vácegres,47.6762,19.3662
HU,2185,Váckisújfalu,47.7054,19.3486
HU,2191,Bag,47.6333,19.4833
HU,2192,Hévízgyörk,47.6333,19.5167
HU,2193,Galgahévíz,47.6167,19.5667
HU,2194,Tura,47.6092,19.6028
HU,2200,Monor,47.3513,19.4473
HU,2209,Péteri,47.391,19.4098
HU,2211,Vasad,47.324,19.4037
HU,2212,Csévharaszt,47.3,19.4333
HU,2213,Monorierdő,47.3,19.5167
HU,2214,Pánd,47.3533,19.6357
HU,2215,Káva,47.3554,19.5886
HU,2216,Bénye,47.3539,19.5432
HU,2217,Gomba,47.371,19.5306
HU,2220,Vecsés,47.407,19.2865
HU,2225,Üllő,47.3877,19.3553
HU,2230,Gyömrő,47.4273,19.4013
HU,2233,Ecser,47.4439,19.3245
HU,2234,Maglód,47.4426,19.3644
HU,2235,Mende,47.4313,19.4563
HU,2241,Sülysáp,47.4521,19.5337
HU,2242,Sülysáp,47.4521,19.5337
HU,2243,Kóka,47.4855,19.5788
HU,2244,Úri,47.4143,19.5276
HU,2251,Tápiószecső,47.45,19.6092
HU,2252,Tóalmás,47.5078,19.6666
HU,2253,Tápióság,47.402,19.6305
HU,2254,Szentmártonkáta,47.4542,19.7014
HU,2255,Szentlőrinckáta,47.5195,19.7529
HU,2300,Ráckeve,47.161,18.9448
HU,2309,Lórév,47.1138,18.9007
HU,2310,Szigetszentmiklós,47.3438,19.0434
HU,2314,Halásztelek,47.3617,18.9812
HU,2315,Szigethalom,47.3223,19.0026
HU,2316,Tököl,47.3218,18.9625
HU,2317,Szigetcsép,47.2649,18.9705
HU,2318,Szigetszentmárton,47.2285,18.9604
HU,2319,Szigetújfalu,47.2342,18.9275
HU,2321,Szigetbecse,47.1309,18.9481
HU,2322,Makád,47.0902,18.9301
HU,2330,Dunaharaszti,47.3545,19.0982
HU,2335,Taksony,47.3297,19.0669
HU,2336,Dunavarsány,47.2786,19.0662
HU,2337,Délegyháza,47.2414,19.0902
HU,2338,Áporka,47.2333,19.0167
HU,2339,Majosháza,47.2645,18.9983
HU,2340,Kiskunlacháza,47.1884,19.0093
HU,2344,Dömsöd,47.09,19.0111
HU,2345,Apaj,47.1132,19.0881
HU,2347,Bugyi,47.2275,19.1466
HU,2351,Alsónémedi,47.3152,19.1584
HU,2360,Gyál,47.3845,19.2214
HU,2363,Felsőpakony,47.3433,19.237
HU,2364,Ócsa,47.2999,19.2306
HU,2365,Inárcs,47.262,19.327
HU,2366,Kakucs,47.242,19.3647
HU,2367,Újhartyán,47.2198,19.3864
HU,2370,Dabas,47.1859,19.3109
HU,2371,Dabas,47.1859,19.3109
HU,2373,Dabas,47.1859,19.3109
HU,2375,Tatárszentgyörgy,47.0794,19.3751
HU,2376,Hernád,47.1624,19.433
HU,2377,Örkény,47.1299,19.4332
HU,2378,Pusztavacs,47.1716,19.4992
HU,2381,Táborfalva,47.0994,19.4784
HU,2440,Százhalombatta,47.3295,18.9388
HU,2461,Tárnok,47.3733,18.8458
HU,2600,Vác,47.7759,19.1361
HU,2612,Kosd,47.8079,19.1782
HU,2613,Rád,47.7921,19.2179
HU,2614,Penc,47.8026,19.2491
HU,2615,Csővár,47.8132,19.3236
HU,2621,Verőce,47.8247,19.0348
HU,2623,Kismaros,47.8374,19.0046
HU,2624,Szokolya,47.8677,19.0071
HU,2625,Kóspallag,47.877,18.9334
HU,2626,Nagymaros,47.7928,18.9598
HU,2627,Zebegény,47.7998,18.911
HU,2628,Szob,47.8192,18.8702
HU,2629,Márianosztra,47.864,18.8725
HU,2631,Ipolydamásd,47.8385,18.8301
HU,2632,Letkés,47.8854,18.7742
HU,2633,Ipolytölgyes,47.9241,18.7859
HU,2634,Nagybörzsöny,47.9347,18.8238
HU,2635,Vámosmikola,47.9791,18.7832
HU,2636,Tésa,48.0328,18.842
HU,2637,Perőcsény,47.9935,18.8573
HU,2638,Kemence,48.0179,18.8918
HU,2639,Bernecebaráti,48.0343,18.9143
HU,2681,Galgagyörk,47.7426,19.3765
HU,2682,Püspökhatvan,47.7758,19.3628
HU,2683,Acsa,47.7942,19.388
HU,2700,Cegléd,47.1727,19.7995
HU,2711,Tápiószentmárton,47.3399,19.7465
HU,2712,Nyársapát,47.094,19.8063
HU,2713,Csemő,47.118,19.6909
HU,2721,Pilis,47.289,19.5485
HU,2723,Nyáregyháza,47.2618,19.5015
HU,2724,Újlengyel,47.2285,19.4494
HU,2730,Albertirsa,47.2431,19.6169
HU,2735,Dánszentmiklós,47.2149,19.547
HU,2736,Mikebuda,47.1582,19.6161
HU,2737,Ceglédbercel,47.2237,19.6683
HU,2738,Cegléd,47.1727,19.7995
HU,2740,Abony,47.1899,20.0048
HU,2745,Kőröstetétlen,47.0969,20.0183
HU,2746,Jászkarajenő,47.05,20.0667
HU,2747,Törtel,47.1221,19.9371
HU,2750,Nagykőrös,47.0342,19.7786
HU,2755,Kocsér,47.0017,19.9207
HU,2760,Nagykáta,47.4151,19.7441
HU,2764,Tápióbicske,47.361,19.6861
HU,2765,Farmos,47.3607,19.8462
HU,2766,Tápiószele,47.3361,19.8772
HU,2767,Tápiógyörgye,47.335,19.9528
HU,2768,Újszilvás,47.2748,19.9248
HU,2769,Tápiószőlős,47.3025,19.8513
HU,7253,Csoma,46.3729,18.0518
HU,7253,Szabadi,46.3679,18.0319
HU,7255,Nagyberki,46.3578,18.0074
HU,7256,Kercseliget,46.3291,18.0647
HU,7257,Mosdós,46.3538,17.9885
HU,7258,Baté,46.3594,17.964
HU,7258,Kaposkeresztúr,46.3307,17.9668
HU,7261,Kaposhomok,46.3621,17.9218
HU,7261,Taszár,46.3747,17.9059
HU,7271,Fonó,46.4001,17.9529
HU,7272,Gölle,46.4391,18.0113
HU,7273,Büssü,46.4611,17.9645
HU,7274,Kazsok,46.48,17.9636
HU,7275,Igal,46.5318,17.9386
HU,7276,Gadács,46.5397,18.0051
HU,7276,Somogyszil,46.5188,17.9982
HU,7279,Kisgyalán,46.4234,17.9752
HU,7281,Bonnya,46.5963,17.9028
HU,7282,Fiad,46.6318,17.8424
HU,7282,Kisbárapáti,46.6024,17.866
HU,7283,Somogyacsa,46.5895,17.9545
HU,7284,Somogydöröcske,46.587,18.0053
HU,7285,Kára,46.6172,18.0112
HU,7285,Törökkoppány,46.6,18.05
HU,7285,Szorosad,46.602,18.0236
HU,7400,Zselickislak,46.3109,17.7995
HU,7400,Kaposvár,46.3667,17.8
HU,7431,Juta,46.4105,17.7375
HU,7432,Hetes,46.4222,17.6932
HU,7432,Csombárd,46.4522,17.6712
HU,7434,Mezőcsokonya,46.4335,17.6463
HU,7435,Somogysárd,46.4153,17.5989
HU,7436,Újvárfalva,46.4359,17.5726
HU,7439,Bodrog,46.4944,17.6504
HU,7441,Magyaregres,46.4606,17.7745
HU,7442,Várda,46.4592,17.739
HU,7443,Alsóbogát,46.5,17.75
HU,7443,Edde,46.524,17.7165
HU,7443,Somogyjád,46.4904,17.7162
HU,7444,Osztopán,46.5192,17.67
HU,7451,Kaposvár,46.3667,17.8
HU,7452,Somogyaszaló,46.4598,17.8053
HU,7453,Mernye,46.5064,17.8188
HU,7454,Somodor,46.4746,17.8415
HU,7455,Somogygeszti,46.52,17.7842
HU,7456,Felsőmocsolád,46.5819,17.8253
HU,7457,Ecseny,46.551,17.8531
HU,7458,Polány,46.5586,17.7734
HU,7461,Orci,46.4073,17.8745
HU,7463,Patalom,46.4484,17.9229
HU,7463,Magyaratád,46.4683,17.901
HU,7464,Ráksi,46.5173,17.9184
HU,7465,Szentgáloskér,46.5041,17.8838
HU,7471,Zimány,46.4245,17.9091
HU,7472,Cserénfa,46.3073,17.8788
HU,7472,Szentbalázs,46.3203,17.8955
HU,7473,Hajmás,46.2802,17.9144
HU,7473,Kaposgyarmat,46.2809,17.8805
HU,7473,Gálosfa,46.2563,17.8857
HU,7474,Zselicszentpál,46.3079,17.8205
HU,7474,Simonfa,46.2841,17.8256
HU,7475,Bőszénfa,46.2417,17.8499
HU,7476,Kaposszerdahely,46.3167,17.75
HU,7477,Szenna,46.3083,17.731
HU,7477,Zselickisfalud,46.2734,17.7422
HU,7477,Szilvásszentmárton,46.2687,17.714
HU,7477,Patca,46.2848,17.7236
HU,7478,Bárdudvarnok,46.3264,17.6861
HU,7479,Sántos,46.3424,17.8787
HU,7500,Nagyatád,46.2296,17.3579
HU,7511,Ötvöskónyi,46.2874,17.36
HU,7512,Mike,46.2431,17.5303
HU,7513,Rinyaszentkirály,46.1524,17.3872
HU,7514,Tarany,46.1784,17.3044
HU,7515,Somogyudvarhely,46.174,17.1886
HU,7516,Berzence,46.2091,17.1481
HU,7517,Bolhás,46.2648,17.2709
HU,7521,Kaposmérő,46.3617,17.704
HU,7522,Kaposújlak,46.3604,17.7323
HU,7523,Kisasszond,46.3322,17.6346
HU,7523,Kaposfő,46.3609,17.6621
HU,7524,Kiskorpád,46.349,17.6126
HU,7525,Jákó,46.3338,17.5525
HU,7526,Csököly,46.299,17.5537
HU,7527,Rinyakovácsi,46.2837,17.5973
HU,7527,Gige,46.3023,17.6085
HU,7530,Kőkút,46.192,17.5759
HU,7530,Kadarkút,46.2362,17.6201
HU,7532,Hencse,46.201,17.6225
HU,7533,Visnye,46.1911,17.6763
HU,7533,Hedrehely,46.1966,17.6515
HU,7535,Lad,46.1475,17.6481
HU,7536,Patosfa,46.1304,17.6665
HU,7537,Homokszentgyörgy,46.1183,17.5747
HU,7538,Kálmáncsa,46.0698,17.6187
HU,7539,Szulok,46.0526,17.5502
HU,7541,Kutas,46.3343,17.4532
HU,7542,Kisbajom,46.3065,17.4938
HU,7543,Beleg,46.3183,17.4102
HU,7544,Szabás,46.2892,17.4482
HU,7545,Nagykorpád,46.2624,17.4562
HU,7551,Lábod,46.2054,17.4542
HU,7552,Rinyabesenyő,46.1667,17.5167
HU,7553,Görgeteg,46.1416,17.435
HU,7555,Csokonyavisonta,46.0771,17.4437
HU,7556,Rinyaújlak,46.0845,17.4236
HU,7557,Barcs,45.96,17.4586
HU,7561,Nagybajom,46.3923,17.5115
HU,7561,Pálmajor,46.3833,17.5667
HU,7562,Segesd,46.3414,17.3513
HU,7563,Somogyszob,46.2901,17.3003
HU,7564,Kaszó,46.3435,17.212
HU,7570,Barcs,45.96,17.4586
HU,7582,Péterhida,46.0102,17.3593
HU,7582,Komlósd,46.0183,17.3866
HU,7584,Somogyaracs,46.0566,17.3909
HU,7584,Babócsa,46.0415,17.3433
HU,7584,Rinyaújnép,46.0797,17.3526
HU,7585,Bakháza,46.1064,17.3591
HU,7585,Háromfa,46.1104,17.3269
HU,7586,Bolhó,46.0386,17.2973
HU,7587,Heresznye,46.0556,17.2757
HU,7588,Vízvár,46.09,17.2295
HU,7589,Bélavár,46.1222,17.2165
HU,7918,Lakócsa,45.8966,17.6905
HU,7918,Szentborbás,45.8746,17.66
HU,7918,Tótújfalu,45.9029,17.644
HU,7977,Kastélyosdombó,45.9546,17.6169
HU,7977,Potony,45.9311,17.6468
HU,7977,Drávagárdony,45.9468,17.604
HU,7979,Drávatamási,45.9427,17.5722
HU,7987,Istvándi,46.0184,17.6229
HU,7988,Darány,45.9821,17.5901
HU,8600,Siófok,46.9041,18.058
HU,8612,Nyim,46.8041,18.109
HU,8613,Balatonendréd,46.8386,17.9818
HU,8614,Bálványos,46.7807,17.9512
HU,8617,Kőröshegy,46.8304,17.9005
HU,8618,Kereki,46.7946,17.9125
HU,8619,Pusztaszemes,46.7667,17.9333
HU,8621,Zamárdi,46.8849,17.9537
HU,8622,Szántód,46.8647,17.9009
HU,8623,Balatonföldvár,46.8525,17.8812
HU,8624,Balatonszárszó,46.8295,17.8243
HU,8625,Szólád,46.7899,17.8387
HU,8626,Teleki,46.7714,17.8252
HU,8627,Kötcse,46.7528,17.8601
HU,8628,Nagycsepely,46.7512,17.8353
HU,8630,Balatonboglár,46.7752,17.6441
HU,8635,Ordacsehi,46.7409,17.6236
HU,8636,Balatonszemes,46.8097,17.7805
HU,8637,Balatonőszöd,46.8062,17.8003
HU,8638,Balatonlelle,46.7832,17.695
HU,8640,Fonyód,46.7555,17.5795
HU,8646,Balatonfenyves,46.7154,17.4922
HU,8647,Balatonmáriafürdő,46.7056,17.3707
HU,8648,Balatonkeresztúr,46.6974,17.3708
HU,8649,Balatonberény,46.707,17.3201
HU,8651,Balatonszabadi,46.894,18.1374
HU,8652,Siójut,46.8788,18.1385
HU,8653,Ádánd,46.8593,18.1644
HU,8654,Ságvár,46.8366,18.1014
HU,8655,Som,46.8043,18.1401
HU,8656,Nagyberény,46.7981,18.1654
HU,8658,Bábonymegyer,46.7535,18.0954
HU,8660,Sérsekszőlős,46.7645,18.0154
HU,8660,Torvaj,46.7657,18.0442
HU,8660,Zala,46.7403,18.0007
HU,8660,Lulla,46.7879,18.0233
HU,8660,Tab,46.7314,18.032
HU,8666,Somogyegres,46.6734,18.0262
HU,8666,Bedegkér,46.6491,18.0602
HU,8667,Kánya,46.7004,18.0673
HU,8668,Tengőd,46.7027,18.0974
HU,8669,Miklósi,46.6466,17.993
HU,8671,Kapoly,46.7284,17.9725
HU,8672,Zics,46.6791,17.9765
HU,8673,Somogymeggyes,46.7183,17.9098
HU,8674,Nágocs,46.6625,17.9667
HU,8675,Andocs,46.6483,17.9277
HU,8676,Karád,46.6908,17.8414
HU,8681,Látrány,46.7469,17.745
HU,8681,Visz,46.7261,17.782
HU,8683,Somogytúr,46.7082,17.766
HU,8684,Somogybabod,46.6618,17.7908
HU,8685,Gamás,46.6214,17.7621
HU,8691,Balatonboglár,46.7752,17.6441
HU,8692,Gyugy,46.6922,17.6831
HU,8692,Szőlősgyörök,46.7376,17.6689
HU,8693,Kisberény,46.6374,17.6592
HU,8693,Lengyeltóti,46.6701,17.644
HU,8694,Hács,46.6465,17.6878
HU,8695,Buzsák,46.6484,17.5775
HU,8696,Táska,46.6163,17.5241
HU,8697,Öreglak,46.601,17.6215
HU,8698,Pamuk,46.5533,17.6384
HU,8698,Somogyvár,46.5814,17.6629
HU,8699,Somogyvámos,46.5725,17.6847
HU,8700,Csömend,46.5696,17.4942
HU,8700,Marcali,46.585,17.412
HU,8705,Somogyszentpál,46.6417,17.4736
HU,8706,Nikla,46.5809,17.5136
HU,8707,Pusztakovácsi,46.5323,17.5724
HU,8707,Libickozma,46.522,17.5328
HU,8708,Somogyfajsz,46.5085,17.5664
HU,8709,Marcali,46.585,17.412
HU,8710,Balatonszentgyörgy,46.6876,17.3024
HU,8711,Vörs,46.6648,17.2689
HU,8712,Balatonújlak,46.6738,17.3855
HU,8713,Kéthely,46.6461,17.3936
HU,8714,Marcali,46.585,17.412
HU,8714,Kelevíz,46.5241,17.4188
HU,8716,Gadány,46.5153,17.3915
HU,8716,Hosszúvíz,46.5173,17.4433
HU,8716,Mesztegnyő,46.4962,17.4242
HU,8717,Nemeskisfalud,46.4406,17.3667
HU,8717,Szenyér,46.4667,17.3833
HU,8718,Tapsony,46.4597,17.3378
HU,8719,Böhönye,46.4134,17.3804
HU,8721,Vése,46.4132,17.2901
HU,8722,Nemesdéd,46.4331,17.2475
HU,8723,Varászló,46.4342,17.2163
HU,8724,Inke,46.3952,17.1978
HU,8725,Iharosberény,46.3634,17.1123
HU,8726,Somogycsicsó,46.3106,17.1333
HU,8726,Iharos,46.3438,17.1021
HU,8728,Pogányszentpéter,46.3848,17.063
HU,8731,Hollád,46.6413,17.3096
HU,8731,Tikos,46.6351,17.2877
HU,8732,Főnyed,46.6307,17.2572
HU,8732,Sávoly,46.5915,17.2685
HU,8732,Szegerdő,46.6335,17.2758
HU,8733,Somogysámson,46.5876,17.2969
HU,8734,Somogyzsitfa,46.562,17.2945
HU,8735,Csákány,46.5387,17.2723
HU,8736,Szőkedencs,46.5593,17.2489
HU,8737,Somogysimonyi,46.4879,17.2096
HU,8738,Nemesvid,46.4972,17.2565
HU,8739,Nagyszakácsi,46.4872,17.3208
HU,8840,Csurgó,46.2531,17.1006
HU,8840,Csurgónagymarton,46.2942,17.0819
HU,8849,Szenta,46.2523,17.1699
HU,8851,Gyékényes,46.2362,17.0103
HU,8852,Zákány,46.2826,16.9487
HU,8853,Zákányfalu,46.2943,16.989
HU,8854,Őrtilos,46.2843,16.9272
HU,8858,Porrogszentkirály,46.278,17.0402
HU,8858,Porrog,46.2914,17.0357
HU,8858,Somogybükkösd,46.3059,16.9982
HU,8858,Porrogszentpál,46.2868,17.0153
HU,4231,Bököny,47.7333,21.75
HU,4232,Geszteréd,47.7667,21.7833
HU,4233,Balkány,47.7707,21.8631
HU,4234,Szakoly,47.7667,21.9167
HU,4235,Biri,47.8167,21.85
HU,4244,Újfehértó,47.8,21.6833
HU,4245,Érpatak,47.8,21.7667
HU,4246,Nyíregyháza,47.9554,21.7167
HU,4267,Penészlek,47.6333,22.15
HU,4300,Nyírbátor,47.8333,22.1333
HU,4311,Nyírgyulaj,47.8862,22.0978
HU,4320,Nagykálló,47.8749,21.8408
HU,4324,Kállósemjén,47.8608,21.9393
HU,4325,Kisléta,47.8424,22.0039
HU,4326,Máriapócs,47.883,22.025
HU,4327,Pócspetri,47.8872,21.9931
HU,4331,Nyírcsászári,47.8657,22.1754
HU,4332,Nyírderzs,47.899,22.161
HU,4333,Nyírkáta,47.8681,22.2543
HU,4334,Hodász,47.9183,22.2015
HU,4335,Kántorjánosi,47.9333,22.15
HU,4336,Őr,47.9721,22.1874
HU,4337,Jármi,47.9667,22.25
HU,4338,Papos,47.9833,22.25
HU,4341,Nyírvasvári,47.8167,22.1868
HU,4342,Terem,47.794,22.3159
HU,4343,Bátorliget,47.7622,22.2725
HU,4351,Vállaj,47.7676,22.3813
HU,4352,Mérk,47.7882,22.3804
HU,4353,Tiborszállás,47.8151,22.4085
HU,4354,Fábiánháza,47.8476,22.3535
HU,4355,Nagyecsed,47.8655,22.3916
HU,4356,Nyírcsaholy,47.9038,22.3363
HU,4361,Nyírbogát,47.8034,22.0656
HU,4362,Nyírgelse,47.7634,21.9813
HU,4363,Nyírmihálydi,47.7398,21.9644
HU,4371,Nyírlugos,47.6931,22.0448
HU,4372,Nyírbéltek,47.7,22.1333
HU,4373,Ömböly,47.7,22.2167
HU,4374,Encsencs,47.7333,22.1167
HU,4375,Piricse,47.7727,22.1543
HU,4376,Nyírpilis,47.783,22.1822
HU,4400,Nyíregyháza,47.9554,21.7167
HU,4405,Nyíregyháza,47.9554,21.7167
HU,4431,Nyíregyháza,47.9554,21.7167
HU,4432,Nyíregyháza,47.9554,21.7167
HU,4433,Nyíregyháza,47.9554,21.7167
HU,4434,Kálmánháza,47.8833,21.5833
HU,4440,Tiszavasvári,47.9667,21.35
HU,4441,Szorgalmatos,47.9667,21.3667
HU,4445,Nagycserkesz,47.9667,21.5333
HU,4446,Tiszaeszlár,48.05,21.4667
HU,4447,Tiszalök,48.0167,21.3833
HU,4450,Tiszalök,48.0167,21.3833
HU,4455,Tiszadada,48.0333,21.25
HU,4456,Tiszadob,48.0167,21.1667
HU,4461,Nyírtelek,48.0167,21.6333
HU,4463,Tiszanagyfalu,48.1,21.4833
HU,4464,Tiszaeszlár,48.05,21.4667
HU,4465,Rakamaz,48.1237,21.4643
HU,4466,Timár,48.1667,21.4667
HU,4467,Szabolcs,48.1833,21.5
HU,4468,Balsa,48.1833,21.55
HU,4471,Gávavencsellő,48.1667,21.5737
HU,4472,Gávavencsellő,48.1667,21.5737
HU,4474,Tiszabercel,48.15,21.65
HU,4475,Paszab,48.15,21.6833
HU,4481,Nyíregyháza,47.9554,21.7167
HU,4482,Kótaj,48.05,21.7167
HU,4483,Buj,48.1,21.65
HU,4484,Ibrány,48.1233,21.7095
HU,4485,Nagyhalász,48.1327,21.761
HU,4486,Tiszatelek,48.1888,21.83
HU,4487,Tiszatelek,48.1888,21.83
HU,4488,Beszterec,48.1641,21.84
HU,4491,Újdombrád,48.1953,21.8703
HU,4492,Dombrád,48.2333,21.9333
HU,4493,Tiszakanyár,48.25,21.9667
HU,4494,Kékcse,48.2492,22.0057
HU,4495,Döge,48.2625,22.0634
HU,4496,Szabolcsveresmart,48.2899,22.019
HU,4501,Kemecse,48.0753,21.8063
HU,4502,Vasmegyer,48.1179,21.8183
HU,4503,Tiszarád,48.1254,21.7988
HU,4511,Nyírbogdány,48.0572,21.8824
HU,4515,Kék,48.1167,21.8833
HU,4516,Demecser,48.1165,21.9262
HU,4517,Gégény,48.15,21.95
HU,4521,Berkesz,48.0971,21.9791
HU,4522,Nyírtass,48.1167,22.0333
HU,4523,Pátroha,48.1667,22
HU,4524,Ajak,48.1766,22.0627
HU,4525,Rétközberencs,48.2089,22.0085
HU,4531,Nyírpazony,47.9833,21.8
HU,4532,Nyírtura,48.0142,21.8347
HU,4533,Sényő,48.0051,21.88
HU,4534,Székely,48.0578,21.9388
HU,4535,Nyíribrony,48.0188,21.961
HU,4536,Ramocsaháza,48.0429,21.9804
HU,4537,Nyírkércs,48.0185,22.0464
HU,4541,Nyírjákó,48.0303,22.0757
HU,4542,Petneháza,48.0608,22.0749
HU,4543,Laskod,48.0584,22.0436
HU,4544,Nyírkarász,48.0948,22.1046
HU,4545,Gyulaháza,48.1333,22.1167
HU,4546,Anarcs,48.1764,22.1117
HU,4547,Szabolcsbáka,48.1579,22.1396
HU,4551,Nyíregyháza,47.9554,21.7167
HU,4552,Napkor,47.938,21.8676
HU,4553,Apagy,47.9643,21.9354
HU,4554,Nyírtét,48.0061,21.9276
HU,4555,Levelek,47.9628,21.9854
HU,4556,Magy,47.9405,21.9831
HU,4557,Besenyőd,47.9688,22.0165
HU,4558,Ófehértó,47.9333,22.05
HU,4561,Baktalórántháza,48,22.0833
HU,4562,Vaja,48.0057,22.1676
HU,4563,Rohod,48.0274,22.1327
HU,4564,Nyírmada,48.0667,22.2
HU,4565,Pusztadobos,48.0582,22.229
HU,4566,Ilk,48.1167,22.2333
HU,4567,Gemzse,48.1413,22.1947
HU,4600,Kisvárda,48.2167,22.0833
HU,4611,Jéke,48.2433,22.1588
HU,4621,Fényeslitke,48.2713,22.1001
HU,4622,Komoró,48.3062,22.1107
HU,4623,Tuzsér,48.3441,22.1176
HU,4624,Tiszabezdéd,48.3667,22.15
HU,4625,Győröcske,48.3833,22.15
HU,4625,Záhony,48.4091,22.1761
HU,4627,Zsurk,48.4118,22.2195
HU,4628,Tiszaszentmárton,48.3777,22.2334
HU,4631,Pap,48.2163,22.1451
HU,4632,Nyírlövő,48.2,22.1791
HU,4633,Lövőpetri,48.1818,22.1972
HU,4634,Aranyosapáti,48.2059,22.2592
HU,4635,Újkenéz,48.2576,22.2232
HU,4641,Mezőladány,48.273,22.2224
HU,4642,Tornyospálca,48.2667,22.1833
HU,4643,Benk,48.2993,22.2433
HU,4644,Mándok,48.3215,22.1911
HU,4645,Tiszamogyorós,48.3167,22.2333
HU,4646,Eperjeske,48.3451,22.2155
HU,4700,Mátészalka,47.9553,22.3235
HU,4721,Szamoskér,48.0167,22.4167
HU,4722,Nyírmeggyes,47.9167,22.2667
HU,4731,Tunyogmatolcs,47.9667,22.4667
HU,4732,Cégénydányád,47.9337,22.5463
HU,4733,Gyügye,47.9259,22.5681
HU,4734,Szamosújlak,47.9155,22.5855
HU,4735,Hermánszeg,47.9056,22.6278
HU,4735,Szamossályi,47.9077,22.6098
HU,4737,Kisnamény,47.9555,22.6931
HU,4737,Darnó,47.9585,22.6593
HU,4741,Jánkmajtis,47.9411,22.6527
HU,4742,Csegöld,47.8859,22.682
HU,4743,Csengersima,47.8678,22.7263
HU,4745,Szamosbecs,47.859,22.685
HU,4746,Szamostatárfalva,47.8757,22.6639
HU,4751,Kocsord,47.9391,22.3833
HU,4752,Győrtelek,47.9367,22.4326
HU,4754,Fülpösdaróc,47.9361,22.4799
HU,4754,Géberjén,47.937,22.4612
HU,4755,Ököritófülpös,47.9186,22.5081
HU,4756,Rápolt,47.9192,22.5534
HU,4761,Porcsalma,47.8833,22.5667
HU,4762,Tyukod,47.8538,22.5633
HU,4763,Ura,47.8189,22.6046
HU,4764,Csengerújfalu,47.8059,22.6269
HU,4765,Csenger,47.8358,22.681
HU,4765,Komlódtótfalu,47.8485,22.7046
HU,4766,Pátyod,47.8687,22.6187
HU,4767,Szamosangyalos,47.8725,22.6551
HU,4800,Vásárosnamény,48.1254,22.3133
HU,4803,Vásárosnamény,48.1254,22.3133
HU,4804,Vásárosnamény,48.1254,22.3133
HU,4811,Kisvarsány,48.1541,22.298
HU,4812,Nagyvarsány,48.1619,22.2834
HU,4813,Gyüre,48.1759,22.2718
HU,4821,Ópályi,47.9977,22.3262
HU,4822,Nyírparasznya,48.0269,22.2767
HU,4823,Nagydobos,48.0576,22.3042
HU,4824,Szamosszeg,48.0456,22.3658
HU,4826,Olcsva,48.0898,22.334
HU,4831,Tiszaszalka,48.1872,22.3142
HU,4832,Tiszavid,48.1934,22.2886
HU,4833,Tiszaadony,48.2248,22.2916
HU,4834,Tiszakerecseny,48.2586,22.3008
HU,4835,Mátyus,48.283,22.2783
HU,4836,Lónya,48.3311,22.2653
HU,4841,Jánd,48.1132,22.3737
HU,4842,Gulács,48.0872,22.4749
HU,4843,Hetefejércse,48.12,22.4746
HU,4844,Csaroda,48.1583,22.4595
HU,4845,Tákos,48.1525,22.428
HU,4900,Fehérgyarmat,47.9833,22.5167
HU,4911,Nábrád,48.0056,22.447
HU,4912,Kérsemjén,48.021,22.4224
HU,4913,Panyola,48.0441,22.3929
HU,4914,Olcsvaapáti,48.0885,22.351
HU,4921,Kisar,48.0563,22.5154
HU,4921,Tivadar,48.0638,22.5102
HU,4922,Nagyar,48.056,22.552
HU,4931,Tarpa,48.1048,22.5374
HU,4932,Márokpapi,48.145,22.5139
HU,4933,Beregsurány,48.1662,22.552
HU,4934,Beregdaróc,48.2,22.5333
HU,4935,Gelénes,48.2,22.4517
HU,4936,Vámosatya,48.1997,22.4091
HU,4937,Barabás,48.2333,22.4333
HU,4941,Penyige,47.9962,22.5639
HU,4942,Mánd,47.998,22.6085
HU,4942,Nemesborzova,47.993,22.6323
HU,4943,Kömörő,48.0254,22.5884
HU,4944,Túristvándi,48.05,22.65
HU,4945,Szatmárcseke,48.0857,22.635
HU,4946,Tiszakóród,48.1041,22.7127
HU,4947,Tiszacsécse,48.1103,22.7465
HU,4948,Milota,48.1037,22.7844
HU,4951,Tiszabecs,48.0976,22.8178
HU,4952,Uszka,48.0732,22.8576
HU,4953,Magosliget,48.0548,22.8634
HU,4954,Sonkád,48.0551,22.7487
HU,4955,Botpalád,48.0287,22.8067
HU,4956,Kispalád,48.0221,22.8406
HU,4961,Zsarolyán,47.9493,22.5911
HU,4962,Nagyszekeres,47.9641,22.6079
HU,4963,Kisszekeres,47.9734,22.6331
HU,4964,Fülesd,48.0251,22.6752
HU,4965,Kölcse,48.0509,22.7271
HU,4966,Vámosoroszi,47.9954,22.6889
HU,4967,Csaholc,47.9838,22.7322
HU,4968,Túrricse,47.9739,22.7661
HU,4969,Tisztaberek,47.955,22.7911
HU,4971,Rozsály,47.9199,22.7989
HU,4972,Gacsály,47.9294,22.7579
HU,4973,Császló,47.9143,22.7233
HU,4974,Zajta,47.9068,22.7992
HU,4975,Méhtelek,47.9333,22.85
HU,4976,Garbolc,47.9445,22.8635
HU,4977,Kishódos,47.9711,22.8365
HU,4977,Nagyhódos,47.9621,22.8504
HU,7020,Dunaföldvár,46.8071,18.9276
HU,7025,Bölcske,46.741,18.9674
HU,7026,Madocsa,46.6879,18.9579
HU,7027,Paks,46.6221,18.8557
HU,7030,Paks,46.6221,18.8557
HU,7038,Pusztahencse,46.6,18.7167
HU,7039,Németkér,46.7164,18.7631
HU,7042,Pálfa,46.7122,18.6088
HU,7043,Bikács,46.6774,18.6672
HU,7044,Nagydorog,46.6275,18.6556
HU,7045,Györköny,46.6337,18.6951
HU,7047,Sárszentlőrinc,46.6243,18.6047
HU,7051,Kajdacs,46.5655,18.6227
HU,7052,Kölesd,46.5081,18.5847
HU,7054,Tengelic,46.5288,18.7112
HU,7056,Szedres,46.4755,18.6831
HU,7057,Medina,46.475,18.6434
HU,7061,Belecska,46.6427,18.4147
HU,7062,Keszőhidegkút,46.6119,18.4218
HU,7063,Szárazd,46.5743,18.4248
HU,7064,Gyönk,46.556,18.4769
HU,7065,Miszla,46.632,18.4805
HU,7066,Udvari,46.5938,18.5122
HU,7067,Varsád,46.5221,18.5231
HU,7068,Kistormás,46.5031,18.5629
HU,7071,Szakadát,46.5375,18.4732
HU,7072,Diósberény,46.5331,18.4434
HU,7081,Simontornya,46.7546,18.5549
HU,7082,Kisszékely,46.6793,18.5392
HU,7083,Tolnanémedi,46.7188,18.4827
HU,7084,Pincehely,46.681,18.4394
HU,7085,Nagyszékely,46.6486,18.5315
HU,7086,Ozora,46.7513,18.4001
HU,7087,Fürged,46.7236,18.3113
HU,7090,Tamási,46.6333,18.2833
HU,7091,Pári,46.6333,18.2833
HU,7092,Nagykónyi,46.5907,18.2028
HU,7093,Értény,46.6114,18.1333
HU,7094,Koppányszántó,46.5947,18.1099
HU,7095,Újireg,46.65,18.1833
HU,7095,Iregszemcse,46.6929,18.1858
HU,7097,Nagyszokoly,46.7224,18.2082
HU,7098,Magyarkeszi,46.7478,18.2358
HU,7099,Felsőnyék,46.796,18.2974
HU,7100,Szekszárd,46.3501,18.7091
HU,7121,Szálka,46.2752,18.6384
HU,7122,Kakasd,46.3474,18.5929
HU,7130,Tolna,46.4268,18.7825
HU,7131,Tolna,46.4268,18.7825
HU,7132,Bogyiszló,46.3864,18.8296
HU,7133,Fadd,46.4648,18.8192
HU,7134,Gerjen,46.493,18.9038
HU,7135,Dunaszentgyörgy,46.5285,18.8177
HU,7136,Fácánkert,46.4465,18.7357
HU,7140,Bátaszék,46.1937,18.7231
HU,7142,Pörböly,46.2056,18.8124
HU,7143,Őcsény,46.3137,18.7575
HU,7144,Decs,46.2843,18.76
HU,7145,Sárpilis,46.2486,18.7424
HU,7146,Várdomb,46.252,18.685
HU,7147,Alsónána,46.2517,18.6574
HU,7148,Alsónyék,46.2019,18.7345
HU,7149,Báta,46.1286,18.7703
HU,7150,Bonyhád,46.2992,18.5302
HU,7158,Bonyhádvarasd,46.3688,18.4802
HU,7159,Kisdorog,46.3866,18.4968
HU,7161,Cikó,46.2588,18.562
HU,7162,Grábóc,46.2867,18.6111
HU,7163,Mőcsény,46.2585,18.5902
HU,7164,Bátaapáti,46.222,18.6007
HU,7165,Mórágy,46.2159,18.6432
HU,7171,Sióagárd,46.3927,18.6534
HU,7172,Harc,46.4036,18.6179
HU,7173,Zomba,46.4108,18.5658
HU,7174,Kéty,46.4401,18.5224
HU,7175,Felsőnána,46.4668,18.5291
HU,7176,Murga,46.4615,18.4874
HU,7181,Tevel,46.4103,18.4562
HU,7182,Závod,46.3945,18.4163
HU,7183,Kisvejke,46.3813,18.4142
HU,7184,Lengyel,46.3723,18.3683
HU,7185,Mucsfa,46.3553,18.4196
HU,7186,Aparhant,46.3287,18.449
HU,7186,Nagyvejke,46.3754,18.4448
HU,7187,Bonyhád,46.2992,18.5302
HU,7191,Hőgyész,46.497,18.4184
HU,7192,Szakály,46.5248,18.3823
HU,7193,Regöly,46.5803,18.3882
HU,7194,Kalaznó,46.5018,18.4776
HU,7195,Mucsi,46.4309,18.3911
HU,7200,Dombóvár,46.3766,18.137
HU,7211,Dalmand,46.4963,18.1832
HU,7212,Kocsola,46.529,18.1793
HU,7213,Szakcs,46.539,18.1095
HU,7214,Várong,46.5278,18.0453
HU,7214,Lápafő,46.5139,18.0598
HU,7215,Nak,46.4811,18.0516
HU,7224,Dúzs,46.489,18.3799
HU,7225,Csibrák,46.4667,18.35
HU,7226,Kurd,46.4468,18.3113
HU,7227,Gyulaj,46.5065,18.2948
HU,7228,Döbrököz,46.4218,18.2395
HU,7251,Kapospula,46.3531,18.0107
HU,7252,Attala,46.3531,18.0107
HU,7341,Csikóstőttős,46.3404,18.1577
HU,7352,Györe,46.2964,18.3988
HU,7353,Izmény,46.3147,18.4138
HU,7354,Váralja,46.2692,18.4312
HU,7355,Nagymányok,46.2791,18.4549
HU,7356,Kismányok,46.2781,18.4702
HU,7357,Jágónak,46.3142,18.0924
HU,7361,Kaposszekcső,46.3299,18.1316
HU,7362,Tarrós,46.3299,18.1316
HU,7362,Gerényes,46.3299,18.1316
HU,7362,Vásárosdombó,46.3299,18.1316
HU,9500,Celldömölk,47.2571,17.1503
HU,9511,Kemenesmihályfa,47.2905,17.1272
HU,9512,Ostffyasszonyfa,47.3287,17.0412
HU,9513,Csönge,47.3367,17.1129
HU,9514,Kenyeri,47.3799,17.0864
HU,9515,Pápoc,47.4129,17.1317
HU,9516,Vönöck,47.3142,17.1604
HU,9517,Kemenessömjén,47.2941,17.1308
HU,9521,Kemenesszentmárton,47.2955,17.1646
HU,9522,Kemenesmagasi,47.3308,17.2072
HU,9523,Szergény,47.3292,17.2694
HU,9531,Mersevát,47.2888,17.2044
HU,9541,Celldömölk,47.2571,17.1503
HU,9542,Boba,47.2012,17.1872
HU,9542,Nemeskocs,47.2012,17.1872
HU,9544,Kemenespálfa,47.1375,17.1742
HU,9545,Jánosháza,47.1194,17.165
HU,9547,Karakó,47.1151,17.1995
HU,9548,Nemeskeresztúr,47.0936,17.1903
HU,9549,Keléd,47.078,17.1161
HU,9551,Mesteri,47.224,17.0874
HU,9552,Vásárosmiske,47.2081,17.0651
HU,9553,Köcsk,47.1878,17.0862
HU,9553,Kemeneskápolna,47.2074,17.1053
HU,9554,Borgáta,47.1615,17.0803
HU,9554,Egyházashetye,47.1685,17.1194
HU,9555,Kissomlyó,47.1415,17.1038
HU,9556,Duka,47.1306,17.132
HU,9561,Tokorcs,47.2699,17.1013
HU,9561,Nagysimonyi,47.263,17.0639
HU,9600,Sárvár,47.254,16.9353
HU,9608,Sárvár,47.254,16.9353
HU,9609,Sárvár,47.254,16.9353
HU,9611,Csénye,47.2367,16.8722
HU,9612,Bögöt,47.2417,16.8027
HU,9612,Porpác,47.2417,16.8027
HU,9621,Ölbő,47.3011,16.8612
HU,9622,Szeleste,47.3096,16.8327
HU,9623,Répceszentgyörgy,47.3525,16.8468
HU,9624,Chernelházadamonya,47.3617,16.8431
HU,9625,Gór,47.3593,16.8026
HU,9625,Bő,47.2309,16.6216
HU,9631,Hegyfalu,47.3543,16.8839
HU,9632,Sajtoskál,47.4026,16.8541
HU,9633,Simaság,47.4252,16.842
HU,9634,Lócs,47.404,16.8115
HU,9634,Iklanberény,47.4243,16.8037
HU,9635,Zsédeny,47.3419,16.9027
HU,9636,Pósfa,47.3296,16.8523
HU,9641,Rábapaty,47.2951,16.9348
HU,9643,Jákfa,47.33,16.9501
HU,9651,Uraiújfalu,47.372,16.985
HU,9652,Nick,47.4026,17.0196
HU,9653,Répcelak,47.4211,17.0179
HU,9654,Csánig,47.3985,17.0075
HU,9661,Vasegerszeg,47.3742,16.9232
HU,9662,Tompaládony,47.3855,16.8942
HU,9662,Mesterháza,47.3732,16.8617
HU,9663,Nemesládony,47.4002,16.8854
HU,9664,Nagygeresd,47.3948,16.9343
HU,9665,Vámoscsalád,47.3908,16.9709
HU,9671,Sitke,47.2405,17.0231
HU,9672,Gérce,47.2143,17.0183
HU,9673,Káld,47.1637,17.0441
HU,9674,Vashosszúfalu,47.1111,17.0626
HU,9675,Bögöte,47.0909,17.0528
HU,9676,Hosszúpereszteg,47.0968,17.0233
HU,9681,Sótony,47.1997,16.955
HU,9682,Nyőgér,47.1805,16.9372
HU,9683,Bejcgyertyános,47.1333,16.9667
HU,9684,Egervölgy,47.119,16.9084
HU,9685,Szemenye,47.1012,16.9049
HU,9700,Szombathely,47.2309,16.6216
HU,9707,Szombathely,47.2309,16.6216
HU,9721,Gencsapáti,47.285,16.5957
HU,9722,Perenye,47.2915,16.5757
HU,9723,Gyöngyösfalu,47.3125,16.5875
HU,9724,Lukácsháza,47.3428,16.5738
HU,9725,Cák,47.3538,16.5145
HU,9725,Kőszegszerdahely,47.34,16.5146
HU,9725,Kőszegdoroszló,47.3449,16.5425
HU,9726,Velem,47.3439,16.4949
HU,9727,Bozsok,47.3244,16.4903
HU,9730,Kőszeg,47.3892,16.541
HU,9733,Horvátzsidány,47.4113,16.6251
HU,9733,Ólmod,47.4144,16.5896
HU,9733,Kiszsidány,47.4106,16.6388
HU,9734,Peresznye,47.4238,16.6511
HU,9735,Csepreg,47.401,16.7088
HU,9736,Tormásliget,47.4288,16.777
HU,9737,Bük,47.3849,16.7507
HU,9738,Tömörd,47.3637,16.6757
HU,9739,Kőszegpaty,47.327,16.6489
HU,9739,Nemescsó,47.35,16.6167
HU,9739,Pusztacsó,47.3328,16.621
HU,9740,Bük,47.3849,16.7507
HU,9741,Vassurány,47.2833,16.7
HU,9742,Salköveskút,47.2959,16.6951
HU,9743,Söpte,47.2863,16.6515
HU,9744,Vasasszonyfa,47.3113,16.6709
HU,9745,Meszlen,47.3333,16.7
HU,9746,Acsád,47.3249,16.7335
HU,9747,Vasszilvágy,47.3013,16.7528
HU,9748,Vát,47.2814,16.776
HU,9749,Nemesbőd,47.2695,16.7333
HU,9751,Vép,47.2304,16.7225
HU,9752,Kenéz,47.2026,16.7873
HU,9752,Bozzai,47.2073,16.7654
HU,9754,Megyehíd,47.211,16.8409
HU,9754,Pecöl,47.2052,16.8211
HU,9756,Ikervár,47.2056,16.8923
HU,9757,Meggyeskovácsi,47.1667,16.8667
HU,9761,Táplánszentkereszt,47.195,16.6961
HU,9762,Tanakajd,47.1862,16.7394
HU,9763,Vasszécseny,47.1817,16.7668
HU,9764,Meggyeskovácsi,47.15,16.8619
HU,9764,Csempeszkopács,47.1555,16.8053
HU,9766,Rábatöttös,47.1295,16.8069
HU,9766,Zsennye,47.113,16.8152
HU,9766,Rum,47.1294,16.8435
HU,9771,Balogunyom,47.1588,16.6489
HU,9772,Kisunyom,47.1466,16.6413
HU,9773,Sorokpolány,47.1363,16.6718
HU,9774,Sorkikápolna,47.1402,16.7035
HU,9774,Gyanógeregye,47.1228,16.7648
HU,9774,Sorkifalud,47.1316,16.7446
HU,9775,Nemeskolta,47.1424,16.7668
HU,9776,Püspökmolnári,47.0918,16.805
HU,9777,Rábahídvég,47.073,16.7424
HU,9781,Egyházashollós,47.0584,16.6891
HU,9782,Nemesrempehollós,47.0947,16.6802
HU,9783,Egyházasrádóc,47.0891,16.6174
HU,9784,Rádóckölked,47.0773,16.5905
HU,9784,Nagykölked,47.0674,16.5527
HU,9784,Harasztifalu,47.0514,16.5512
HU,9789,Sé,47.2432,16.5559
HU,9791,Torony,47.2411,16.5397
HU,9791,Dozmat,47.2338,16.512
HU,9792,Bucsu,47.2653,16.4935
HU,9793,Narda,47.239,16.4608
HU,9794,Felsőcsatár,47.2133,16.4434
HU,9795,Vaskeresztes,47.1927,16.4477
HU,9796,Pornóapáti,47.1563,16.4646
HU,9796,Horvátlövő,47.1801,16.4632
HU,9797,Nárai,47.1924,16.555
HU,9798,Ják,47.1425,16.5815
HU,9799,Szentpéterfa,47.0927,16.4781
HU,9800,Vasvár,47.0493,16.7995
HU,9811,Andrásfa,46.9644,16.793
HU,9812,Telekes,46.9389,16.7725
HU,9813,Sárfimizdó,46.9424,16.7163
HU,9813,Gersekarát,46.9784,16.7427
HU,9814,Halastó,46.9402,16.6823
HU,9821,Hegyhátszentpéter,46.9802,16.8169
HU,9821,Győrvár,46.9851,16.8397
HU,9823,Pácsony,47.0164,16.8557
HU,9824,Olaszfa,47.0137,16.8829
HU,9825,Oszkó,47.0384,16.8769
HU,9826,Petőmihályfa,46.9809,16.7866
HU,9831,Bérbaltavár,47.0073,16.962
HU,9832,Nagytilaj,46.9733,16.9653
HU,9833,Csehi,47.0338,16.946
HU,9834,Csehimindszent,47.0479,16.9549
HU,9835,Mikosszéplak,47.0328,16.9758
HU,9836,Csipkerek,47.0667,16.95
HU,9841,Kám,47.1038,16.8722
HU,9842,Alsóújlak,47.0805,16.8538
HU,9900,Körmend,47.011,16.606
HU,9909,Magyarnádalja,47.0083,16.535
HU,9909,Körmend,47.011,16.606
HU,9912,Magyarszecsőd,47.0345,16.6454
HU,9912,Molnaszecsőd,47.0453,16.6748
HU,9913,Döröske,47.0133,16.698
HU,9913,Nagymizdó,46.9913,16.6551
HU,9913,Szarvaskend,46.9899,16.6789
HU,9914,Döbörhegy,46.9915,16.7038
HU,9915,Hegyháthodász,46.9366,16.6565
HU,9915,Katafa,46.9796,16.6322
HU,9915,Hegyhátsál,46.9593,16.6418
HU,9915,Nádasd,46.9676,16.6114
HU,9917,Halogy,46.9723,16.5643
HU,9917,Daraboshegy,46.9723,16.5643
HU,9918,Felsőmarác,46.9339,16.5199
HU,9919,Csákánydoroszló,46.9764,16.4845
HU,9921,Vasalja,47.0131,16.5128
HU,9922,Pinkamindszent,47.0381,16.4831
HU,9923,Kemestaródfa,46.9987,16.5279
HU,9931,Ivánc,46.9439,16.5022
HU,9931,Hegyhátszentmárton,46.9352,16.4805
HU,9932,Viszák,46.881,16.4968
HU,9933,Őrimagyarósd,46.8885,16.5363
HU,9934,Felsőjánosfa,46.8463,16.5548
HU,9934,Szaknyér,46.8641,16.5275
HU,9934,Hegyhátszentjakab,46.8683,16.546
HU,9935,Szőce,46.8893,16.5718
HU,9936,Kisrákos,46.8603,16.5003
HU,9937,Pankasz,46.8377,16.4986
HU,9938,Nagyrákos,46.8303,16.4611
HU,9938,Szatta,46.7986,16.4796
HU,9941,Ispánk,46.8644,16.4433
HU,9941,Őriszentpéter,46.8408,16.4294
HU,9942,Szalafő,46.8693,16.3293
HU,9943,Kondorfa,46.8978,16.3977
HU,9944,Kerkáskápolna,46.7842,16.4282
HU,9944,Bajánsenye,46.8018,16.3841
HU,9945,Kercaszomor,46.789,16.3531
HU,9946,Velemér,46.7381,16.3791
HU,9946,Magyarszombatfa,46.7603,16.3425
HU,9951,Rátót,46.9649,16.428
HU,9952,Gasztony,46.9625,16.4509
HU,9953,Vasszentmihály,46.9698,16.4069
HU,9953,Nemesmedves,46.9973,16.4011
HU,9954,Rönök,46.9771,16.3605
HU,9955,Szentgotthárd,46.9526,16.2736
HU,9961,Rábagyarmat,46.9409,16.4225
HU,9962,Csörötnek,46.9506,16.364
HU,9962,Magyarlak,46.9517,16.3477
HU,9970,Szentgotthárd,46.9526,16.2736
HU,9981,Szentgotthárd,46.9526,16.2736
HU,9982,Kétvölgy,46.8853,16.2107
HU,9982,Orfalu,46.8815,16.2696
HU,9982,Apátistvánfalva,46.8962,16.2553
HU,9983,Alsószölnök,46.9269,16.2024
HU,9983,Szakonyfalu,46.9256,16.2289
HU,9985,Felsőszölnök,46.8762,16.165
HU,8100,Várpalota,47.1994,18.1395
HU,8105,Pétfürdő,47.1667,18.1167
HU,8109,Tés,47.2571,18.0287
HU,8161,Ősi,47.1472,18.1883
HU,8162,Küngös,47.0659,18.1729
HU,8163,Csajág,47.0418,18.1784
HU,8164,Balatonfőkajár,47.0208,18.2126
HU,8171,Balatonvilágos,46.9627,18.1604
HU,8172,Balatonakarattya,47.0195,18.1565
HU,8174,Balatonkenese,47.0402,18.1067
HU,8175,Balatonfűzfő,47.0667,18.05
HU,8181,Berhida,47.1113,18.1295
HU,8182,Berhida,47.1113,18.1295
HU,8183,Papkeszi,47.0833,18.0833
HU,8184,Balatonfűzfő,47.0667,18.05
HU,8191,Öskü,47.16,18.0733
HU,8192,Hajmáskér,47.1451,18.0196
HU,8193,Sóly,47.1304,18.0318
HU,8194,Vilonya,47.1106,18.0609
HU,8195,Királyszentistván,47.1091,18.0449
HU,8196,Litér,47.101,18.0045
HU,8200,Veszprém,47.0933,17.9115
HU,8220,Balatonalmádi,47.0353,18.0208
HU,8225,Szentkirályszabadja,47.0576,17.9705
HU,8226,Alsóörs,46.9913,17.9756
HU,8227,Felsőörs,47.0147,17.9533
HU,8228,Lovas,46.9936,17.9574
HU,8229,Csopak,46.9771,17.9182
HU,8229,Paloznak,46.9839,17.9402
HU,8230,Balatonfüred,46.9619,17.8719
HU,8233,Balatonszőlős,46.9657,17.8261
HU,8237,Tihany,46.9137,17.8892
HU,8241,Aszófő,46.9286,17.8331
HU,8242,Balatonudvari,46.9042,17.8035
HU,8242,Örvényes,46.915,17.8158
HU,8243,Balatonakali,46.8819,17.7532
HU,8244,Dörgicse,46.9148,17.7239
HU,8245,Pécsely,46.9566,17.7901
HU,8245,Vászoly,46.9403,17.7586
HU,8246,Tótvázsony,47.0095,17.7892
HU,8247,Hidegkút,47.0027,17.8296
HU,8248,Veszprémfajsz,47.037,17.8963
HU,8248,Nemesvámos,47.0551,17.8748
HU,8251,Zánka,46.8715,17.6847
HU,8252,Balatonszepezd,46.8563,17.6667
HU,8253,Révfülöp,46.8257,17.6197
HU,8254,Kékkút,46.8502,17.5592
HU,8254,Kővágóörs,46.8449,17.5987
HU,8255,Balatonrendes,46.827,17.5835
HU,8255,Kővágóörs,46.8449,17.5987
HU,8256,Salföld,46.8335,17.5505
HU,8256,Ábrahámhegy,46.81,17.5556
HU,8257,Badacsonytomaj,46.8071,17.5138
HU,8258,Badacsonytomaj,46.8071,17.5138
HU,8261,Badacsonytomaj,46.8071,17.5138
HU,8263,Badacsonytördemic,46.8107,17.4743
HU,8264,Szigliget,46.8015,17.4352
HU,8265,Hegymagas,46.8329,17.43
HU,8271,Mencshely,46.9454,17.6996
HU,8272,Szentantalfa,46.9134,17.6738
HU,8272,Óbudavár,46.9381,17.6906
HU,8272,Szentjakabfa,46.9336,17.6759
HU,8272,Balatoncsicsó,46.9272,17.6688
HU,8272,Tagyon,46.9027,17.6797
HU,8273,Monoszló,46.9028,17.6394
HU,8274,Köveskál,46.8826,17.6053
HU,8275,Balatonhenye,46.9124,17.6147
HU,8281,Szentbékkálla,46.8869,17.5635
HU,8282,Mindszentkálla,46.8734,17.5526
HU,8283,Káptalantóti,46.85,17.5139
HU,8284,Kisapáti,46.8429,17.4685
HU,8284,Nemesgulács,46.8348,17.4831
HU,8286,Gyulakeszi,46.8686,17.4808
HU,8291,Nagyvázsony,46.983,17.6963
HU,8291,Pula,46.9989,17.6496
HU,8291,Vöröstó,46.9713,17.7218
HU,8291,Barnag,46.9793,17.7478
HU,8292,Öcs,47.0014,17.6121
HU,8294,Kapolcs,46.9562,17.6111
HU,8294,Vigántpetend,46.9648,17.6266
HU,8295,Taliándörögd,46.9803,17.5683
HU,8296,Monostorapáti,46.9239,17.553
HU,8296,Hegyesd,46.9169,17.519
HU,8297,Tapolca,46.8815,17.4412
HU,8300,Raposka,46.8491,17.4249
HU,8300,Tapolca,46.8815,17.4412
HU,8308,Zalahaláp,46.9148,17.4612
HU,8308,Sáska,46.9361,17.4779
HU,8311,Nemesvita,46.8248,17.3668
HU,8312,Balatonederics,46.8095,17.3813
HU,8317,Lesencefalu,46.8455,17.3474
HU,8318,Lesencetomaj,46.8595,17.367
HU,8319,Lesenceistvánd,46.8703,17.3587
HU,8321,Uzsa,46.8953,17.3339
HU,8330,Sümeg,46.977,17.2821
HU,8344,Zalaerdőd,47.0558,17.1377
HU,8344,Hetyefő,47.0464,17.1606
HU,8345,Dabronc,47.0307,17.168
HU,8346,Gógánfa,47.0213,17.1876
HU,8347,Ukk,47.0433,17.2155
HU,8348,Rigács,47.0736,17.1945
HU,8348,Megyer,47.0658,17.1699
HU,8348,Zalameggyes,47.0815,17.219
HU,8349,Zalagyömörő,47.0192,17.2271
HU,8351,Sümegprága,46.9395,17.2727
HU,8352,Bazsi,46.9347,17.2436
HU,8400,Ajka,47.102,17.5589
HU,8409,Úrkút,47.085,17.6439
HU,8411,Veszprém,47.0933,17.9115
HU,8412,Veszprém,47.0933,17.9115
HU,8413,Eplény,47.2067,17.9197
HU,8414,Olaszfalu,47.244,17.9053
HU,8415,Nagyesztergár,47.2763,17.9048
HU,8416,Dudar,47.3105,17.9445
HU,8417,Csetény,47.3181,17.9921
HU,8418,Bakonyoszlop,47.3432,17.9273
HU,8419,Csesznek,47.3566,17.8852
HU,8420,Zirc,47.2636,17.8737
HU,8422,Bakonynána,47.279,17.9709
HU,8423,Szápár,47.3168,18.0414
HU,8424,Jásd,47.2894,18.0227
HU,8425,Lókút,47.2055,17.8562
HU,8426,Pénzesgyőr,47.2289,17.7915
HU,8427,Bakonybél,47.2554,17.728
HU,8428,Borzavár,47.2906,17.8291
HU,8429,Porva,47.3075,17.815
HU,8430,Bakonyszentkirály,47.3701,17.8807
HU,8431,Bakonyszentlászló,47.4121,17.8403
HU,8432,Fenyőfő,47.4121,17.8403
HU,8433,Bakonygyirót,47.4121,17.8403
HU,8434,Románd,47.4121,17.8403
HU,8435,Gic,47.4334,17.7525
HU,8438,Veszprémvarsány,47.4,17.85
HU,8439,Sikátor,47.4449,17.8781
HU,8440,Herend,47.1333,17.75
HU,8441,Márkó,47.1213,17.8138
HU,8442,Hárskút,47.1884,17.817
HU,8443,Bánd,47.1221,17.7812
HU,8444,Szentgál,47.1144,17.7339
HU,8445,Városlőd,47.1443,17.6514
HU,8445,Csehbánya,47.182,17.6837
HU,8446,Kislőd,47.1455,17.6228
HU,8447,Ajka,47.102,17.5589
HU,8448,Ajka,47.102,17.5589
HU,8449,Magyarpolány,47.1695,17.5462
HU,8451,Ajka,47.102,17.5589
HU,8452,Halimba,47.0331,17.5365
HU,8452,Szőc,47.0215,17.5146
HU,8454,Nyirád,47.0043,17.4517
HU,8455,Pusztamiske,47.0612,17.4498
HU,8456,Noszlop,47.1821,17.4588
HU,8457,Bakonypölöske,47.2103,17.4882
HU,8458,Oroszi,47.1556,17.4164
HU,8460,Devecser,47.1032,17.438
HU,8468,Kolontár,47.0846,17.4764
HU,8469,Kamond,47.1333,17.2
HU,8471,Nemeshany,47.0698,17.3648
HU,8471,Káptalanfa,47.0652,17.3438
HU,8471,Bodorfa,47.076,17.3421
HU,8473,Gyepükaján,47.0426,17.3286
HU,8474,Csabrendek,47.0136,17.2911
HU,8475,Hosztót,47.0877,17.2407
HU,8475,Veszprémgalsa,47.0895,17.2657
HU,8475,Szentimrefalva,47.0768,17.2801
HU,8476,Zalaszegvár,47.0988,17.2236
HU,8477,Kisberzseny,47.1063,17.2658
HU,8477,Apácatorna,47.1134,17.2944
HU,8477,Tüskevár,47.1183,17.3114
HU,8478,Somlójenő,47.1276,17.3545
HU,8479,Borszörcsök,47.1346,17.4067
HU,8481,Somlóvásárhely,47.1215,17.3756
HU,8482,Doba,47.1655,17.379
HU,8483,Somlószőlős,47.1721,17.3585
HU,8483,Kisszőlős,47.1966,17.3322
HU,8484,Nagyalásony,47.2301,17.357
HU,8484,Vid,47.2136,17.337
HU,8484,Somlóvecse,47.1949,17.352
HU,8485,Dabrony,47.2434,17.3279
HU,8491,Karakószörcsök,47.1305,17.2845
HU,8492,Kerta,47.1635,17.2738
HU,8493,Iszkáz,47.1634,17.2972
HU,8494,Kiscsősz,47.1956,17.2801
HU,8495,Csögle,47.2164,17.2566
HU,8496,Kispirit,47.1972,17.2403
HU,8496,Nagypirit,47.1985,17.2252
HU,8497,Adorjánháza,47.2435,17.2396
HU,8497,Egeralja,47.2333,17.25
HU,8500,Pápa,47.33,17.4674
HU,8511,Pápa,47.33,17.4674
HU,8512,Nyárád,47.2871,17.3645
HU,8513,Mihályháza,47.3079,17.3388
HU,8514,Mezőlak,47.3297,17.3711
HU,8515,Békás,47.3328,17.3518
HU,8516,Kemeneshőgyész,47.3543,17.2972
HU,8517,Magyargencs,47.3773,17.2886
HU,8518,Kemenesszentpéter,47.4267,17.2323
HU,8521,Nagyacsád,47.3653,17.3736
HU,8522,Nemesgörzsöny,47.3979,17.3628
HU,8523,Egyházaskesző,47.4161,17.3287
HU,8523,Várkesző,47.4313,17.318
HU,8531,Marcaltő,47.4334,17.3681
HU,8532,Marcaltő,47.4334,17.3681
HU,8533,Malomsok,47.4495,17.3918
HU,8541,Takácsi,47.3991,17.4709
HU,8542,Vaszar,47.4,17.5167
HU,8543,Gecse,47.4461,17.5316
HU,8551,Nagygyimót,47.339,17.5518
HU,8552,Vanyola,47.3849,17.5978
HU,8553,Lovászpatona,47.4373,17.631
HU,8554,Nagydém,47.439,17.6731
HU,8555,Bakonytamási,47.4124,17.734
HU,8556,Pápateszér,47.3813,17.7016
HU,8557,Bakonyszentiván,47.3898,17.6706
HU,8557,Bakonyság,47.4005,17.6513
HU,8558,Csót,47.361,17.6087
HU,8561,Adásztevel,47.3034,17.5409
HU,8562,Nagytevel,47.2924,17.5715
HU,8563,Homokbödöge,47.3026,17.5896
HU,8564,Ugod,47.3206,17.5999
HU,8565,Béb,47.3448,17.599
HU,8571,Bakonykoppány,47.3303,17.6867
HU,8572,Bakonyszücs,47.343,17.6807
HU,8581,Bakonyjákó,47.2243,17.6024
HU,8581,Németbánya,47.2176,17.6522
HU,8582,Farkasgyepű,47.2,17.6333
HU,8591,Pápa,47.33,17.4674
HU,8591,Nóráp,47.2731,17.4567
HU,8592,Dáka,47.2877,17.428
HU,8593,Pápadereske,47.2927,17.4009
HU,8594,Pápasalamon,47.2283,17.4238
HU,8595,Kup,47.2483,17.4638
HU,8596,Pápakovácsi,47.2644,17.4877
HU,8597,Döbrönte,47.2292,17.5465
HU,8597,Ganna,47.2328,17.53
HU,8598,Pápa,47.33,17.4674
HU,9532,Külsővat,47.295,17.2266
HU,9533,Nemesszalók,47.2753,17.2996
HU,9534,Vinár,47.3102,17.2823
HU,9534,Marcalgergelyi,47.3103,17.2706
HU,8313,Balatongyörök,46.7583,17.3546
HU,8314,Vonyarcvashegy,46.7574,17.3117
HU,8315,Gyenesdiás,46.7706,17.2866
HU,8316,Várvölgy,46.8696,17.2964
HU,8316,Vállus,46.8443,17.3022
HU,8341,Kisvásárhely,46.9948,17.1993
HU,8341,Mihályfa,46.9799,17.1846
HU,8341,Szalapa,46.9945,17.149
HU,8342,Óhíd,46.9624,17.1709
HU,8353,Zalaszántó,46.8883,17.2278
HU,8353,Vindornyalak,46.8867,17.1938
HU,8354,Vindornyafok,46.8561,17.1727
HU,8354,Zalaköveskút,46.8487,17.1425
HU,8354,Karmacs,46.837,17.1737
HU,8355,Vindornyaszőlős,46.9016,17.1533
HU,8356,Nagygörbő,46.9312,17.1788
HU,8356,Kisgörbő,46.9362,17.1568
HU,8357,Sümegcsehi,46.9463,17.2153
HU,8357,Döbröce,46.9359,17.1878
HU,8360,Keszthely,46.7681,17.2432
HU,8371,Nemesbük,46.8167,17.15
HU,8372,Cserszegtomaj,46.8017,17.221
HU,8373,Rezi,46.8434,17.2204
HU,8380,Hévíz,46.7903,17.1841
HU,8391,Sármellék,46.7122,17.1686
HU,8392,Zalavár,46.6684,17.156
HU,8393,Szentgyörgyvár,46.7579,17.1306
HU,8394,Alsópáhok,46.7693,17.1716
HU,8395,Felsőpáhok,46.7842,17.1582
HU,8741,Zalaapáti,46.7384,17.1067
HU,8741,Bókaháza,46.7739,17.1054
HU,8742,Esztergályhorváti,46.7007,17.1089
HU,8743,Zalaszabar,46.6413,17.1125
HU,8744,Orosztony,46.6277,17.0619
HU,8745,Kerecseny,46.6247,17.046
HU,8746,Nagyrada,46.6185,17.1184
HU,8747,Garabonc,46.5871,17.1226
HU,8747,Zalamerenye,46.5713,17.0934
HU,8749,Zalakaros,46.5651,17.1249
HU,8751,Zalakomár,46.538,17.1809
HU,8752,Zalakomár,46.538,17.1809
HU,8753,Balatonmagyaród,46.5959,17.1757
HU,8754,Galambok,46.5219,17.1263
HU,8756,Kisrécse,46.5013,17.0634
HU,8756,Zalasárszeg,46.4943,17.0805
HU,8756,Csapi,46.5324,17.0861
HU,8756,Nagyrécse,46.4899,17.0524
HU,8761,Zalaigrice,46.7472,17.0099
HU,8761,Pacsa,46.7198,17.014
HU,8762,Szentpéterúr,46.7614,17.0428
HU,8762,Gétye,46.7628,17.0679
HU,8764,Zalaszentmárton,46.7042,17.0652
HU,8764,Dióskál,46.6737,17.0557
HU,8765,Egeraracsa,46.6737,17.0784
HU,8767,Pötréte,46.68,16.9502
HU,8767,Felsőrajk,46.681,16.987
HU,8767,Alsórajk,46.6549,16.9968
HU,8771,Hahót,46.6399,16.9228
HU,8772,Börzönce,46.5798,16.89
HU,8772,Zalaszentbalázs,46.5905,16.9177
HU,8773,Kacorlak,46.5747,16.9544
HU,8773,Pölöskefő,46.6039,16.9465
HU,8774,Gelse,46.6,17
HU,8774,Kilimán,46.6362,16.9953
HU,8774,Gelsesziget,46.5664,16.9887
HU,8776,Magyarszerdahely,46.556,16.9385
HU,8776,Bocska,46.5516,16.9146
HU,8776,Magyarszentmiklós,46.5385,16.9357
HU,8777,Hosszúvölgy,46.5128,16.9309
HU,8777,Homokkomárom,46.5048,16.9157
HU,8777,Fűzvölgy,46.5232,16.9407
HU,8778,Újudvar,46.5403,16.9928
HU,8782,Tilaj,46.8049,17.048
HU,8782,Zalacsány,46.8078,17.1077
HU,8782,Ligetfalva,46.8246,17.0607
HU,8784,Kehidakustány,46.8418,17.0928
HU,8785,Kallósd,46.8714,17.064
HU,8785,Zalaszentgrót,46.9447,17.0793
HU,8788,Zalaszentlászló,46.8773,17.1111
HU,8788,Sénye,46.8961,17.1353
HU,8789,Zalaszentgrót,46.9447,17.0793
HU,8790,Zalaszentgrót,46.9447,17.0793
HU,8792,Zalavég,47.0069,17.0249
HU,8793,Tekenye,46.9447,17.0793
HU,8795,Zalaszentgrót,46.9447,17.0793
HU,8796,Türje,46.9837,17.1074
HU,8797,Batyk,46.9927,17.0404
HU,8798,Zalabér,46.9722,17.0305
HU,8799,Dötk,46.9436,17.0074
HU,8799,Pakod,46.9587,17.0058
HU,8800,Nagykanizsa,46.4535,16.991
HU,8808,Nagykanizsa,46.4535,16.991
HU,8809,Nagykanizsa,46.4535,16.991
HU,8821,Nagybakónak,46.5538,17.0438
HU,8822,Zalaújlak,46.56,17.0783
HU,8824,Sand,46.4223,17.1229
HU,8825,Pat,46.4394,17.1836
HU,8825,Miháld,46.449,17.1214
HU,8827,Zalaszentjakab,46.4876,17.13
HU,8831,Nagykanizsa,46.4535,16.991
HU,8832,Liszó,46.3663,17.0066
HU,8834,Murakeresztúr,46.3642,16.8818
HU,8835,Fityeház,46.3768,16.9054
HU,8855,Belezna,46.3278,16.94
HU,8856,Surd,46.3226,16.9704
HU,8857,Nemespátró,46.3273,17.0039
HU,8861,Szepetnek,46.4337,16.903
HU,8862,Semjénháza,46.4002,16.846
HU,8863,Molnári,46.3852,16.8314
HU,8864,Tótszerdahely,46.3977,16.7999
HU,8865,Tótszentmárton,46.4219,16.8056
HU,8866,Becsehely,46.4476,16.7771
HU,8866,Petrivente,46.4401,16.8419
HU,8868,Kistolmács,46.4857,16.7521
HU,8868,Zajk,46.4857,16.7187
HU,8868,Murarátka,46.4575,16.6735
HU,8868,Letenye,46.433,16.7258
HU,8872,Muraszemenye,46.4667,16.6167
HU,8872,Szentmargitfalva,46.4954,16.66
HU,8873,Csörnyeföld,46.5,16.6333
HU,8874,Kerkaszentkirály,46.5,16.5833
HU,8874,Dobri,46.5162,16.5821
HU,8876,Tormafölde,46.5384,16.5917
HU,8877,Tornyiszentmiklós,46.5218,16.5553
HU,8878,Lovászi,46.5462,16.5646
HU,8879,Szécsisziget,46.5729,16.5933
HU,8879,Kerkateskánd,46.5766,16.572
HU,8881,Sormás,46.4606,16.916
HU,8882,Eszteregnye,46.474,16.8835
HU,8883,Rigyác,46.4692,16.8631
HU,8885,Borsfa,46.518,16.7788
HU,8885,Valkonya,46.4999,16.8094
HU,8886,Oltárc,46.5329,16.8375
HU,8887,Lasztonya,46.5561,16.7163
HU,8887,Bázakerettye,46.5233,16.7294
HU,8888,Maróc,46.548,16.6651
HU,8888,Lispeszentadorján,46.5372,16.7027
HU,8888,Kiscsehi,46.5217,16.6752
HU,8891,Bánokszentgyörgy,46.5482,16.7844
HU,8891,Várfölde,46.5584,16.7611
HU,8893,Szentliszló,46.5805,16.8232
HU,8893,Bucsuta,46.566,16.8361
HU,8895,Pusztamagyaród,46.604,16.8316
HU,8896,Pusztaszentlászló,46.6408,16.8421
HU,8897,Söjtör,46.6735,16.8539
HU,8900,Zalaegerszeg,46.84,16.8439
HU,8904,Zalaegerszeg,46.84,16.8439
HU,8911,Kiskutas,46.9124,16.7965
HU,8911,Nagykutas,46.9277,16.8057
HU,8912,Nagypáli,46.911,16.845
HU,8912,Kispáli,46.9119,16.8293
HU,8913,Gősfa,46.9605,16.8598
HU,8913,Lakhegy,46.9464,16.8341
HU,8913,Egervár,46.9358,16.8533
HU,8914,Vasboldogasszony,46.9453,16.8689
HU,8915,Nemesrádó,46.7787,16.9941
HU,8917,Milejszeg,46.7899,16.7417
HU,8918,Csonkahegyhát,46.8007,16.72
HU,8918,Németfalu,46.8162,16.6857
HU,8919,Kustánszeg,46.7829,16.6788
HU,8921,Zalaszentiván,46.8902,16.8985
HU,8921,Alibánfa,46.885,16.9207
HU,8921,Pethőhenye,46.8795,16.9111
HU,8921,Zalaszentlőrinc,46.9164,16.8867
HU,8923,Nemesapáti,46.8687,16.9505
HU,8924,Alsónemesapáti,46.8534,16.9353
HU,8925,Nemessándorháza,46.7843,16.9482
HU,8925,Nemesszentandrás,46.778,16.953
HU,8925,Búcsúszentlászló,46.7884,16.9308
HU,8926,Kisbucsa,46.8189,16.9404
HU,8928,Nemeshetés,46.8013,16.9125
HU,8929,Pölöske,46.7553,16.924
HU,8931,Kemendollár,46.9023,16.9502
HU,8931,Vöckönd,46.8887,16.9549
HU,8932,Gyűrűs,46.8833,17
HU,8932,Zalaistvánd,46.9185,16.979
HU,8932,Pókaszepetk,46.9247,16.9683
HU,8934,Bezeréd,46.8707,17.0156
HU,8935,Misefa,46.8036,16.9843
HU,8935,Padár,46.8519,17.0159
HU,8935,Orbányosfa,46.8533,16.9817
HU,8935,Almásháza,46.8446,17.047
HU,8935,Nagykapornak,46.82,16.9959
HU,8936,Zalaszentmihály,46.7263,16.9488
HU,8943,Csatár,46.7766,16.8638
HU,8943,Bocfölde,46.7833,16.8333
HU,8944,Sárhida,46.7569,16.8424
HU,8945,Bak,46.73,16.8456
HU,8946,Pusztaederics,46.6392,16.7998
HU,8946,Tófej,46.6736,16.8013
HU,8946,Baktüttös,46.7,16.8179
HU,8947,Szentkozmadombja,46.6809,16.7617
HU,8947,Zalatárnok,46.7011,16.7597
HU,8948,Barlahida,46.7167,16.7011
HU,8948,Nova,46.6851,16.6765
HU,8949,Mikekarácsonyfa,46.66,16.7024
HU,8951,Csertalakos,46.6423,16.6988
HU,8951,Gutorfölde,46.6375,16.7353
HU,8953,Szentpéterfölde,46.6149,16.7573
HU,8954,Ortaháza,46.6225,16.682
HU,8956,Pördefölde,46.5884,16.7105
HU,8956,Kányavár,46.5667,16.6833
HU,8956,Páka,46.5927,16.6462
HU,8957,Zebecke,46.6434,16.686
HU,8957,Csömödér,46.6101,16.6381
HU,8957,Kissziget,46.6227,16.6654
HU,8957,Hernyék,46.6495,16.6414
HU,8958,Iklódbördőce,46.6048,16.6134
HU,8960,Lenti,46.624,16.5386
HU,8960,Gosztola,46.5864,16.5316
HU,8966,Lenti,46.624,16.5386
HU,8969,Bödeháza,46.6416,16.4014
HU,8969,Zalaszombatfa,46.638,16.4436
HU,8969,Gáborjánháza,46.6318,16.42
HU,8969,Szijártóháza,46.6336,16.437
HU,8971,Kerkabarabás,46.68,16.5564
HU,8971,Zalabaksa,46.7063,16.5517
HU,8973,Alsószenterzsébet,46.7451,16.4777
HU,8973,Csesztreg,46.7151,16.5153
HU,8973,Ramocsa,46.7763,16.4457
HU,8973,Magyarföld,46.7766,16.4171
HU,8973,Kerkakutas,46.76,16.5033
HU,8973,Kerkafalva,46.7667,16.5
HU,8973,Felsőszenterzsébet,46.7529,16.455
HU,8975,Szentgyörgyvölgy,46.7235,16.4151
HU,8976,Márokföld,46.7165,16.4426
HU,8976,Nemesnép,46.7006,16.4568
HU,8977,Baglad,46.6805,16.4854
HU,8977,Lendvajakabfa,46.6768,16.4432
HU,8977,Resznek,46.6622,16.4746
HU,8978,Külsősárd,46.6281,16.4853
HU,8978,Rédics,46.6142,16.4775
HU,8978,Lendvadedes,46.5811,16.5096
HU,8978,Belsősárd,46.6434,16.4717
HU,8981,Lickóvadamos,46.7465,16.7696
HU,8981,Gellénháza,46.7646,16.785
HU,8983,Babosdöbréte,46.8148,16.7801
HU,8983,Ormándlak,46.7574,16.7537
HU,8983,Nagylengyel,46.7803,16.764
HU,8984,Iborfia,46.7389,16.7491
HU,8984,Petrikeresztúr,46.7412,16.7264
HU,8984,Gombosszeg,46.7554,16.72
HU,8985,Becsvölgye,46.7622,16.6869
HU,8986,Szilvágy,46.7343,16.6274
HU,8986,Pusztaapáti,46.7631,16.6099
HU,8986,Pórszombat,46.729,16.5754
HU,8988,Kálócfa,46.7557,16.5643
HU,8988,Kozmadombja,46.767,16.5509
HU,8989,Dobronhegy,46.8158,16.7527
HU,8990,Pálfiszeg,46.7819,16.7295
HU,8991,Hottó,46.846,16.7509
HU,8991,Teskánd,46.8533,16.778
HU,8991,Böde,46.8382,16.719
HU,8992,Zalaboldogfa,46.8985,16.7688
HU,8992,Boncodfölde,46.869,16.7374
HU,8992,Hagyárosbörönd,46.9082,16.7038
HU,8992,Bagod,46.8767,16.7482
HU,8994,Kávás,46.8638,16.7077
HU,8994,Zalaszentgyörgy,46.8718,16.7044
HU,8995,Keménfa,46.8391,16.6379
HU,8995,Salomvár,46.8489,16.6633
HU,8996,Zalacséb,46.8619,16.6579
HU,8997,Zalaháshágy,46.8893,16.6277
HU,8998,Ozmánbük,46.923,16.6713
HU,8998,Vaspör,46.9172,16.6477
HU,8999,Csöde,46.8167,16.5319
HU,8999,Zalalövő,46.848,16.5875
