country_code,postal_code,place_name,latitude,longitude
SK,974 01,Dolná Mičiná,48.6754,19.2223
SK,974 01,Špania Dolina,48.8075,19.1341
SK,974 01,Riečka,48.7562,19.0768
SK,974 01,Nemce,48.7622,19.1853
SK,974 01,Čerín - Čačín,48.6668,19.255
SK,974 01,Banská Bystrica,48.7395,19.1535
SK,974 01,Banská Bystrica 1,48.7321,19.1784
SK,974 01,Sebedín-Bečov,48.6399,19.2406
SK,974 01,Môlča,48.712,19.2269
SK,974 01,Kynceľová,48.7499,19.1857
SK,974 01,Horná Mičiná,48.6989,19.2144
SK,974 04,Banská Bystrica,48.7395,19.1535
SK,974 05,Malachov,48.7103,19.0897
SK,974 05,Horné Pršany,48.6996,19.0833
SK,974 09,Banská Bystrica,48.7395,19.1535
SK,974 11,Banská Bystrica,48.7395,19.1535
SK,976 02,Motyčky,48.8606,19.1699
SK,976 02,Turecká,48.8494,19.0845
SK,976 02,Staré Hory,48.8391,19.1148
SK,976 03,Harmanec,48.7958,19.0734
SK,976 03,Dolný Harmanec,48.8097,19.0519
SK,976 11,Priechod,48.7831,19.2354
SK,976 11,Baláže,48.814,19.1957
SK,976 11,Selce,48.7626,19.203
SK,976 13,Moštenica,48.8084,19.2905
SK,976 13,Podkonice,48.7999,19.2575
SK,976 13,Slovenská Ľupča,48.7653,19.2755
SK,976 31,Vlkanová,48.6713,19.1461
SK,976 31,Hronsek,48.6525,19.1568
SK,976 32,Badín,48.6638,19.1232
SK,976 33,Poniky,48.7124,19.2927
SK,976 33,Dúbravica,48.6796,19.2729
SK,976 33,Oravce,48.6846,19.2627
SK,976 34,Tajov,48.7457,19.0703
SK,976 34,Kordíky,48.7718,19.022
SK,976 34,Králiky,48.7348,19.0371
SK,976 37,Hrochoť,48.6557,19.3128
SK,976 39,Donovaly,48.8801,19.2224
SK,976 55,Strelníky,48.7229,19.3922
SK,976 55,Ľubietová,48.7453,19.361
SK,976 55,Povrazník,48.7161,19.3644
SK,976 61,Hiadeľ,48.8105,19.3156
SK,976 61,Lučatín,48.7828,19.32
SK,976 62,Brusno,48.7924,19.3822
SK,976 62,Pohronský Bukovec,48.8048,19.3919
SK,976 81,Štiavnička,48.7609,19.231
SK,976 96,Medzibrod,48.7943,19.3537
SK,966 15,Kozelník,48.5119,18.9974
SK,966 15,Banská Belá,48.4747,18.9337
SK,969 01,Banská Štiavnica 1,48.4064,18.8659
SK,969 01,Banská Štiavnica,48.4486,18.91
SK,969 01,Banský Studenec,48.4489,18.9669
SK,969 01,Rychňava,48.4064,18.8659
SK,969 01,Kysihýbel,48.4064,18.8659
SK,969 01,Baďan,48.3301,18.8471
SK,969 01,Beluj,48.3501,18.8962
SK,969 01,Dekýš,48.4,18.7667
SK,969 01,Ilija,48.4192,18.899
SK,969 01,Vysoká,48.412,18.7895
SK,969 01,Počúvadlo,48.366,18.8328
SK,969 72,Svätý Anton,48.4192,18.9401
SK,969 73,Prenčov,48.3582,18.9247
SK,969 81,Štiavnické Bane,48.4394,18.8555
SK,969 82,Močiar,48.5419,18.9464
SK,969 82,Podhorie,48.4986,18.9191
SK,976 44,Mýto pod Ďumbierom,48.8533,19.6327
SK,976 45,Hronec,48.795,19.5824
SK,976 45,Osrblie,48.7561,19.5247
SK,976 46,Valaská,48.8076,19.571
SK,976 52,Medveďovo,48.7472,19.6513
SK,976 52,Čierny Balog,48.7472,19.6513
SK,976 53,Sihla,48.6572,19.6466
SK,976 53,Lom nad Rimavicou,48.6415,19.6495
SK,976 53,Biele Vody,48.8137,19.7379
SK,976 53,Drábsko,48.6493,19.6554
SK,976 53,Vrchslatina,48.6427,19.6457
SK,976 56,Pohronská Polhora,48.7572,19.7932
SK,976 57,Michalová,48.7679,19.7809
SK,976 63,Predajná,48.8169,19.4609
SK,976 64,Braväcovo,48.8391,19.7448
SK,976 64,Bacúch,48.8591,19.8058
SK,976 64,Beňuš,48.8288,19.7616
SK,976 66,Polomka,48.8523,19.8525
SK,976 67,Závadka nad Hronom,48.8505,19.9115
SK,976 68,Heľpa,48.861,19.9692
SK,976 69,Vaľkovňa,48.8346,20.0684
SK,976 69,Pohorelá,48.8618,20.0162
SK,976 71,Šumiac,48.8401,20.1297
SK,976 73,Telgárt,48.8516,20.1885
SK,976 75,Jasenie,48.8388,19.4597
SK,976 81,Horná Lehota,48.8333,19.55
SK,976 97,Nemecká,48.8125,19.4148
SK,976 97,Ráztoka,48.8203,19.4014
SK,976 98,Podbrezová,48.8093,19.526
SK,976 98,Dolná Lehota,48.8335,19.5052
SK,977 01,Jarabá,48.8892,19.689
SK,977 01,Bystrá,48.85,19.6
SK,977 03,Brezno,48.8043,19.6363
SK,962 02,Vígľaš,48.5632,19.3029
SK,962 04,Kriváň,48.5282,19.4483
SK,962 04,Korytárky,48.5508,19.4551
SK,962 05,Detvianska Huta,48.5695,19.5916
SK,962 05,Hriňová,48.5779,19.5257
SK,962 05,Krivec I,48.5737,19.5587
SK,962 05,Krivec II,48.5737,19.5587
SK,962 12,Stožok,48.5292,19.358
SK,962 12,Dúbravy,48.5868,19.3687
SK,962 12,Detva,48.5608,19.4195
SK,962 12,Detva-sídlisko,48.5589,19.3821
SK,962 25,Vígľašská Huta-Kalinka,48.4898,19.2726
SK,962 25,Stará Huta,48.4749,19.3485
SK,962 25,Slatinské Lazy,48.499,19.3084
SK,962 25,Klokoč,48.5021,19.339
SK,962 75,Horný Tisovník,48.4089,19.3659
SK,985 45,Látky,48.5797,19.6356
SK,985 51,Podkriváň,48.5106,19.459
SK,962 41,Uňatín,48.2962,19.065
SK,962 41,Kozí Vrbovok,48.3013,19.1191
SK,962 41,Jalšovík,48.314,19.1035
SK,962 41,Zemiansky Vrbovok,48.3346,19.1461
SK,962 41,Bzovík,48.3215,19.0918
SK,962 41,Dolné Mladonice,48.339,19.1275
SK,962 41,Čekovce,48.3528,19.1239
SK,962 43,Senohrad,48.3578,19.1982
SK,962 43,Horné Mladonice,48.3448,19.1512
SK,962 44,Trpín,48.2967,19.1403
SK,962 44,Litava,48.2988,19.1794
SK,962 44,Lackov,48.3214,19.1869
SK,962 51,Horný Badín,48.2789,19.0754
SK,962 51,Čabradský Vrbovok,48.2576,19.0785
SK,962 51,Dolný Badín,48.2699,19.0673
SK,962 51,Drienovo,48.2303,19.0626
SK,962 51,Selce,48.2559,19.0429
SK,962 52,Cerovo,48.2547,19.1567
SK,962 55,Rykynčice,48.2024,18.9707
SK,962 65,Medovarce,48.2347,19.0025
SK,962 65,Domaníky,48.2627,18.9877
SK,962 65,Ladzany,48.2676,18.9049
SK,962 65,Hontianske Nemce,48.2863,18.9895
SK,962 65,Devičie,48.3084,19.0265
SK,962 65,Kráľovce-Krnišov,48.3567,18.9695
SK,962 66,Sebechleby,48.2754,18.9524
SK,962 68,Terany,48.1797,18.8931
SK,962 68,Drážovce,48.2532,18.9072
SK,962 68,Hontianske Tesáre,48.2041,18.9203
SK,962 71,Dudince,48.1713,18.8878
SK,962 71,Sudince,48.2134,18.8726
SK,962 71,Hontianske Moravce,48.1856,18.8491
SK,962 71,Lišov,48.2269,18.8663
SK,962 71,Súdovce,48.2106,18.8348
SK,963 01,Žibritov,48.3905,18.9839
SK,963 01,Krupina,48.3554,19.0647
SK,980 33,Šurice,48.2336,19.914
SK,984 01,Boľkovce,48.3372,19.77
SK,984 01,Pinciná,48.3595,19.7628
SK,984 01,Mikušovce,48.302,19.6846
SK,984 01,Lučenec,48.3325,19.6671
SK,984 03,Lučenec,48.3325,19.6671
SK,985 11,Ľuboreč,48.3112,19.5187
SK,985 11,Stará Halič,48.3669,19.5717
SK,985 11,Praha,48.3625,19.5088
SK,985 11,Halič,48.3539,19.5763
SK,985 11,Mašková,48.3334,19.5642
SK,985 11,Lehôtka,48.3398,19.5445
SK,985 11,Lupoč,48.3603,19.5408
SK,985 12,Budiná,48.4567,19.4785
SK,985 12,Tuhár,48.4293,19.5054
SK,985 13,Ábelová,48.4116,19.4328
SK,985 13,Lentvora,48.3713,19.4523
SK,985 13,Polichno,48.4048,19.4965
SK,985 22,Točnica,48.4133,19.6423
SK,985 31,Rapovce,48.2739,19.6815
SK,985 31,Pleš,48.2315,19.7494
SK,985 31,Kalonda,48.2596,19.6562
SK,985 31,Trebeľovce,48.2836,19.7143
SK,985 31,Lipovany,48.2167,19.7167
SK,985 31,Mučín,48.2442,19.7025
SK,985 32,Trenč,48.2238,19.5794
SK,985 32,Veľká nad Ipľom,48.2649,19.6189
SK,985 32,Panické Dravce,48.2847,19.6531
SK,985 32,Jelšovec,48.2816,19.6006
SK,985 41,Šávoľ,48.3046,19.8266
SK,985 41,Buzitka,48.3172,19.8039
SK,985 41,Prša,48.3009,19.7913
SK,985 42,Veľké Dravce,48.3464,19.8393
SK,985 42,Nové Hony,48.3667,19.8333
SK,985 52,Divín,48.4499,19.5353
SK,985 52,Ružiná,48.4301,19.5519
SK,985 53,Mýtna,48.4677,19.5525
SK,985 53,Píla,48.4835,19.5036
SK,985 53,Kotmanová,48.4849,19.5804
SK,985 53,Dobroč,48.4748,19.5657
SK,985 54,Lovinobaňa,48.4374,19.5908
SK,985 54,Podrečany,48.4042,19.5986
SK,985 56,Tomášovce,48.3706,19.6214
SK,985 56,Gregorova Vieska,48.385,19.5791
SK,985 57,Holiša,48.3081,19.7517
SK,985 57,Nitra nad Ipľom,48.3182,19.7737
SK,985 58,Radzovce,48.2211,19.8289
SK,985 58,Čakanovce,48.2132,19.8146
SK,985 58,Šiatorská Bukovinka,48.1853,19.8242
SK,985 59,Vidiná,48.3591,19.6543
SK,986 01,Fiľakovo,48.2676,19.8247
SK,986 01,Ratka,48.2473,19.7808
SK,986 01,Fiľakovské Kováče,48.2921,19.7762
SK,986 01,Biskupice,48.2517,19.8333
SK,986 01,Šíd,48.2753,19.8794
SK,986 01,Belina,48.2425,19.8513
SK,986 01,Bulhary,48.2935,19.8481
SK,986 01,Čamovce,48.2504,19.8831
SK,980 12,Hrnčiarske Zalužany,48.4064,19.8715
SK,980 12,Sušany,48.4129,19.8906
SK,980 13,Selce,48.4575,19.8759
SK,980 13,Hrnčiarska Ves,48.4307,19.8565
SK,985 01,Kalinovo,48.3924,19.707
SK,985 01,Veľká Ves,48.3819,19.6751
SK,985 02,Mládzovo,48.4382,19.704
SK,985 02,Breznička,48.4223,19.7358
SK,985 03,Zlatno,48.5185,19.8191
SK,985 03,České Brezovo,48.482,19.8045
SK,985 05,Kokava nad Rimavicou,48.5689,19.8435
SK,985 06,Utekáč,48.605,19.8041
SK,985 07,Ďubákovo,48.5623,19.7355
SK,985 07,Šoltýska,48.5813,19.747
SK,985 22,Cinobaňa,48.4474,19.6527
SK,985 24,Rovňany,48.4492,19.7403
SK,985 24,Uhorské,48.4718,19.749
SK,985 24,Ozdín,48.47,19.6843
SK,985 25,Krná,48.5102,19.7399
SK,985 25,Uhorské,48.4718,19.749
SK,985 26,Málinec,48.498,19.6818
SK,985 42,Ružová Osada,48.3516,19.8647
SK,985 45,Cinobaňa - Žihľava,48.5797,19.6356
SK,987 01,Hájiky - Maky,48.4309,19.7941
SK,987 01,Poltár,48.4309,19.7941
SK,049 01,Muránska Lehota,48.7277,20.0482
SK,049 01,Muráň,48.741,20.0496
SK,049 01,Muránska Huta,48.7779,20.1127
SK,049 01,Predná Hora,48.7488,20.0702
SK,049 13,Hucín,48.5642,20.2967
SK,049 13,Gemerský Sad,48.5829,20.3193
SK,049 14,Šivetice,48.5803,20.2756
SK,049 14,Licince,48.5394,20.2981
SK,049 14,Prihradzany,48.5835,20.2401
SK,049 16,Gemerské Teplice,48.5982,20.2791
SK,049 16,Jelšava,48.6291,20.2414
SK,049 16,Magnezitovce,48.671,20.2311
SK,049 18,Chyžné,48.6629,20.201
SK,049 18,Revúcka Lehota,48.6712,20.181
SK,049 18,Lubeník,48.6549,20.1961
SK,049 18,Turčok,48.6404,20.1479
SK,049 61,Nandraž,48.6077,20.1869
SK,049 61,Rákoš,48.5999,20.1478
SK,049 62,Kameňany,48.5774,20.1916
SK,049 64,Sirk,48.6188,20.0991
SK,050 01,Mokrá Lúka,48.6734,20.1493
SK,050 01,Muránska Zdychava,48.7376,20.1425
SK,050 01,Revúca,48.6835,20.1173
SK,050 01,Muránska Dlhá Lúka,48.7159,20.0802
SK,982 01,Tornaľa,48.4192,20.3257
SK,982 01,Gemer,48.4496,20.3158
SK,982 01,Žiar,48.4385,20.273
SK,982 52,Gregorovce,48.6179,20.1774
SK,982 62,Polina,48.4936,20.2126
SK,982 62,Rašice,48.4714,20.2391
SK,982 62,Otročok,48.45,20.277
SK,982 62,Gemerská Ves,48.4809,20.2752
SK,982 62,Levkuška,48.4576,20.2651
SK,982 62,Višňové,48.5158,20.1879
SK,982 62,Držkovce,48.5419,20.2362
SK,982 62,Chvalová,48.5129,20.177
SK,982 62,Skerešovo,48.5041,20.2017
SK,982 62,Leváre,48.5134,20.2552
SK,982 65,Sása,48.5638,20.1089
SK,982 65,Ratková,48.5914,20.0957
SK,982 65,Rybník,48.5487,20.1245
SK,982 65,Ploské,48.6039,20.0861
SK,982 66,Ratkovské Bystré,48.6462,20.058
SK,982 66,Hrlica,48.6282,20.051
SK,979 01,Rimavská Sobota,48.3828,20.0224
SK,979 01,Kružno,48.4131,19.9315
SK,979 01,Zacharovce,48.405,20.0545
SK,979 01,Rimavská Sobota 1,48.3981,20.0218
SK,979 01,Čerenčany,48.4066,19.9886
SK,980 01,Rimavské Janovce,48.3417,20.0628
SK,980 01,Sútor,48.3528,20.1219
SK,980 01,Pavlovce,48.3262,20.0823
SK,980 01,Belín,48.3416,20.1085
SK,980 02,Gortva,48.2945,20.025
SK,980 02,Širkovce,48.29,20.0864
SK,980 02,Jesenské,48.3064,20.0708
SK,980 02,Hodejovec,48.282,20.0159
SK,980 03,Šimonovce,48.2737,20.1125
SK,980 03,Drňa,48.2627,20.1159
SK,980 04,Hostice,48.2344,20.0662
SK,980 04,Gemerské Dechtáre,48.2477,20.0369
SK,980 04,Jestice,48.219,20.0536
SK,980 11,Ožďany,48.3782,19.8916
SK,980 21,Tomášovce,48.393,20.153
SK,980 21,Vieska nad Blhom,48.3511,20.1988
SK,980 21,Bátka,48.3788,20.17
SK,980 21,Žíp,48.3642,20.2033
SK,980 21,Dulovo,48.3741,20.1914
SK,980 21,Rakytník,48.3916,20.1749
SK,980 22,Veľký Blh,48.4453,20.1165
SK,980 22,Uzovská Panica,48.417,20.1439
SK,980 23,Padarovce,48.4572,20.0701
SK,980 23,Slizké,48.5173,20.0881
SK,980 23,Dražice,48.4372,20.0656
SK,980 23,Španie Pole,48.5202,20.1273
SK,980 23,Lipovec,48.5495,20.0658
SK,980 23,Teplý Vrch,48.4699,20.0999
SK,980 23,Drienčany,48.4813,20.0718
SK,980 23,Hostišovce,48.4976,20.1164
SK,980 23,Budikovany,48.4884,20.0882
SK,980 25,Hrušovo,48.5128,20.0491
SK,980 26,Lukovištia,48.4918,20.0263
SK,980 26,Horné Zahorany,48.4615,20.0085
SK,980 26,Babinec,48.5122,20.0049
SK,980 26,Kraskovo,48.5012,19.99
SK,980 31,Čierny Potok,48.6167,19.85
SK,980 31,Hodejov,48.3012,19.9898
SK,980 31,Gemerček,48.3179,19.9914
SK,980 32,Konrádovce,48.2998,19.9038
SK,980 32,Blhovce,48.2751,19.9538
SK,980 33,Hajnáčka,48.2184,19.9578
SK,980 34,Nová Bašta,48.1709,19.9443
SK,980 34,Večelkov,48.163,19.9346
SK,980 34,Tachty,48.1549,19.9408
SK,980 34,Studená,48.1598,19.9596
SK,980 34,Stará Bašta,48.181,19.9446
SK,980 35,Gemerský Jablonec,48.1945,19.9761
SK,980 35,Petrovce,48.1854,20.0205
SK,980 35,Dubno,48.192,20.0017
SK,980 41,Bottovo,48.3127,20.1501
SK,980 41,Martinová,48.298,20.1729
SK,980 41,Dubovec,48.293,20.1541
SK,980 42,Janice,48.2802,20.2144
SK,980 42,Rimavská Seč,48.3051,20.2349
SK,980 42,Orávka,48.3038,20.1954
SK,980 42,Cakov,48.339,20.2248
SK,980 42,Ivanice,48.3292,20.2366
SK,980 42,Radnovce,48.3423,20.2056
SK,980 42,Zádor,48.3212,20.2421
SK,980 42,Chrámec,48.2788,20.1854
SK,980 43,Číž,48.3137,20.2804
SK,980 44,Chanava,48.3361,20.2993
SK,980 44,Vlkyňa,48.2821,20.301
SK,980 44,Abovce,48.3187,20.3365
SK,980 44,Lenartovce,48.2979,20.3101
SK,980 45,Štrkovec,48.3583,20.3249
SK,980 45,Riečka,48.3398,20.3306
SK,980 45,Kesovce,48.3752,20.3529
SK,980 45,Neporadza,48.3622,20.3914
SK,980 45,Kráľ,48.3284,20.3431
SK,980 50,Včelince,48.3862,20.3062
SK,980 50,Rumince,48.3683,20.2871
SK,980 50,Hubovo,48.3998,20.3688
SK,980 50,Lenka,48.3871,20.3484
SK,980 51,Veľké Teriakovce,48.4332,19.9663
SK,980 51,Hrachovo,48.4654,19.9513
SK,980 52,Hrachovo,48.4654,19.9513
SK,980 52,Kociha,48.4795,19.9465
SK,980 52,Vyšný Skálnik,48.4642,19.9642
SK,980 52,Nižný Skálnik,48.4537,19.9707
SK,980 53,Rimavská Baňa,48.5121,19.9413
SK,980 53,Rimavské Zalužany,48.501,19.9353
SK,980 53,Lehota nad Rimavicou,48.5169,19.8989
SK,980 54,Kyjatice,48.5299,20.0125
SK,980 54,Rimavské Brezovo,48.5381,19.9573
SK,980 55,Klenovec,48.5956,19.8907
SK,980 61,Tisovec,48.6774,19.9436
SK,981 01,Hnúšťa,48.5726,19.954
SK,981 01,Hnúšťa 1,48.5726,19.954
SK,982 51,Figa,48.3991,20.253
SK,982 51,Barca,48.3745,20.2303
SK,982 51,Stránska,48.4031,20.2796
SK,982 52,Vyšné Valice,48.4577,20.1882
SK,982 52,Kaloša,48.4326,20.2247
SK,982 52,Valice,48.4577,20.1882
SK,982 52,Gemerské Michalovce,48.4377,20.2119
SK,982 52,Nižné Valice,48.45,20.2
SK,982 62,Hrkáč,48.4309,20.0426
SK,982 62,Strelnice,48.4309,20.0426
SK,982 65,Ratkovská Lehota,48.5624,20.0999
SK,982 67,Poproč,48.5834,20.0336
SK,982 67,Potok,48.5608,20.0502
SK,982 67,Ratkovská Suchá,48.5795,20.0693
SK,982 67,Rovné,48.5813,20.0522
SK,982 67,Krokava,48.6298,20.0265
SK,985 42,Husiná,48.3425,19.882
SK,985 42,Dolné Zahorany,48.3506,19.904
SK,990 01,Malý Krtíš,48.19,19.3505
SK,990 01,Malé Straciny,48.2098,19.4151
SK,990 01,Veľké Straciny,48.1969,19.3978
SK,990 01,Veľký Krtíš,48.2106,19.3504
SK,991 01,Senné,48.3098,19.3965
SK,991 01,Brusník,48.2993,19.4016
SK,991 01,Šuľa,48.359,19.4104
SK,991 01,Červeňany,48.3812,19.3884
SK,991 02,Horná Strehová,48.2797,19.4297
SK,991 02,Vieska,48.2613,19.4666
SK,991 02,Slovenské Kľačany,48.2643,19.4492
SK,991 02,Ľuboriečka,48.2622,19.5267
SK,991 02,Dolná Strehová,48.2508,19.4888
SK,991 03,Dolné Strháre,48.2485,19.3937
SK,991 03,Horné Strháre,48.2702,19.3628
SK,991 03,Suché Brezovo,48.3088,19.3583
SK,991 03,Veľký Lom,48.3381,19.3716
SK,991 03,Pôtor,48.2342,19.4213
SK,991 05,Sklabiná,48.1584,19.358
SK,991 05,Obeckov,48.1699,19.3322
SK,991 05,Nová Ves,48.1694,19.3662
SK,991 06,Kiarov,48.1101,19.4072
SK,991 06,Vrbovka,48.0905,19.4087
SK,991 06,Záhorce,48.1116,19.3401
SK,991 06,Želovce,48.1236,19.3559
SK,991 06,Kováčovce,48.094,19.4579
SK,991 07,Slovenské Ďarmoty,48.0922,19.2896
SK,991 07,Opatovská Nová Ves,48.1135,19.2782
SK,991 08,Lesenice,48.1065,19.247
SK,991 08,Malá Čalomija,48.0845,19.2322
SK,991 08,Chrastince,48.0903,19.2503
SK,991 09,Koláre,48.0689,19.245
SK,991 09,Veľká Čalomija,48.0692,19.2006
SK,991 10,Veľká Ves nad Ipľom,48.0792,19.0877
SK,991 10,Ipeľské Predmostie,48.0625,19.0559
SK,991 10,Sečianky,48.0951,19.0796
SK,991 10,Kleňany,48.1174,19.0739
SK,991 11,Kosihy nad Ipľom,48.0769,19.1744
SK,991 11,Balog nad Ipľom,48.0778,19.1309
SK,991 21,Pravica,48.317,19.4577
SK,991 21,Chrťany,48.2917,19.4605
SK,991 21,Závada,48.2912,19.4879
SK,991 22,Zombor,48.1366,19.4469
SK,991 22,Bušince,48.1746,19.5012
SK,991 22,Muľa,48.1922,19.5256
SK,991 22,Potočok,48.1621,19.4683
SK,991 22,Malé Zlievce,48.18,19.446
SK,991 22,Čeláre,48.1431,19.4903
SK,991 22,Olováry,48.1529,19.41
SK,991 22,Glabušovce,48.1554,19.4583
SK,991 23,Veľké Zlievce,48.1997,19.4558
SK,991 24,Stredné Plachtince,48.2263,19.2919
SK,991 24,Dolné Plachtince,48.2,19.31
SK,991 24,Horné Plachtince,48.2372,19.283
SK,991 25,Čebovce,48.1803,19.2293
SK,991 25,Opava,48.1959,19.1772
SK,991 25,Príbelce,48.1956,19.253
SK,991 25,Kosihovce,48.1817,19.2011
SK,991 26,Nenince,48.1464,19.2596
SK,991 26,Bátorová,48.1344,19.2714
SK,991 27,Seľany,48.1567,19.1897
SK,991 27,Širákov,48.1488,19.1856
SK,991 27,Kamenné Kosihy,48.1422,19.1935
SK,991 27,Trebušovce,48.1176,19.1954
SK,991 27,Ďurkovce,48.1384,19.1779
SK,991 28,Vinica,48.1173,19.1186
SK,991 28,Dolinka,48.0891,19.1532
SK,991 35,Sucháň,48.3139,19.2222
SK,991 35,Dačov Lom,48.3225,19.2499
SK,991 41,Čelovce,48.1832,19.1433
SK,991 42,Hrušov,48.1539,19.091
SK,992 01,Modrý Kameň,48.2413,19.3349
SK,992 01,Kamenný Vrch,48.2413,19.3349
SK,960 01,Zvolen,48.5744,19.1532
SK,962 01,Zvolenská Slatina,48.5635,19.2599
SK,962 21,Lieskovec,48.5729,19.1925
SK,962 23,Očová,48.6004,19.2884
SK,962 31,Lukavica,48.6421,19.2091
SK,962 31,Veľká Lúka,48.6299,19.1698
SK,962 31,Sliač,48.6167,19.1372
SK,962 31,Sielnica,48.633,19.1119
SK,962 33,Budča,48.5738,19.0694
SK,962 34,Železná Breznica,48.6163,19.013
SK,962 34,Tŕnie,48.6054,19.0346
SK,962 34,Turová,48.5985,19.0539
SK,962 37,Kováčová,48.6015,19.1025
SK,962 61,Babiná,48.4352,19.0911
SK,962 61,Dobrá Niva,48.4708,19.1056
SK,962 61,Bacúrov,48.5196,19.0598
SK,962 61,Podzámčok,48.5026,19.1129
SK,962 61,Breziny,48.5156,19.1027
SK,962 61,Dubové,48.5044,19.0461
SK,962 61,Ostrá Lúka,48.5454,19.0523
SK,962 61,Michalková,48.5092,19.1545
SK,962 62,Bzovská Lehôtka,48.4141,19.1328
SK,962 62,Sása,48.4355,19.1343
SK,962 63,Pliešovce 1,48.4263,19.1556
SK,962 63,Pliešovce,48.4263,19.1556
SK,966 11,Hronská Breznica,48.5678,18.997
SK,966 41,Veľká Lehota,48.4608,18.5607
SK,966 42,Malá Lehota,48.4964,18.5673
SK,966 51,Rudno nad Hronom,48.4269,18.6857
SK,966 52,Tekovská Breznica,48.3865,18.6187
SK,966 52,Orovnica,48.3882,18.5945
SK,966 53,Hronský Beňadik,48.3422,18.5559
SK,966 61,Hodruša - Hámre 1,48.5326,18.7537
SK,966 61,Hodruša-Hámre,48.4513,18.77
SK,966 71,Horné Hámre,48.498,18.6666
SK,966 71,Župkov,48.5254,18.6297
SK,966 74,Veľké Pole,48.5407,18.5652
SK,966 77,Kľak,48.583,18.6434
SK,966 77,Ostrý Grúň,48.569,18.664
SK,966 78,Hrabičov,48.534,18.6661
SK,966 81,Voznica,48.4605,18.6992
SK,966 81,Píla,48.522,18.5918
SK,966 81,Žarnovica,48.4812,18.7156
SK,966 81,Záhorčie,48.4762,18.6486
SK,968 01,Brehy,48.407,18.6516
SK,968 01,Nová Baňa,48.423,18.6404
SK,965 01,Stará Kremnička,48.6053,18.8894
SK,965 01,Ladomerská Vieska,48.5752,18.8745
SK,965 01,Žiar nad Hronom,48.5918,18.8496
SK,966 01,Dolná Ždaňa,48.5465,18.762
SK,966 01,Lehôtka pod Brehmi,48.5431,18.8079
SK,966 01,Prestavlky,48.5871,18.7578
SK,966 01,Bzenica,48.5295,18.7416
SK,966 01,Hliník nad Hronom,48.5354,18.7873
SK,966 02,Vyhne,48.5057,18.8014
SK,966 02,Bzenica,48.5295,18.7416
SK,966 03,Repište,48.5156,18.8465
SK,966 03,Sklené Teplice,48.5285,18.8622
SK,966 04,Horná Ždaňa,48.5689,18.7501
SK,966 04,Prochot,48.6093,18.7078
SK,966 11,Trnavá Hora,48.5898,18.9543
SK,966 11,Hronská Dúbrava,48.5902,19.0019
SK,966 11,Pitelová,48.603,18.9255
SK,966 21,Lovča,48.5717,18.8158
SK,966 21,Dolná Trnávka,48.5604,18.7883
SK,966 22,Slaská,48.6585,18.8371
SK,966 22,Lutila,48.6138,18.8449
SK,966 23,Lovčica-Trubín,48.6174,18.7881
SK,966 24,Kosorín,48.6516,18.8094
SK,966 24,Janova Lehota,48.655,18.7837
SK,967 01,Lúčky,48.7002,18.8934
SK,967 01,Bartošova Lehôtka,48.653,18.9179
SK,967 01,Dolná Ves,48.6647,18.9129
SK,967 01,Jastrabá,48.6316,18.9363
SK,967 01,Kopernica,48.6826,18.8726
SK,967 01,Krahule,48.7261,18.9406
SK,967 01,Kremnica,48.7052,18.9183
SK,967 01,Kremnické Bane,48.7363,18.9068
SK,967 01,Nevoľné,48.6708,18.9439
SK,967 01,Ihráč,48.6546,18.9528
SK,967 01,Kunešov,48.7318,18.8694
SK,967 01,Horná Ves,48.6767,18.9101
SK,049 02,Muráň 1,48.7488,20.0702
SK,050 62,Revúca 1,48.7026,20.1224
SK,050 80,Revúca 1,48.7026,20.1224
SK,960 02,Zvolen 2,48.5744,19.1532
SK,960 03,Zvolen 3,48.5744,19.1532
SK,960 06,Zvolen 6,48.5744,19.1532
SK,960 07,Zvolen 7,48.5744,19.1532
SK,960 08,Zvolen 1,48.5744,19.1532
SK,960 09,Zvolen 1,48.5744,19.1532
SK,960 12,Zvolen 1,48.5744,19.1532
SK,960 13,Zvolen 1,48.5744,19.1532
SK,960 19,Zvolen 1,48.5744,19.1532
SK,960 23,Zvolen 1,48.5744,19.1532
SK,960 24,Zvolen 1,48.5744,19.1532
SK,960 25,Zvolen 1,48.5744,19.1532
SK,960 26,Zvolen 1,48.5744,19.1532
SK,960 32,Zvolen 1,48.5744,19.1532
SK,960 36,Zvolen 1,48.5744,19.1532
SK,960 42,Zvolen 1,48.5744,19.1532
SK,960 44,Zvolen 1,48.5744,19.1532
SK,960 47,Zvolen 1,48.5744,19.1532
SK,960 53,Zvolen 1,48.5744,19.1532
SK,960 55,Zvolen 1,48.5744,19.1532
SK,960 61,Zvolen 1,48.5744,19.1532
SK,960 62,Zvolen 1,48.5744,19.1532
SK,960 64,Zvolen 1,48.5744,19.1532
SK,960 65,Zvolen 1,48.5744,19.1532
SK,960 66,Zvolen 1,48.5744,19.1532
SK,960 68,Zvolen 1,48.5744,19.1532
SK,960 69,Zvolen 1,48.5744,19.1532
SK,960 77,Zvolen 1,48.5744,19.1532
SK,960 78,Zvolen 1,48.5744,19.1532
SK,960 81,Zvolen 1,48.5744,19.1532
SK,960 82,Zvolen 1,48.5744,19.1532
SK,960 83,Zvolen 1,48.5744,19.1532
SK,960 86,Zvolen 1,48.5744,19.1532
SK,960 89,Zvolen 1,48.5744,19.1532
SK,960 93,Zvolen 1,48.5744,19.1532
SK,960 95,Zvolen 1,48.5744,19.1532
SK,960 98,Zvolen 1,48.5744,19.1532
SK,960 99,Zvolen 1,48.5744,19.1532
SK,961 02,Zvolen 1,48.4698,18.9699
SK,961 03,Zvolen 1,48.4698,18.9699
SK,961 07,Zvolen 1,48.4698,18.9699
SK,961 08,Zvolen 1,48.4698,18.9699
SK,961 09,Zvolen 1,48.4698,18.9699
SK,961 15,Zvolen 1,48.4698,18.9699
SK,961 16,Zvolen 1,48.4698,18.9699
SK,961 17,Zvolen 1,48.4698,18.9699
SK,961 20,Zvolen 1,48.4698,18.9699
SK,961 21,Zvolen 1,48.4698,18.9699
SK,961 33,Zvolen 1,48.4698,18.9699
SK,961 40,Zvolen 1,48.4698,18.9699
SK,961 50,Zvolen 1,48.4698,18.9699
SK,962 11,Detva 1,48.5589,19.3821
SK,962 24,Dúbravy,48.5868,19.3687
SK,962 70,Hontianske Moravce,48.1856,18.8491
SK,963 11,Krupina,48.3554,19.0647
SK,963 16,Krupina,48.3554,19.0647
SK,963 21,Krupina,48.3554,19.0647
SK,963 46,Krupina,48.3554,19.0647
SK,963 80,Krupina,48.3554,19.0647
SK,963 88,Krupina,48.3554,19.0647
SK,965 19,Žiar nad Hronom 1,48.5986,18.8695
SK,965 35,Žiar nad Hronom 1,48.5986,18.8695
SK,965 37,Žiar nad Hronom 1,48.5986,18.8695
SK,965 54,Žiar nad Hronom 1,48.5986,18.8695
SK,965 63,Žiar nad Hronom 1,48.5986,18.8695
SK,968 14,Nová Baňa,48.423,18.6404
SK,969 24,Banská Štiavnica 1,48.4252,18.8872
SK,969 50,Banská Štiavnica 1,48.4252,18.8872
SK,969 55,Banská Štiavnica 1,48.4252,18.8872
SK,969 58,Banská Štiavnica 1,48.4252,18.8872
SK,974 06,Banská Bystrica 6,48.7288,19.1589
SK,974 08,Banská Bystrica 8,48.7288,19.1589
SK,974 23,Banská Bystrica 1,48.7296,19.1585
SK,974 33,Banská Bystrica 1,48.7296,19.1585
SK,974 64,Banská Bystrica 1,48.7296,19.1585
SK,974 72,Banská Bystrica 1,48.7296,19.1585
SK,974 73,Banská Bystrica 1,48.7296,19.1585
SK,974 84,Banská Bystrica 1,48.7296,19.1585
SK,974 86,Banská Bystrica 1,48.7296,19.1585
SK,974 89,Banská Bystrica 1,48.7296,19.1585
SK,974 96,Banská Bystrica 1,48.7296,19.1585
SK,974 98,Banská Bystrica 1,48.7296,19.1585
SK,974 99,Banská Bystrica 1,48.7296,19.1585
SK,975 20,Banská Bystrica 1,48.7634,19.0991
SK,975 25,Banská Bystrica 1,48.7634,19.0991
SK,975 26,Banská Bystrica 1,48.7634,19.0991
SK,975 28,Banská Bystrica 1,48.7634,19.0991
SK,975 58,Banská Bystrica 1,48.7634,19.0991
SK,975 62,Banská Bystrica 1,48.7634,19.0991
SK,975 63,Banská Bystrica 1,48.7634,19.0991
SK,975 65,Banská Bystrica 1,48.7634,19.0991
SK,975 66,Banská Bystrica 1,48.7634,19.0991
SK,975 68,Banská Bystrica 1,48.7634,19.0991
SK,975 75,Banská Bystrica 1,48.7634,19.0991
SK,975 77,Banská Bystrica 1,48.7634,19.0991
SK,975 88,Banská Bystrica 1,48.7634,19.0991
SK,975 89,Banská Bystrica 1,48.7634,19.0991
SK,975 90,Banská Bystrica 1,48.7634,19.0991
SK,975 99,Banská Bystrica 1,48.7634,19.0991
SK,977 09,Brezno 1,48.8478,19.6418
SK,977 11,Brezno 1,48.8478,19.6418
SK,977 15,Brezno 1,48.8478,19.6418
SK,977 23,Brezno 1,48.8478,19.6418
SK,977 38,Brezno 1,48.8478,19.6418
SK,977 42,Brezno 1,48.8478,19.6418
SK,977 43,Brezno 1,48.8478,19.6418
SK,977 49,Brezno 1,48.8478,19.6418
SK,977 65,Brezno 1,48.8478,19.6418
SK,979 03,Rimavská Sobota 3,48.3981,20.0218
SK,979 11,Rimavská Sobota 1,48.3981,20.0218
SK,979 12,Rimavská Sobota 1,48.3981,20.0218
SK,979 13,Rimavská Sobota 1,48.3981,20.0218
SK,979 14,Rimavská Sobota 1,48.3981,20.0218
SK,979 21,Rimavská Sobota 1,48.3981,20.0218
SK,979 27,Rimavská Sobota 1,48.3981,20.0218
SK,979 80,Rimavská Sobota 1,48.3981,20.0218
SK,982 40,Tornaľa,48.4192,20.3257
SK,984 04,Lučenec 4,48.3327,19.7103
SK,984 12,Lučenec 1,48.3327,19.7103
SK,984 14,Lučenec 1,48.3327,19.7103
SK,984 16,Lučenec 1,48.3327,19.7103
SK,984 17,Lučenec 1,48.3327,19.7103
SK,984 21,Lučenec 1,48.3327,19.7103
SK,984 28,Lučenec 1,48.3327,19.7103
SK,984 32,Lučenec 1,48.3327,19.7103
SK,984 33,Lučenec 1,48.3327,19.7103
SK,984 34,Lučenec 1,48.3327,19.7103
SK,984 36,Lučenec 1,48.3327,19.7103
SK,984 37,Lučenec 1,48.3327,19.7103
SK,984 38,Lučenec 1,48.3327,19.7103
SK,984 39,Lučenec 1,48.3327,19.7103
SK,984 42,Lučenec 1,48.3327,19.7103
SK,984 45,Lučenec 1,48.3327,19.7103
SK,984 46,Lučenec 1,48.3327,19.7103
SK,984 53,Lučenec 1,48.3327,19.7103
SK,984 60,Lučenec 1,48.3327,19.7103
SK,984 80,Lučenec 3,48.3327,19.7103
SK,986 11,Fiľakovo,48.2676,19.8247
SK,986 15,Fiľakovo,48.2676,19.8247
SK,987 82,Poltár,48.4309,19.7941
SK,990 11,Veľký Krtíš,48.2106,19.3504
SK,990 12,Veľký Krtíš,48.2106,19.3504
SK,990 13,Veľký Krtíš,48.2106,19.3504
SK,990 14,Veľký Krtíš,48.2106,19.3504
SK,990 16,Veľký Krtíš,48.2106,19.3504
SK,990 80,Veľký Krtíš,48.2106,19.3504
SK,991 31,Vrbovka,48.0905,19.4087
SK,992 10,Modrý Kameň,48.2413,19.3349
SK,992 14,Modrý Kameň,48.2413,19.3349
SK,811 01,Bratislava-Staré Mesto,48.1504,17.09
SK,811 02,Bratislava-Staré Mesto,48.1504,17.09
SK,811 03,Bratislava-Staré Mesto,48.1504,17.09
SK,811 04,Bratislava-Staré Mesto,48.1504,17.09
SK,811 05,Bratislava-Staré Mesto,48.1504,17.09
SK,811 06,Bratislava-Staré Mesto,48.1504,17.09
SK,811 07,Bratislava-Staré Mesto,48.1504,17.09
SK,811 08,Bratislava-Staré Mesto,48.1504,17.09
SK,811 09,Bratislava-Staré Mesto,48.1504,17.09
SK,821 01,Bratislava-Ružinov,48.1555,17.1564
SK,821 02,Bratislava-Ružinov,48.1612,17.162
SK,821 03,Bratislava-Ružinov,48.1559,17.1655
SK,821 04,Bratislava-Ružinov,48.1715,17.1678
SK,821 05,Bratislava-Ružinov,48.146,17.1708
SK,821 06,Bratislava-Podunajské Biskupice,48.1283,17.2088
SK,821 07,Bratislava-Vrakuňa,48.1383,17.2087
SK,821 07,Bratislava-Podunajské Biskupice,48.1345,17.2088
SK,821 08,Bratislava-Ružinov,48.1533,17.1332
SK,821 09,Bratislava-Ružinov,48.1481,17.1411
SK,830 00,Bratislava,48.2094,17.179
SK,830 05,Bratislava,48.2094,17.179
SK,831 01,Bratislava-Nové Mesto,48.1677,17.1029
SK,831 02,Bratislava-Nové Mesto,48.1739,17.1248
SK,831 03,Bratislava-Nové Mesto,48.1696,17.134
SK,831 04,Bratislava-Nové Mesto,48.1683,17.1434
SK,831 06,Bratislava-Rača,48.2132,17.1504
SK,831 07,Bratislava-Vajnory,48.2056,17.2076
SK,831 51,Bratislava,48.2094,17.179
SK,831 52,Bratislava,48.2094,17.179
SK,831 53,Bratislava,48.2094,17.179
SK,831 54,Bratislava,48.2094,17.179
SK,840 02,Bratislava,48.1791,17.0369
SK,840 08,Bratislava,48.1791,17.0369
SK,841 01,Bratislava-Dúbravka,48.1887,17.0352
SK,841 02,Bratislava-Dúbravka,48.1887,17.0352
SK,841 03,Bratislava-Lamač,48.1905,17.053
SK,841 04,Bratislava-Karlova Ves,48.1534,17.0552
SK,841 05,Bratislava-Karlova Ves,48.1534,17.0552
SK,841 06,Bratislava-Záhorská Bystrica,48.2411,17.0382
SK,841 07,Bratislava-Karlova Ves,48.1534,17.0552
SK,841 07,Bratislava-Devínska Nová Ves,48.2141,16.9777
SK,841 08,Bratislava-Devínska Nová Ves,48.2087,16.9827
SK,841 10,Bratislava-Devín,48.1744,16.9842
SK,850 00,Bratislava,48.0427,17.1722
SK,851 01,Bratislava-Petržalka,48.1238,17.1006
SK,851 02,Bratislava,48.0427,17.1722
SK,851 03,Bratislava,48.0427,17.1722
SK,851 04,Bratislava-Petržalka,48.1225,17.1246
SK,851 05,Bratislava,48.0427,17.1722
SK,851 06,Bratislava,48.0427,17.1722
SK,851 07,Bratislava-Petržalka,48.0939,17.1193
SK,851 10,Bratislava-Jarovce,48.066,17.1153
SK,851 10,Bratislava-Čunovo,48.0305,17.1998
SK,851 10,Bratislava-Rusovce,48.0549,17.1446
SK,900 31,Stupava,48.2747,17.0317
SK,900 32,Borinka,48.2621,17.0858
SK,900 33,Marianka,48.249,17.064
SK,900 51,Zohor,48.3167,16.9833
SK,900 52,Kuchyňa,48.406,17.1573
SK,900 53,Pernek,48.3669,17.1442
SK,900 54,Jablonové,48.3475,17.0995
SK,900 55,Lozorno,48.3336,17.0432
SK,900 61,Gajary,48.4667,16.9333
SK,900 62,Kostolište,48.45,16.9833
SK,900 63,Jakubov,48.4167,16.9333
SK,900 64,Suchohrad,48.4,16.8667
SK,900 65,Záhorská Ves,48.3807,16.8488
SK,900 66,Vysoká pri Morave,48.3294,16.9119
SK,900 67,Láb,48.3667,16.9833
SK,900 68,Plavecký Štvrtok,48.3751,16.9986
SK,901 01,Záhorie,48.436,17.0219
SK,901 01,Malacky,48.436,17.0219
SK,906 35,Plavecký Mikuláš,48.5089,17.3047
SK,906 36,Plavecké Podhradie,48.486,17.2573
SK,906 37,Sološnica,48.4652,17.2307
SK,906 38,Rohožník,48.4568,17.1676
SK,908 72,Závod,48.5449,17.0303
SK,908 73,Veľké Leváre,48.504,17.0036
SK,908 74,Malé Leváre,48.5,16.9833
SK,908 75,Studienka,48.5265,17.1373
SK,900 01,Modra,48.334,17.3071
SK,900 21,Svätý Jur,48.2522,17.2154
SK,900 23,Viničné,48.2719,17.3023
SK,900 26,Slovenský Grob,48.2576,17.2743
SK,900 81,Šenkvice,48.2982,17.3496
SK,900 84,Báhoň,48.3094,17.4452
SK,900 85,Vištuk,48.3334,17.3994
SK,900 86,Štefanová,48.3843,17.3972
SK,900 86,Budmerice,48.3576,17.4071
SK,900 86,Jablonec,48.332,17.4479
SK,900 88,Doľany,48.4161,17.3757
SK,900 89,Píla,48.3909,17.3315
SK,900 89,Častá,48.3992,17.3635
SK,900 90,Dubová,48.3668,17.3397
SK,900 91,Limbach,48.2897,17.2234
SK,902 01,Vinosady,48.3114,17.2904
SK,902 01,Pezinok,48.2899,17.2666
SK,902 03,Pezinok,48.2899,17.2666
SK,900 24,Veľký Biel,48.2133,17.3608
SK,900 25,Chorvátsky Grob,48.2279,17.2909
SK,900 27,Bernolákovo,48.2007,17.3019
SK,900 28,Zálesie,48.1661,17.275
SK,900 28,Ivanka pri Dunaji,48.1867,17.2554
SK,900 29,Nová Dedinka,48.1839,17.3554
SK,900 41,Rovinka,48.0978,17.2363
SK,900 42,Miloslavov,48.1059,17.3
SK,900 42,Dunajská Lužná,48.0835,17.2607
SK,900 43,Kalinkovo,48.0598,17.2535
SK,900 43,Hamuliakovo,48.0381,17.2503
SK,900 44,Vlky,48.1583,17.3663
SK,900 44,Tomášov,48.1425,17.3357
SK,900 45,Malinovo,48.1545,17.2968
SK,900 46,Most pri Bratislave,48.142,17.2709
SK,900 50,Hrubá Borša,48.1813,17.4827
SK,900 50,Kráľová pri Senci,48.1973,17.4476
SK,900 82,Blatné,48.2666,17.4192
SK,900 83,Čataj,48.2705,17.4787
SK,900 84,Kaplna,48.2925,17.4575
SK,900 84,Igram,48.2854,17.4623
SK,903 01,Senec,48.2195,17.4004
SK,903 01,Hurbanova Ves,48.1529,17.4414
SK,903 01,Tureň,48.1913,17.3894
SK,903 01,Nový Svet,48.2131,17.4784
SK,903 01,Kostolná pri Dunaji,48.1854,17.4356
SK,903 01,Hrubý Šúr,48.1704,17.4209
SK,925 26,Reca,48.2311,17.454
SK,925 26,Boldog,48.2381,17.4286
SK,810 00,Bratislava 1,48.1504,17.09
SK,810 02,Bratislava 12,48.1504,17.09
SK,810 04,Bratislava 14,48.1504,17.09
SK,810 05,Bratislava 15,48.1504,17.09
SK,810 07,Bratislava 17,48.1504,17.09
SK,810 08,Bratislava 18,48.1504,17.09
SK,812 01,Bratislava 1,48.1504,17.09
SK,812 02,Bratislava 1,48.1504,17.09
SK,812 03,Bratislava 1,48.1504,17.09
SK,812 04,Bratislava 1,48.1504,17.09
SK,812 05,Bratislava 1,48.1504,17.09
SK,812 06,Bratislava 1,48.1504,17.09
SK,812 07,Bratislava 1,48.1504,17.09
SK,812 08,Bratislava 1,48.1504,17.09
SK,812 09,Bratislava 1,48.1504,17.09
SK,812 10,Bratislava 1,48.1504,17.09
SK,812 11,Bratislava 1,48.1504,17.09
SK,812 12,Bratislava 1,48.1504,17.09
SK,812 13,Bratislava 1,48.1504,17.09
SK,812 14,Bratislava 1,48.1504,17.09
SK,812 15,Bratislava 1,48.1504,17.09
SK,812 16,Bratislava 1,48.1504,17.09
SK,812 17,Bratislava 1,48.1504,17.09
SK,812 18,Bratislava 1,48.1504,17.09
SK,812 19,Bratislava 1,48.1504,17.09
SK,812 20,Bratislava 1,48.1504,17.09
SK,812 21,Bratislava 1,48.1504,17.09
SK,812 22,Bratislava 1,48.1504,17.09
SK,812 23,Bratislava 1,48.1504,17.09
SK,812 24,Bratislava 1,48.1504,17.09
SK,812 25,Bratislava 1,48.1504,17.09
SK,812 26,Bratislava 1,48.1504,17.09
SK,812 27,Bratislava 1,48.1504,17.09
SK,812 28,Bratislava 1,48.1504,17.09
SK,812 29,Bratislava 1,48.1504,17.09
SK,812 30,Bratislava 1,48.1504,17.09
SK,812 31,Bratislava 1,48.1504,17.09
SK,812 32,Bratislava 1,48.1504,17.09
SK,812 33,Bratislava 1,48.1504,17.09
SK,812 34,Bratislava 1,48.1504,17.09
SK,812 35,Bratislava 1,48.1504,17.09
SK,812 36,Bratislava 1,48.1504,17.09
SK,812 37,Bratislava 1,48.1504,17.09
SK,812 38,Bratislava 1,48.1504,17.09
SK,812 39,Bratislava 1,48.1504,17.09
SK,812 41,Bratislava 1,48.1504,17.09
SK,812 42,Bratislava 1,48.1504,17.09
SK,812 43,Bratislava 1,48.1504,17.09
SK,812 44,Bratislava 1,48.1504,17.09
SK,812 45,Bratislava 1,48.1504,17.09
SK,812 46,Bratislava 1,48.1504,17.09
SK,812 47,Bratislava 1,48.1504,17.09
SK,812 48,Bratislava 1,48.1504,17.09
SK,812 49,Bratislava 1,48.1504,17.09
SK,812 50,Bratislava 1,48.1504,17.09
SK,812 51,Bratislava 1,48.1504,17.09
SK,812 52,Bratislava 1,48.1504,17.09
SK,812 53,Bratislava 1,48.1504,17.09
SK,812 54,Bratislava 1,48.1504,17.09
SK,812 55,Bratislava 1,48.1504,17.09
SK,812 56,Bratislava 1,48.1504,17.09
SK,812 57,Bratislava 1,48.1504,17.09
SK,812 58,Bratislava 1,48.1504,17.09
SK,812 59,Bratislava 1,48.1504,17.09
SK,812 60,Bratislava 1,48.1504,17.09
SK,812 61,Bratislava 1,48.1504,17.09
SK,812 62,Bratislava 1,48.1504,17.09
SK,812 63,Bratislava 1,48.1504,17.09
SK,812 64,Bratislava 1,48.1504,17.09
SK,812 65,Bratislava 1,48.1504,17.09
SK,812 66,Bratislava 1,48.1504,17.09
SK,812 67,Bratislava 1,48.1504,17.09
SK,812 68,Bratislava 1,48.1504,17.09
SK,812 69,Bratislava 1,48.1504,17.09
SK,812 70,Bratislava 1,48.1504,17.09
SK,812 71,Bratislava 1,48.1504,17.09
SK,812 72,Bratislava 1,48.1504,17.09
SK,812 73,Bratislava 1,48.1504,17.09
SK,812 74,Bratislava 1,48.1504,17.09
SK,812 75,Bratislava 1,48.1504,17.09
SK,812 76,Bratislava 1,48.1504,17.09
SK,812 77,Bratislava 1,48.1504,17.09
SK,812 78,Bratislava 1,48.1504,17.09
SK,812 79,Bratislava 1,48.1504,17.09
SK,812 80,Bratislava 1,48.1504,17.09
SK,812 81,Bratislava 1,48.1504,17.09
SK,812 82,Bratislava 1,48.1504,17.09
SK,812 83,Bratislava 1,48.1504,17.09
SK,812 84,Bratislava 1,48.1504,17.09
SK,812 85,Bratislava 1,48.1504,17.09
SK,812 86,Bratislava 1,48.1504,17.09
SK,812 87,Bratislava 1,48.1504,17.09
SK,812 88,Bratislava 1,48.1504,17.09
SK,812 89,Bratislava 1,48.1504,17.09
SK,812 90,Bratislava 1,48.1504,17.09
SK,812 91,Bratislava 1,48.1504,17.09
SK,812 92,Bratislava 1,48.1504,17.09
SK,812 93,Bratislava 1,48.1504,17.09
SK,812 94,Bratislava 1,48.1504,17.09
SK,812 95,Bratislava 1,48.1504,17.09
SK,812 96,Bratislava 1,48.1504,17.09
SK,813 01,Bratislava 1,48.1504,17.09
SK,813 02,Bratislava 1,48.1504,17.09
SK,813 03,Bratislava 1,48.1504,17.09
SK,813 04,Bratislava 1,48.1504,17.09
SK,813 05,Bratislava 1,48.1504,17.09
SK,813 06,Bratislava 1,48.1504,17.09
SK,813 07,Bratislava 1,48.1504,17.09
SK,813 08,Bratislava 1,48.1504,17.09
SK,813 09,Bratislava 1,48.1504,17.09
SK,813 10,Bratislava 1,48.1504,17.09
SK,813 11,Bratislava 1,48.1504,17.09
SK,813 12,Bratislava 1,48.1504,17.09
SK,813 13,Bratislava 1,48.1504,17.09
SK,813 14,Bratislava 1,48.1504,17.09
SK,813 15,Bratislava 1,48.1504,17.09
SK,813 16,Bratislava 1,48.1504,17.09
SK,813 17,Bratislava 1,48.1504,17.09
SK,813 18,Bratislava 1,48.1504,17.09
SK,813 19,Bratislava 1,48.1504,17.09
SK,813 20,Bratislava 1,48.1504,17.09
SK,813 21,Bratislava 1,48.1504,17.09
SK,813 22,Bratislava 1,48.1504,17.09
SK,813 23,Bratislava 1,48.1504,17.09
SK,813 24,Bratislava 1,48.1504,17.09
SK,813 25,Bratislava 1,48.1504,17.09
SK,813 26,Bratislava 1,48.1504,17.09
SK,813 27,Bratislava 1,48.1504,17.09
SK,813 28,Bratislava 1,48.1504,17.09
SK,813 30,Bratislava 1,48.1504,17.09
SK,813 31,Bratislava 1,48.1504,17.09
SK,813 32,Bratislava 1,48.1504,17.09
SK,813 33,Bratislava 1,48.1504,17.09
SK,813 34,Bratislava 1,48.1504,17.09
SK,813 35,Bratislava 1,48.1504,17.09
SK,813 36,Bratislava 1,48.1504,17.09
SK,813 37,Bratislava 1,48.1504,17.09
SK,813 38,Bratislava 1,48.1504,17.09
SK,813 39,Bratislava 1,48.1504,17.09
SK,813 40,Bratislava 1,48.1504,17.09
SK,813 41,Bratislava 1,48.1504,17.09
SK,813 42,Bratislava 1,48.1504,17.09
SK,813 43,Bratislava 1,48.1504,17.09
SK,813 44,Bratislava 1,48.1504,17.09
SK,813 45,Bratislava 1,48.1504,17.09
SK,813 46,Bratislava 1,48.1504,17.09
SK,813 47,Bratislava 1,48.1504,17.09
SK,813 48,Bratislava 1,48.1504,17.09
SK,813 49,Bratislava 1,48.1504,17.09
SK,813 50,Bratislava 1,48.1504,17.09
SK,813 51,Bratislava 1,48.1504,17.09
SK,813 52,Bratislava 1,48.1504,17.09
SK,813 53,Bratislava 1,48.1504,17.09
SK,813 54,Bratislava 1,48.1504,17.09
SK,813 55,Bratislava 1,48.1504,17.09
SK,813 56,Bratislava 1,48.1504,17.09
SK,813 57,Bratislava 1,48.1504,17.09
SK,813 58,Bratislava 1,48.1504,17.09
SK,813 59,Bratislava 1,48.1504,17.09
SK,813 60,Bratislava 1,48.1504,17.09
SK,813 61,Bratislava 1,48.1504,17.09
SK,813 62,Bratislava 1,48.1504,17.09
SK,813 63,Bratislava 1,48.1504,17.09
SK,813 64,Bratislava 1,48.1504,17.09
SK,813 65,Bratislava 1,48.1504,17.09
SK,813 66,Bratislava 1,48.1504,17.09
SK,813 67,Bratislava 1,48.1504,17.09
SK,813 68,Bratislava 1,48.1504,17.09
SK,813 69,Bratislava 1,48.1504,17.09
SK,813 70,Bratislava 1,48.1504,17.09
SK,813 71,Bratislava 1,48.1504,17.09
SK,813 72,Bratislava 1,48.1504,17.09
SK,813 73,Bratislava 1,48.1504,17.09
SK,813 74,Bratislava 1,48.1504,17.09
SK,813 75,Bratislava 1,48.1504,17.09
SK,813 76,Bratislava 1,48.1504,17.09
SK,813 77,Bratislava 1,48.1504,17.09
SK,813 78,Bratislava 1,48.1504,17.09
SK,813 79,Bratislava 1,48.1504,17.09
SK,813 80,Bratislava 1,48.1504,17.09
SK,813 81,Bratislava 1,48.1504,17.09
SK,813 82,Bratislava 1,48.1504,17.09
SK,813 83,Bratislava 1,48.1504,17.09
SK,813 84,Bratislava 1,48.1504,17.09
SK,813 85,Bratislava 1,48.1504,17.09
SK,813 86,Bratislava 1,48.1504,17.09
SK,813 87,Bratislava 1,48.1504,17.09
SK,813 88,Bratislava 1,48.1504,17.09
SK,813 92,Bratislava 1,48.1504,17.09
SK,813 94,Bratislava 1,48.1504,17.09
SK,813 95,Bratislava 1,48.1504,17.09
SK,813 96,Bratislava 1,48.1504,17.09
SK,814 00,Bratislava 1,48.1504,17.09
SK,814 01,Bratislava 1,48.1504,17.09
SK,814 02,Bratislava 1,48.1504,17.09
SK,814 03,Bratislava 1,48.1504,17.09
SK,814 04,Bratislava 1,48.1504,17.09
SK,814 05,Bratislava 1,48.1504,17.09
SK,814 06,Bratislava 1,48.1504,17.09
SK,814 07,Bratislava 1,48.1504,17.09
SK,814 08,Bratislava 1,48.1504,17.09
SK,814 09,Bratislava 1,48.1504,17.09
SK,814 10,Bratislava 1,48.1504,17.09
SK,814 11,Bratislava 1,48.1504,17.09
SK,814 12,Bratislava 1,48.1504,17.09
SK,814 13,Bratislava 1,48.1504,17.09
SK,814 14,Bratislava 1,48.1504,17.09
SK,814 15,Bratislava 1,48.1504,17.09
SK,814 16,Bratislava 1,48.1504,17.09
SK,814 17,Bratislava 1,48.1504,17.09
SK,814 18,Bratislava 1,48.1504,17.09
SK,814 19,Bratislava 1,48.1504,17.09
SK,814 20,Bratislava 1,48.1504,17.09
SK,814 21,Bratislava 1,48.1504,17.09
SK,814 22,Bratislava 1,48.1504,17.09
SK,814 23,Bratislava 1,48.1504,17.09
SK,814 24,Bratislava 1,48.1504,17.09
SK,814 25,Bratislava 1,48.1504,17.09
SK,814 26,Bratislava 1,48.1504,17.09
SK,814 27,Bratislava 1,48.1504,17.09
SK,814 28,Bratislava 1,48.1504,17.09
SK,814 29,Bratislava 1,48.1504,17.09
SK,814 30,Bratislava 1,48.1504,17.09
SK,814 31,Bratislava 1,48.1504,17.09
SK,814 32,Bratislava 1,48.1504,17.09
SK,814 33,Bratislava 1,48.1504,17.09
SK,814 34,Bratislava 1,48.1504,17.09
SK,814 35,Bratislava 1,48.1504,17.09
SK,814 36,Bratislava 1,48.1504,17.09
SK,814 37,Bratislava 1,48.1504,17.09
SK,814 38,Bratislava 1,48.1504,17.09
SK,814 39,Bratislava 1,48.1504,17.09
SK,814 40,Bratislava 1,48.1504,17.09
SK,814 41,Bratislava 1,48.1504,17.09
SK,814 42,Bratislava 1,48.1504,17.09
SK,814 44,Bratislava 1,48.1504,17.09
SK,814 45,Bratislava 1,48.1504,17.09
SK,814 46,Bratislava 1,48.1504,17.09
SK,814 47,Bratislava 1,48.1504,17.09
SK,814 48,Bratislava 1,48.1504,17.09
SK,814 49,Bratislava 1,48.1504,17.09
SK,814 50,Bratislava 1,48.1504,17.09
SK,814 51,Bratislava 1,48.1504,17.09
SK,814 52,Bratislava 1,48.1504,17.09
SK,814 53,Bratislava 1,48.1504,17.09
SK,814 54,Bratislava 1,48.1504,17.09
SK,814 55,Bratislava 1,48.1504,17.09
SK,814 56,Bratislava 1,48.1504,17.09
SK,814 57,Bratislava 1,48.1504,17.09
SK,814 58,Bratislava 1,48.1504,17.09
SK,814 59,Bratislava 1,48.1504,17.09
SK,814 60,Bratislava 1,48.1504,17.09
SK,814 61,Bratislava 1,48.1504,17.09
SK,814 62,Bratislava 1,48.1504,17.09
SK,814 63,Bratislava 1,48.1504,17.09
SK,814 64,Bratislava 1,48.1504,17.09
SK,814 65,Bratislava 1,48.1504,17.09
SK,814 66,Bratislava 1,48.1504,17.09
SK,814 67,Bratislava 1,48.1504,17.09
SK,814 68,Bratislava 1,48.1504,17.09
SK,814 69,Bratislava 1,48.1504,17.09
SK,814 70,Bratislava 1,48.1504,17.09
SK,814 71,Bratislava 1,48.1504,17.09
SK,814 72,Bratislava 1,48.1504,17.09
SK,814 73,Bratislava 1,48.1504,17.09
SK,814 74,Bratislava 1,48.1504,17.09
SK,814 75,Bratislava 1,48.1504,17.09
SK,814 77,Bratislava 1,48.1504,17.09
SK,814 78,Bratislava 1,48.1504,17.09
SK,814 79,Bratislava 1,48.1504,17.09
SK,814 80,Bratislava 1,48.1504,17.09
SK,814 81,Bratislava 1,48.1504,17.09
SK,814 82,Bratislava 1,48.1504,17.09
SK,814 83,Bratislava 1,48.1504,17.09
SK,814 84,Bratislava 1,48.1504,17.09
SK,814 85,Bratislava 1,48.1504,17.09
SK,814 86,Bratislava 1,48.1504,17.09
SK,814 87,Bratislava 1,48.1504,17.09
SK,814 88,Bratislava 1,48.1504,17.09
SK,814 90,Bratislava 1,48.1504,17.09
SK,814 91,Bratislava 1,48.1504,17.09
SK,814 92,Bratislava 1,48.1504,17.09
SK,814 93,Bratislava 1,48.1504,17.09
SK,814 94,Bratislava 1,48.1504,17.09
SK,814 95,Bratislava 1,48.1504,17.09
SK,814 96,Bratislava 1,48.1504,17.09
SK,814 99,Bratislava 1,48.1504,17.09
SK,815 01,Bratislava 1,48.1504,17.09
SK,815 02,Bratislava 1,48.1504,17.09
SK,815 03,Bratislava 1,48.1504,17.09
SK,815 04,Bratislava 1,48.1504,17.09
SK,815 05,Bratislava 1,48.1504,17.09
SK,815 06,Bratislava 1,48.1504,17.09
SK,815 07,Bratislava 1,48.1504,17.09
SK,815 08,Bratislava 1,48.1504,17.09
SK,815 09,Bratislava 1,48.1504,17.09
SK,815 10,Bratislava 1,48.1504,17.09
SK,815 11,Bratislava 1,48.1504,17.09
SK,815 12,Bratislava 1,48.1504,17.09
SK,815 13,Bratislava 1,48.1504,17.09
SK,815 14,Bratislava 1,48.1504,17.09
SK,815 15,Bratislava 1,48.1504,17.09
SK,815 16,Bratislava 1,48.1504,17.09
SK,815 17,Bratislava 1,48.1504,17.09
SK,815 18,Bratislava 1,48.1504,17.09
SK,815 19,Bratislava 1,48.1504,17.09
SK,815 20,Bratislava 1,48.1504,17.09
SK,815 21,Bratislava 1,48.1504,17.09
SK,815 22,Bratislava 1,48.1504,17.09
SK,815 23,Bratislava 1,48.1504,17.09
SK,815 24,Bratislava 1,48.1504,17.09
SK,815 25,Bratislava 1,48.1504,17.09
SK,815 26,Bratislava 1,48.1504,17.09
SK,815 27,Bratislava 1,48.1504,17.09
SK,815 28,Bratislava 1,48.1504,17.09
SK,815 29,Bratislava 1,48.1504,17.09
SK,815 30,Bratislava 1,48.1504,17.09
SK,815 31,Bratislava 1,48.1504,17.09
SK,815 32,Bratislava 1,48.1504,17.09
SK,815 33,Bratislava 1,48.1504,17.09
SK,815 34,Bratislava 1,48.1504,17.09
SK,815 35,Bratislava 1,48.1504,17.09
SK,815 36,Bratislava 1,48.1504,17.09
SK,815 37,Bratislava 1,48.1504,17.09
SK,815 38,Bratislava 1,48.1504,17.09
SK,815 39,Bratislava 1,48.1504,17.09
SK,815 40,Bratislava 1,48.1504,17.09
SK,815 41,Bratislava 1,48.1504,17.09
SK,815 42,Bratislava 1,48.1504,17.09
SK,815 43,Bratislava 1,48.1504,17.09
SK,815 44,Bratislava 1,48.1504,17.09
SK,815 45,Bratislava 1,48.1504,17.09
SK,815 46,Bratislava 1,48.1504,17.09
SK,815 47,Bratislava 1,48.1504,17.09
SK,815 48,Bratislava 1,48.1504,17.09
SK,815 49,Bratislava 1,48.1504,17.09
SK,815 50,Bratislava 1,48.1504,17.09
SK,815 51,Bratislava 1,48.1504,17.09
SK,815 52,Bratislava 1,48.1504,17.09
SK,815 53,Bratislava 1,48.1504,17.09
SK,815 55,Bratislava 1,48.1504,17.09
SK,815 56,Bratislava 1,48.1504,17.09
SK,815 57,Bratislava 1,48.1504,17.09
SK,815 58,Bratislava 1,48.1504,17.09
SK,815 59,Bratislava 1,48.1504,17.09
SK,815 61,Bratislava 1,48.1504,17.09
SK,815 62,Bratislava 1,48.1504,17.09
SK,815 63,Bratislava 1,48.1504,17.09
SK,815 65,Bratislava 1,48.1504,17.09
SK,815 66,Bratislava 1,48.1504,17.09
SK,815 67,Bratislava 1,48.1504,17.09
SK,815 68,Bratislava 1,48.1504,17.09
SK,815 69,Bratislava 1,48.1504,17.09
SK,815 70,Bratislava 1,48.1504,17.09
SK,815 71,Bratislava 1,48.1504,17.09
SK,815 72,Bratislava 1,48.1504,17.09
SK,815 73,Bratislava 1,48.1504,17.09
SK,815 74,Bratislava 1,48.1504,17.09
SK,815 75,Bratislava 1,48.1504,17.09
SK,815 76,Bratislava 1,48.1504,17.09
SK,815 77,Bratislava 1,48.1504,17.09
SK,815 78,Bratislava 1,48.1504,17.09
SK,815 79,Bratislava 1,48.1504,17.09
SK,815 80,Bratislava 1,48.1504,17.09
SK,815 82,Bratislava 1,48.1504,17.09
SK,815 83,Bratislava 1,48.1504,17.09
SK,815 84,Bratislava 1,48.1504,17.09
SK,815 85,Bratislava 1,48.1504,17.09
SK,815 86,Bratislava 1,48.1504,17.09
SK,815 87,Bratislava 1,48.1504,17.09
SK,815 88,Bratislava 1,48.1504,17.09
SK,815 89,Bratislava 1,48.1504,17.09
SK,815 90,Bratislava 1,48.1504,17.09
SK,815 91,Bratislava 1,48.1504,17.09
SK,815 92,Bratislava 1,48.1504,17.09
SK,815 93,Bratislava 1,48.1504,17.09
SK,815 94,Bratislava 1,48.1504,17.09
SK,815 95,Bratislava 1,48.1504,17.09
SK,815 96,Bratislava 1,48.1504,17.09
SK,816 01,Bratislava 1,48.1504,17.09
SK,816 02,Bratislava 1,48.1504,17.09
SK,816 03,Bratislava 1,48.1504,17.09
SK,816 04,Bratislava 1,48.1504,17.09
SK,816 05,Bratislava 1,48.1504,17.09
SK,816 06,Bratislava 1,48.1504,17.09
SK,816 07,Bratislava 1,48.1504,17.09
SK,816 08,Bratislava 1,48.1504,17.09
SK,816 09,Bratislava 1,48.1504,17.09
SK,816 10,Bratislava 1,48.1504,17.09
SK,816 11,Bratislava 1,48.1504,17.09
SK,816 12,Bratislava 1,48.1504,17.09
SK,816 13,Bratislava 1,48.1504,17.09
SK,816 14,Bratislava 1,48.1504,17.09
SK,816 15,Bratislava 1,48.1504,17.09
SK,816 16,Bratislava 1,48.1504,17.09
SK,816 17,Bratislava 1,48.1504,17.09
SK,816 18,Bratislava 1,48.1504,17.09
SK,816 19,Bratislava 1,48.1504,17.09
SK,816 20,Bratislava 1,48.1504,17.09
SK,816 21,Bratislava 1,48.1504,17.09
SK,816 22,Bratislava 1,48.1504,17.09
SK,816 23,Bratislava 1,48.1504,17.09
SK,816 24,Bratislava 1,48.1504,17.09
SK,816 25,Bratislava 1,48.1504,17.09
SK,816 26,Bratislava 1,48.1504,17.09
SK,816 27,Bratislava 1,48.1504,17.09
SK,816 28,Bratislava 1,48.1504,17.09
SK,816 29,Bratislava 1,48.1504,17.09
SK,816 30,Bratislava 1,48.1504,17.09
SK,816 31,Bratislava 1,48.1504,17.09
SK,816 32,Bratislava 1,48.1504,17.09
SK,816 33,Bratislava 1,48.1504,17.09
SK,816 34,Bratislava 1,48.1504,17.09
SK,816 35,Bratislava 1,48.1504,17.09
SK,816 36,Bratislava 1,48.1504,17.09
SK,816 37,Bratislava 1,48.1504,17.09
SK,816 38,Bratislava 1,48.1504,17.09
SK,816 39,Bratislava 1,48.1504,17.09
SK,816 40,Bratislava 1,48.1504,17.09
SK,816 41,Bratislava 1,48.1504,17.09
SK,816 42,Bratislava 1,48.1504,17.09
SK,816 43,Bratislava 1,48.1504,17.09
SK,816 44,Bratislava 1,48.1504,17.09
SK,816 45,Bratislava 1,48.1504,17.09
SK,816 46,Bratislava 1,48.1504,17.09
SK,816 47,Bratislava 1,48.1504,17.09
SK,816 48,Bratislava 1,48.1504,17.09
SK,817 02,Bratislava 1,48.1504,17.09
SK,817 04,Bratislava 1,48.1504,17.09
SK,817 11,Bratislava 1,48.1504,17.09
SK,817 15,Bratislava 1,48.1504,17.09
SK,817 53,Bratislava 15,48.1504,17.09
SK,817 55,Bratislava 15,48.1504,17.09
SK,817 62,Bratislava 15,48.1504,17.09
SK,817 73,Bratislava 15,48.1504,17.09
SK,817 77,Bratislava 15,48.1504,17.09
SK,817 78,Bratislava 15,48.1504,17.09
SK,817 80,Bratislava 15,48.1504,17.09
SK,817 82,Bratislava 15,48.1504,17.09
SK,817 85,Bratislava 15,48.1504,17.09
SK,817 87,Bratislava 15,48.1504,17.09
SK,817 89,Bratislava 15,48.1504,17.09
SK,817 95,Bratislava 15,48.1504,17.09
SK,817 96,Bratislava 15,48.1504,17.09
SK,817 98,Bratislava 15,48.1504,17.09
SK,818 02,Bratislava 1,48.1504,17.09
SK,818 09,Bratislava 1,48.1504,17.09
SK,818 11,Bratislava 1,48.1504,17.09
SK,819 01,Bratislava 1,48.1504,17.09
SK,819 44,Bratislava 1,48.1504,17.09
SK,820 02,Bratislava 22,48.1383,17.2087
SK,820 04,Bratislava 24,48.1383,17.2087
SK,820 05,Bratislava 25,48.1383,17.2087
SK,820 07,Bratislava 27,48.1383,17.2087
SK,820 08,Bratislava 28,48.1383,17.2087
SK,820 09,Bratislava 29,48.1383,17.2087
SK,820 11,Bratislava 211,48.1383,17.2087
SK,820 12,Bratislava 212,48.1383,17.2087
SK,820 13,Bratislava 213,48.1383,17.2087
SK,820 14,Bratislava 214,48.1383,17.2087
SK,820 15,Bratislava 215,48.1383,17.2087
SK,820 16,Bratislava 216,48.1383,17.2087
SK,820 17,Bratislava 217,48.1383,17.2087
SK,820 18,Bratislava 218,48.1383,17.2087
SK,822 01,Bratislava 214,48.1383,17.2087
SK,822 02,Bratislava 214,48.1383,17.2087
SK,822 04,Bratislava 214,48.1383,17.2087
SK,822 08,Bratislava 214,48.1383,17.2087
SK,822 10,Bratislava 214,48.1383,17.2087
SK,822 11,Bratislava 214,48.1383,17.2087
SK,823 03,Bratislava 216,48.1383,17.2087
SK,823 05,Bratislava 216,48.1383,17.2087
SK,823 07,Bratislava 216,48.1383,17.2087
SK,823 09,Bratislava 216,48.1383,17.2087
SK,823 11,Bratislava 216,48.1383,17.2087
SK,823 52,Bratislava 22,48.1383,17.2087
SK,823 53,Bratislava 22,48.1383,17.2087
SK,823 55,Bratislava 22,48.1383,17.2087
SK,823 61,Bratislava 22,48.1383,17.2087
SK,823 62,Bratislava 22,48.1383,17.2087
SK,823 65,Bratislava 22,48.1383,17.2087
SK,823 75,Bratislava 22,48.1383,17.2087
SK,824 05,Bratislava 214,48.1383,17.2087
SK,824 10,Bratislava 214,48.1383,17.2087
SK,824 12,Bratislava 214,48.1383,17.2087
SK,824 19,Bratislava 214,48.1383,17.2087
SK,824 20,Bratislava 214,48.1383,17.2087
SK,824 51,Bratislava 25,48.1383,17.2087
SK,824 52,Bratislava 25,48.1383,17.2087
SK,824 53,Bratislava 216,48.1383,17.2087
SK,824 54,Bratislava 25,48.1383,17.2087
SK,824 56,Bratislava 25,48.1383,17.2087
SK,824 57,Bratislava 25,48.1383,17.2087
SK,824 59,Bratislava 25,48.1383,17.2087
SK,824 60,Bratislava 25,48.1383,17.2087
SK,824 63,Bratislava 3,48.1383,17.2087
SK,824 66,Bratislava 25,48.1383,17.2087
SK,824 67,Bratislava 218,48.1383,17.2087
SK,824 69,Bratislava 27,48.1383,17.2087
SK,824 70,Bratislava 218,48.1383,17.2087
SK,824 72,Bratislava 25,48.1383,17.2087
SK,824 73,Bratislava 25,48.1383,17.2087
SK,824 75,Bratislava 25,48.1383,17.2087
SK,824 76,Bratislava 25,48.1383,17.2087
SK,824 77,Bratislava 25,48.1383,17.2087
SK,824 80,Bratislava 25,48.1383,17.2087
SK,824 84,Bratislava 25,48.1383,17.2087
SK,824 89,Bratislava 25,48.1383,17.2087
SK,824 90,Bratislava 25,48.1383,17.2087
SK,824 91,Bratislava 25,48.1383,17.2087
SK,824 92,Bratislava 27,48.1383,17.2087
SK,824 94,Bratislava 25,48.1383,17.2087
SK,824 96,Bratislava 25,48.1383,17.2087
SK,824 97,Bratislava 25,48.1383,17.2087
SK,825 03,Bratislava 27,48.1383,17.2087
SK,825 08,Bratislava 25,48.1383,17.2087
SK,825 10,Bratislava 25,48.1383,17.2087
SK,825 11,Bratislava 25,48.1383,17.2087
SK,825 13,Bratislava 25,48.1383,17.2087
SK,825 18,Bratislava 25,48.1383,17.2087
SK,825 19,Bratislava 25,48.1383,17.2087
SK,825 21,Bratislava 25,48.1383,17.2087
SK,825 56,Bratislava 211,48.1383,17.2087
SK,825 61,Bratislava 211,48.1383,17.2087
SK,825 62,Bratislava 211,48.1383,17.2087
SK,825 63,Bratislava 211,48.1383,17.2087
SK,826 01,Bratislava 29,48.1383,17.2087
SK,826 03,Bratislava 29,48.1383,17.2087
SK,826 04,Bratislava 29,48.1383,17.2087
SK,826 05,Bratislava 29,48.1383,17.2087
SK,826 09,Bratislava 29,48.1383,17.2087
SK,826 16,Bratislava 29,48.1383,17.2087
SK,826 17,Bratislava 29,48.1383,17.2087
SK,826 25,Bratislava 29,48.1383,17.2087
SK,826 29,Bratislava 29,48.1383,17.2087
SK,826 33,Bratislava 29,48.1383,17.2087
SK,826 37,Bratislava 29,48.1383,17.2087
SK,826 38,Bratislava 29,48.1383,17.2087
SK,826 43,Bratislava 29,48.1383,17.2087
SK,826 46,Bratislava 29,48.1383,17.2087
SK,826 48,Bratislava 29,48.1383,17.2087
SK,826 56,Bratislava 29,48.1383,17.2087
SK,826 62,Bratislava 29,48.1383,17.2087
SK,826 64,Bratislava 29,48.1383,17.2087
SK,826 73,Bratislava 29,48.1383,17.2087
SK,826 86,Bratislava 29,48.1383,17.2087
SK,827 01,Bratislava 212,48.1383,17.2087
SK,827 02,Bratislava 212,48.1383,17.2087
SK,827 03,Bratislava 212,48.1383,17.2087
SK,827 04,Bratislava 212,48.1383,17.2087
SK,827 05,Bratislava 212,48.1383,17.2087
SK,827 06,Bratislava 212,48.1383,17.2087
SK,827 07,Bratislava 212,48.1383,17.2087
SK,827 08,Bratislava 212,48.1383,17.2087
SK,827 09,Bratislava 212,48.1383,17.2087
SK,827 10,Bratislava 212,48.1383,17.2087
SK,827 11,Bratislava 212,48.1383,17.2087
SK,827 12,Bratislava 212,48.1383,17.2087
SK,827 13,Bratislava 212,48.1383,17.2087
SK,827 14,Bratislava 212,48.1383,17.2087
SK,827 15,Bratislava 212,48.1383,17.2087
SK,827 18,Bratislava 212,48.1383,17.2087
SK,827 19,Bratislava 212,48.1383,17.2087
SK,827 20,Bratislava 212,48.1383,17.2087
SK,827 25,Bratislava 212,48.1383,17.2087
SK,827 29,Bratislava 212,48.1383,17.2087
SK,827 34,Bratislava 212,48.1383,17.2087
SK,827 45,Bratislava 212,48.1383,17.2087
SK,827 49,Bratislava 212,48.1383,17.2087
SK,827 52,Bratislava 212,48.1383,17.2087
SK,827 57,Bratislava 212,48.1383,17.2087
SK,827 58,Bratislava 212,48.1383,17.2087
SK,827 61,Bratislava 212,48.1383,17.2087
SK,827 64,Bratislava 212,48.1383,17.2087
SK,827 70,Bratislava 212,48.1383,17.2087
SK,828 51,Bratislava 3,48.1383,17.2087
SK,828 55,Bratislava 18,48.1383,17.2087
SK,829 02,Bratislava 25,48.1383,17.2087
SK,829 04,Bratislava 25,48.1383,17.2087
SK,829 05,Bratislava 25,48.1383,17.2087
SK,829 24,Bratislava 25,48.1383,17.2087
SK,829 48,Bratislava 25,48.1383,17.2087
SK,829 74,Bratislava 25,48.1383,17.2087
SK,829 75,Bratislava 25,48.1383,17.2087
SK,829 90,Bratislava 25,48.1383,17.2087
SK,830 01,Bratislava 31,48.2094,17.179
SK,830 02,Bratislava 32,48.2094,17.179
SK,830 03,Bratislava 33,48.2094,17.179
SK,830 04,Bratislava 34,48.2094,17.179
SK,830 08,Bratislava 38,48.2094,17.179
SK,832 01,Bratislava 3,48.2094,17.179
SK,832 03,Bratislava 3,48.2094,17.179
SK,832 05,Bratislava 3,48.2094,17.179
SK,832 06,Bratislava 3,48.2094,17.179
SK,832 10,Bratislava 3,48.2094,17.179
SK,832 11,Bratislava 3,48.2094,17.179
SK,832 14,Bratislava 3,48.2094,17.179
SK,832 15,Bratislava 3,48.2094,17.179
SK,832 17,Bratislava 3,48.2094,17.179
SK,832 18,Bratislava 3,48.2094,17.179
SK,832 25,Bratislava 3,48.2094,17.179
SK,832 27,Bratislava 3,48.2094,17.179
SK,832 28,Bratislava 3,48.2094,17.179
SK,832 29,Bratislava 3,48.2094,17.179
SK,832 32,Bratislava 3,48.2094,17.179
SK,832 34,Bratislava 3,48.2094,17.179
SK,832 36,Bratislava 3,48.2094,17.179
SK,832 37,Bratislava 3,48.2094,17.179
SK,832 38,Bratislava 3,48.2094,17.179
SK,832 39,Bratislava 3,48.2094,17.179
SK,832 40,Bratislava 3,48.2094,17.179
SK,832 42,Bratislava 3,48.2094,17.179
SK,832 45,Bratislava 3,48.2094,17.179
SK,832 47,Bratislava 3,48.2094,17.179
SK,832 48,Bratislava 3,48.2094,17.179
SK,832 50,Bratislava 3,48.2094,17.179
SK,832 52,Bratislava 3,48.2094,17.179
SK,832 53,Bratislava 3,48.2094,17.179
SK,832 54,Bratislava 3,48.2094,17.179
SK,832 55,Bratislava 3,48.2094,17.179
SK,832 56,Bratislava 3,48.2094,17.179
SK,832 57,Bratislava 3,48.2094,17.179
SK,832 59,Bratislava 3,48.2094,17.179
SK,832 62,Bratislava 3,48.2094,17.179
SK,832 64,Bratislava 3,48.2094,17.179
SK,832 65,Bratislava 3,48.2094,17.179
SK,832 66,Bratislava 3,48.2094,17.179
SK,832 68,Bratislava 3,48.2094,17.179
SK,832 70,Bratislava 3,48.2094,17.179
SK,832 71,Bratislava 3,48.2094,17.179
SK,832 72,Bratislava 3,48.2094,17.179
SK,832 73,Bratislava 3,48.2094,17.179
SK,832 75,Bratislava 3,48.2094,17.179
SK,832 77,Bratislava 3,48.2094,17.179
SK,832 80,Bratislava 3,48.2094,17.179
SK,832 83,Bratislava 3,48.2094,17.179
SK,832 84,Bratislava 3,48.2094,17.179
SK,832 90,Bratislava 3,48.2094,17.179
SK,832 91,Bratislava 3,48.2094,17.179
SK,832 92,Bratislava 3,48.2094,17.179
SK,832 96,Bratislava 3,48.2094,17.179
SK,832 98,Bratislava 3,48.2094,17.179
SK,833 02,Bratislava 37,48.2094,17.179
SK,833 03,Bratislava 37,48.2094,17.179
SK,833 04,Bratislava 37,48.2094,17.179
SK,833 05,Bratislava 37,48.2094,17.179
SK,833 06,Bratislava 37,48.2094,17.179
SK,833 10,Bratislava 37,48.2094,17.179
SK,833 12,Bratislava 37,48.2094,17.179
SK,833 14,Bratislava 37,48.2094,17.179
SK,833 15,Bratislava 37,48.2094,17.179
SK,833 16,Bratislava 37,48.2094,17.179
SK,833 18,Bratislava 37,48.2094,17.179
SK,833 20,Bratislava 37,48.2094,17.179
SK,833 24,Bratislava 37,48.2094,17.179
SK,833 29,Bratislava 37,48.2094,17.179
SK,833 31,Bratislava 37,48.2094,17.179
SK,833 32,Bratislava 37,48.2094,17.179
SK,833 34,Bratislava 37,48.2094,17.179
SK,833 36,Bratislava 37,48.2094,17.179
SK,833 39,Bratislava 37,48.2094,17.179
SK,833 40,Bratislava 37,48.2094,17.179
SK,833 45,Bratislava 37,48.2094,17.179
SK,833 48,Bratislava 37,48.2094,17.179
SK,833 50,Bratislava 37,48.2094,17.179
SK,833 51,Bratislava 37,48.2094,17.179
SK,833 53,Bratislava 37,48.2094,17.179
SK,833 58,Bratislava 37,48.2094,17.179
SK,833 72,Bratislava 37,48.2094,17.179
SK,833 74,Bratislava 37,48.2094,17.179
SK,833 91,Bratislava 37,48.2094,17.179
SK,834 01,Bratislava 34,48.2094,17.179
SK,834 03,Bratislava 34,48.2094,17.179
SK,834 04,Bratislava 34,48.2094,17.179
SK,834 13,Bratislava 34,48.2094,17.179
SK,834 14,Bratislava 34,48.2094,17.179
SK,834 15,Bratislava 34,48.2094,17.179
SK,835 06,Bratislava 35,48.2094,17.179
SK,835 09,Bratislava 35,48.2094,17.179
SK,835 15,Bratislava 35,48.2094,17.179
SK,835 17,Bratislava 35,48.2094,17.179
SK,835 18,Bratislava 35,48.2094,17.179
SK,835 26,Bratislava 35,48.2094,17.179
SK,835 54,Bratislava 36,48.2094,17.179
SK,836 02,Bratislava 33,48.2094,17.179
SK,836 03,Bratislava 33,48.2094,17.179
SK,836 04,Bratislava 33,48.2094,17.179
SK,836 05,Bratislava 33,48.2094,17.179
SK,836 07,Bratislava 33,48.2094,17.179
SK,836 09,Bratislava 33,48.2094,17.179
SK,836 11,Bratislava 33,48.2094,17.179
SK,836 14,Bratislava 33,48.2094,17.179
SK,837 10,Bratislava 37,48.2094,17.179
SK,837 52,Bratislava 37,48.2094,17.179
SK,837 53,Bratislava 37,48.2094,17.179
SK,837 56,Bratislava 37,48.2094,17.179
SK,837 62,Bratislava 37,48.2094,17.179
SK,837 63,Bratislava 37,48.2094,17.179
SK,837 84,Bratislava 37,48.2094,17.179
SK,837 96,Bratislava 37,48.2094,17.179
SK,838 08,Bratislava 3,48.2094,17.179
SK,838 10,Bratislava 3,48.2094,17.179
SK,839 02,Bratislava 32,48.2094,17.179
SK,839 04,Bratislava 32,48.2094,17.179
SK,839 06,Bratislava 32,48.2094,17.179
SK,839 07,Bratislava 32,48.2094,17.179
SK,839 08,Bratislava 32,48.2094,17.179
SK,839 09,Bratislava 32,48.2094,17.179
SK,839 10,Bratislava 32,48.2094,17.179
SK,839 11,Bratislava 32,48.2094,17.179
SK,839 12,Bratislava 32,48.2094,17.179
SK,839 13,Bratislava 32,48.2094,17.179
SK,839 14,Bratislava 32,48.2094,17.179
SK,839 15,Bratislava 32,48.2094,17.179
SK,839 16,Bratislava 32,48.2094,17.179
SK,839 19,Bratislava 32,48.2094,17.179
SK,839 20,Bratislava 32,48.2094,17.179
SK,839 21,Bratislava 32,48.2094,17.179
SK,839 22,Bratislava 32,48.2094,17.179
SK,839 23,Bratislava 32,48.2094,17.179
SK,839 25,Bratislava 32,48.2094,17.179
SK,839 26,Bratislava 32,48.2094,17.179
SK,839 29,Bratislava 32,48.2094,17.179
SK,839 30,Bratislava 32,48.2094,17.179
SK,839 32,Bratislava 32,48.2094,17.179
SK,839 34,Bratislava 32,48.2094,17.179
SK,839 36,Bratislava 32,48.2094,17.179
SK,839 38,Bratislava 32,48.2094,17.179
SK,839 39,Bratislava 32,48.2094,17.179
SK,839 41,Bratislava 32,48.2094,17.179
SK,839 43,Bratislava 32,48.2094,17.179
SK,839 49,Bratislava 32,48.2094,17.179
SK,839 50,Bratislava 32,48.2094,17.179
SK,839 61,Bratislava 32,48.2094,17.179
SK,839 62,Bratislava 32,48.2094,17.179
SK,839 64,Bratislava 32,48.2094,17.179
SK,840 00,Bratislava 4,48.1791,17.0369
SK,840 01,Bratislava 41,48.1791,17.0369
SK,840 04,Bratislava 44,48.1791,17.0369
SK,840 05,Bratislava 45,48.1791,17.0369
SK,840 06,Bratislava 46,48.1791,17.0369
SK,840 07,Bratislava 47,48.1791,17.0369
SK,840 11,Bratislava 411,48.1791,17.0369
SK,842 02,Bratislava 4,48.1791,17.0369
SK,842 08,Bratislava 4,48.1791,17.0369
SK,842 11,Bratislava 4,48.1791,17.0369
SK,842 13,Bratislava 4,48.1791,17.0369
SK,842 14,Bratislava 4,48.1791,17.0369
SK,842 15,Bratislava 4,48.1791,17.0369
SK,842 16,Bratislava 4,48.1791,17.0369
SK,842 17,Bratislava 4,48.1791,17.0369
SK,842 20,Bratislava 4,48.1791,17.0369
SK,842 21,Bratislava 4,48.1791,17.0369
SK,842 27,Bratislava 4,48.1791,17.0369
SK,842 29,Bratislava 4,48.1791,17.0369
SK,842 31,Bratislava 4,48.1791,17.0369
SK,842 37,Bratislava 4,48.1791,17.0369
SK,842 40,Bratislava 4,48.1791,17.0369
SK,842 44,Bratislava 4,48.1791,17.0369
SK,842 47,Bratislava 4,48.1791,17.0369
SK,842 48,Bratislava 4,48.1791,17.0369
SK,842 52,Bratislava 4,48.1791,17.0369
SK,842 53,Bratislava 4,48.1791,17.0369
SK,842 55,Bratislava 4,48.1791,17.0369
SK,842 58,Bratislava 4,48.1791,17.0369
SK,842 62,Bratislava 4,48.1791,17.0369
SK,842 64,Bratislava 4,48.1791,17.0369
SK,843 02,Bratislava 49,48.1791,17.0369
SK,843 53,Bratislava 48,48.1791,17.0369
SK,843 55,Bratislava 48,48.1791,17.0369
SK,843 56,Bratislava 48,48.1791,17.0369
SK,844 01,Bratislava 42,48.1791,17.0369
SK,844 02,Bratislava 42,48.1791,17.0369
SK,844 03,Bratislava 42,48.1791,17.0369
SK,844 04,Bratislava 42,48.1791,17.0369
SK,844 08,Bratislava 42,48.1791,17.0369
SK,844 10,Bratislava 42,48.1791,17.0369
SK,844 11,Bratislava 42,48.1791,17.0369
SK,844 12,Bratislava 42,48.1791,17.0369
SK,844 13,Bratislava 42,48.1791,17.0369
SK,844 15,Bratislava 42,48.1791,17.0369
SK,844 16,Bratislava 42,48.1791,17.0369
SK,844 17,Bratislava 42,48.1791,17.0369
SK,844 18,Bratislava 42,48.1791,17.0369
SK,844 19,Bratislava 42,48.1791,17.0369
SK,844 20,Bratislava 42,48.1791,17.0369
SK,844 22,Bratislava 42,48.1791,17.0369
SK,844 23,Bratislava 42,48.1791,17.0369
SK,844 24,Bratislava 42,48.1791,17.0369
SK,844 25,Bratislava 42,48.1791,17.0369
SK,844 37,Bratislava 42,48.1791,17.0369
SK,844 53,Bratislava 42,48.1791,17.0369
SK,844 54,Bratislava 42,48.1791,17.0369
SK,845 01,Bratislava 45,48.1791,17.0369
SK,845 02,Bratislava 45,48.1791,17.0369
SK,845 03,Bratislava 45,48.1791,17.0369
SK,845 04,Bratislava 45,48.1791,17.0369
SK,845 05,Bratislava 45,48.1791,17.0369
SK,845 06,Bratislava 45,48.1791,17.0369
SK,845 07,Bratislava 45,48.1791,17.0369
SK,845 08,Bratislava 45,48.1791,17.0369
SK,845 10,Bratislava 45,48.1791,17.0369
SK,845 11,Bratislava 45,48.1791,17.0369
SK,845 12,Bratislava 45,48.1791,17.0369
SK,845 13,Bratislava 45,48.1791,17.0369
SK,845 15,Bratislava 45,48.1791,17.0369
SK,845 17,Bratislava 45,48.1791,17.0369
SK,845 19,Bratislava 45,48.1791,17.0369
SK,845 21,Bratislava 45,48.1791,17.0369
SK,845 23,Bratislava 45,48.1791,17.0369
SK,845 24,Bratislava 45,48.1791,17.0369
SK,845 25,Bratislava 45,48.1791,17.0369
SK,845 27,Bratislava 45,48.1791,17.0369
SK,845 29,Bratislava 45,48.1791,17.0369
SK,845 30,Bratislava 45,48.1791,17.0369
SK,845 32,Bratislava 45,48.1791,17.0369
SK,845 33,Bratislava 45,48.1791,17.0369
SK,845 35,Bratislava 45,48.1791,17.0369
SK,845 36,Bratislava 45,48.1791,17.0369
SK,845 38,Bratislava 45,48.1791,17.0369
SK,845 41,Bratislava 45,48.1791,17.0369
SK,845 43,Bratislava 45,48.1791,17.0369
SK,845 45,Bratislava 45,48.1791,17.0369
SK,845 46,Bratislava 45,48.1791,17.0369
SK,845 51,Bratislava 45,48.1791,17.0369
SK,850 02,Bratislava 52,48.0427,17.1722
SK,850 03,Bratislava 53,48.0427,17.1722
SK,850 05,Bratislava 55,48.0427,17.1722
SK,850 07,Bratislava 57,48.0427,17.1722
SK,852 00,Bratislava 5,48.0427,17.1722
SK,852 01,Bratislava 5,48.0427,17.1722
SK,852 05,Bratislava 5,48.0427,17.1722
SK,852 06,Bratislava 5,48.0427,17.1722
SK,852 09,Bratislava 5,48.0427,17.1722
SK,852 10,Bratislava 5,48.0427,17.1722
SK,852 23,Bratislava 5,48.0427,17.1722
SK,852 26,Bratislava 5,48.0427,17.1722
SK,852 27,Bratislava 5,48.0427,17.1722
SK,852 28,Bratislava 5,48.0427,17.1722
SK,852 35,Bratislava 5,48.0427,17.1722
SK,852 38,Bratislava 5,48.0427,17.1722
SK,852 40,Bratislava 5,48.0427,17.1722
SK,852 41,Bratislava 5,48.0427,17.1722
SK,852 42,Bratislava 5,48.0427,17.1722
SK,852 45,Bratislava 5,48.0427,17.1722
SK,852 50,Bratislava 5,48.0427,17.1722
SK,852 55,Bratislava 5,48.0427,17.1722
SK,852 58,Bratislava 5,48.0427,17.1722
SK,852 60,Bratislava 5,48.0427,17.1722
SK,852 64,Bratislava 5,48.0427,17.1722
SK,852 67,Bratislava 5,48.0427,17.1722
SK,852 69,Bratislava 5,48.0427,17.1722
SK,852 71,Bratislava 5,48.0427,17.1722
SK,852 74,Bratislava 5,48.0427,17.1722
SK,852 83,Bratislava 5,48.0427,17.1722
SK,852 89,Bratislava 5,48.0427,17.1722
SK,852 92,Bratislava 5,48.0427,17.1722
SK,853 07,Bratislava 59,48.0427,17.1722
SK,853 08,Bratislava 59,48.0427,17.1722
SK,853 18,Bratislava 59,48.0427,17.1722
SK,854 01,Bratislava 5,48.0427,17.1722
SK,854 04,Bratislava 5,48.0427,17.1722
SK,854 05,Bratislava 5,48.0427,17.1722
SK,901 19,Malacky 1,48.436,17.0219
SK,901 20,Malacky 1,48.436,17.0219
SK,901 26,Malacky 1,48.436,17.0219
SK,902 04,Pezinok 4,48.297,17.2746
SK,902 14,Pezinok 1,48.297,17.2746
SK,902 15,Pezinok 4,48.297,17.2746
SK,902 18,Pezinok 4,48.297,17.2746
SK,902 26,Pezinok 1,48.297,17.2746
SK,903 12,Senec,48.2195,17.4004
SK,053 33,Henclová,48.7869,20.5922
SK,053 33,Nálepkovo,48.8424,20.6203
SK,053 33,Závadka,48.8658,20.6184
SK,053 33,Čierna Hora,48.8317,20.6103
SK,053 34,Švedlár,48.8134,20.7138
SK,053 34,Stará Voda,48.7991,20.6761
SK,053 51,Richnava,48.9265,20.9215
SK,053 51,Štefanská Huta,48.9325,20.9236
SK,053 51,Hrišovce,48.9466,20.9078
SK,053 51,Kluknava,48.9244,20.9414
SK,055 01,Margecany,48.8924,21.012
SK,055 51,Veľký Folkmar,48.8561,21.0138
SK,055 52,Kojšov,48.8218,20.9877
SK,055 61,Jaklovce,48.8717,20.988
SK,055 62,Prakovce,48.8159,20.8961
SK,055 63,Helcmanovce,48.8307,20.8677
SK,055 64,Mníšek nad Hnilcom,48.8041,20.8048
SK,055 65,Smolnícka Huta,48.7452,20.7736
SK,055 66,Smolník,48.7294,20.7377
SK,055 66,Úhorná,48.7059,20.6751
SK,055 71,Žakarovce,48.8786,20.9241
SK,056 01,Gelnica,48.8558,20.9371
SK,040 01,Košice-Kavečany,48.7759,21.2059
SK,040 01,Košice-Staré Mesto,48.6825,21.2969
SK,040 01,Košice-Sever,48.7389,21.2434
SK,040 01,Košice-Džungľa,48.7381,21.2675
SK,040 13,Košice-Ťahanovce,48.7583,21.2566
SK,040 13,Košice-Sídlisko Ťahanovce,48.7017,21.3244
SK,040 11,Košice-Západ,48.7109,21.2298
SK,040 11,Košice-Pereš,48.5996,21.2986
SK,040 12,Košice,48.6896,21.2776
SK,040 15,Košice-Šaca,48.6353,21.1709
SK,040 15,Košice-Poľov,48.6656,21.1917
SK,040 16,Košice-Myslava,48.7095,21.2031
SK,040 23,Košice-Sídlisko KVP,48.7147,21.2127
SK,040 14,Košice-Košická Nová Ves,48.7334,21.2973
SK,040 22,Košice-Dargovských hrdinov,48.7358,21.2847
SK,040 01,Košice-Juh,48.71,21.2562
SK,040 11,Košice-Juh,48.7029,21.2552
SK,040 17,Košice-Šebastovce,48.6544,21.2677
SK,040 17,Košice-Barca,48.6489,21.2917
SK,040 18,Košice-Krásna,48.606,21.3814
SK,040 15,Ľudvikov dvor,48.6896,21.2776
SK,040 16,Baška,48.7067,21.184
SK,040 18,Nižná Hutka,48.6574,21.3594
SK,040 18,Vyšná Hutka,48.6759,21.3541
SK,044 01,Drienovec,48.6103,20.9475
SK,044 02,Hosťovce,48.5667,20.8667
SK,044 02,Dvorníky-Včeláre,48.5993,20.833
SK,044 02,Chorváty,48.5648,20.8735
SK,044 02,Turnianska Nová Ves,48.5781,20.8898
SK,044 02,Včeláre,48.5889,20.8078
SK,044 02,Zádiel,48.6122,20.8328
SK,044 02,Turňa nad Bodvou,48.6,20.8809
SK,044 02,Žarnov,48.5834,20.9241
SK,044 02,Háj,48.6297,20.8526
SK,044 02,Hačava,48.6667,20.8333
SK,044 05,Janík,48.5548,20.9688
SK,044 05,Peder,48.5782,20.9506
SK,044 10,Geča,48.6279,21.3099
SK,044 11,Trstené pri Hornáde,48.5755,21.3343
SK,044 11,Skároš,48.5876,21.3761
SK,044 11,Ždaňa,48.6013,21.3491
SK,044 12,Vyšný Klátov,48.7448,21.1246
SK,044 12,Hýľov,48.7303,21.106
SK,044 12,Nižný Klátov,48.7292,21.142
SK,044 13,Kokšov-Bakša,48.6455,21.324
SK,044 13,Všechsvätých,48.6382,21.303
SK,044 13,Buzice,48.6462,21.2973
SK,044 13,Valaliky,48.6358,21.2988
SK,044 13,Košťany,48.6326,21.3023
SK,044 13,Bernátovce,48.641,21.2996
SK,044 14,Gyňov,48.5886,21.3037
SK,044 14,Čaňa,48.6099,21.3262
SK,044 15,Nižná Myšľa,48.6239,21.3651
SK,044 15,Vyšná Myšľa,48.6353,21.3889
SK,044 16,Bohdanovce,48.6561,21.4009
SK,044 16,Vyšný Čaj,48.6835,21.3989
SK,044 16,Rákoš,48.6428,21.4273
SK,044 16,Blažice,48.6672,21.4106
SK,044 16,Nižný Čaj,48.6659,21.3969
SK,044 17,Nový Salaš,48.6113,21.473
SK,044 17,Slančík,48.6611,21.4906
SK,044 17,Slanec,48.6359,21.4772
SK,044 17,Slanská Huta,48.5989,21.4644
SK,044 18,Slanské Nové Mesto,48.6314,21.5233
SK,044 18,Kalša,48.6142,21.5236
SK,044 19,Ďurkov,48.7091,21.442
SK,044 19,Ruskov,48.6819,21.4324
SK,044 19,Olšovany,48.7069,21.4071
SK,044 20,Malá Ida,48.6748,21.1679
SK,044 20,Bukovec,48.7103,21.1518
SK,044 21,Šemša,48.6762,21.1137
SK,044 21,Hodkovce,48.6792,21.1001
SK,044 21,Nováčany,48.6902,21.072
SK,044 23,Jasov,48.6826,20.9757
SK,044 23,Rudník,48.6946,21.0097
SK,044 24,Poproč,48.7117,20.9752
SK,044 25,Vyšný Medzev,48.714,20.9029
SK,044 25,Medzev,48.7004,20.8937
SK,044 25,Baňa Lucia,48.7216,20.9273
SK,044 25,Nižný Medzev,48.7004,20.8937
SK,044 26,Štós,48.7082,20.7909
SK,044 31,Sokoľ,48.8127,21.2193
SK,044 31,Tepličany,48.797,21.2571
SK,044 31,Kostoľany nad Hornádom,48.7922,21.2408
SK,044 31,Malá Vieska,48.8055,21.245
SK,044 31,Družstevná pri Hornáde,48.7922,21.2408
SK,044 41,Košická Polianka,48.692,21.347
SK,044 41,Sady nad Torysou,48.7075,21.3406
SK,044 41,Byster,48.7085,21.3521
SK,044 41,Zdoba,48.7077,21.3315
SK,044 42,Hrašovík,48.7467,21.3213
SK,044 42,Beniakovce,48.7682,21.3162
SK,044 42,Košické Oľšany,48.732,21.3446
SK,044 42,Rozhanovce,48.7503,21.3446
SK,044 43,Vajkovce,48.7829,21.3238
SK,044 43,Budimír,48.7995,21.3016
SK,044 44,Ortáše,48.8302,21.3597
SK,044 44,Ploské,48.815,21.3257
SK,044 44,Nová Polhora,48.8325,21.3153
SK,044 44,Kráľovce,48.8025,21.3286
SK,044 44,Chrastné,48.7937,21.3514
SK,044 45,Vyšná Kamenica,48.7785,21.4856
SK,044 45,Herľany,48.7998,21.4766
SK,044 45,Nižná Kamenica,48.7623,21.481
SK,044 45,Bačkovík,48.7828,21.4316
SK,044 45,Rankovce,48.812,21.4639
SK,044 45,Trsťany,48.7598,21.4084
SK,044 45,Žírovce,48.7932,21.4681
SK,044 45,Borda,48.7541,21.5075
SK,044 45,Bidovce,48.7362,21.4395
SK,044 45,Ďurďošík,48.7404,21.4139
SK,044 45,Čakanovce,48.7668,21.4433
SK,044 45,Košický Klečenov,48.7396,21.5065
SK,044 45,Svinica,48.7348,21.4663
SK,044 47,Mudrovce,48.8281,21.4494
SK,044 47,Čižatice,48.7955,21.3924
SK,044 47,Kecerovský Lipovec,48.8453,21.4348
SK,044 47,Opiná,48.8544,21.427
SK,044 47,Kecerovské Kostoľany,48.8333,21.4167
SK,044 47,Kecerovce,48.8253,21.4124
SK,044 47,Vtáčkovce,48.8429,21.382
SK,044 47,Kecerovské Pekľany,48.8333,21.4167
SK,044 47,Boliarov,48.8027,21.4325
SK,044 47,Bunetice,48.8609,21.3934
SK,044 55,Gomboš,48.585,21.1442
SK,044 55,Komárovce,48.5741,21.1204
SK,044 55,Veľká Ida,48.596,21.1679
SK,044 57,Sokoľany,48.6089,21.2294
SK,044 57,Haniska,48.6199,21.2516
SK,044 57,Bočiar,48.591,21.2354
SK,044 57,Grajciar,48.5946,21.2628
SK,044 58,Seňa,48.559,21.2614
SK,044 58,Kechnec,48.5504,21.264
SK,044 58,Belža,48.5793,21.2713
SK,044 58,Milhosť,48.5387,21.2674
SK,044 61,Zlatá Idka,48.7534,21.0047
SK,044 65,Opátka,48.7879,21.058
SK,044 65,Košická Belá,48.8017,21.1113
SK,044 71,Seleška,48.6215,21.0618
SK,044 71,Dobogov,48.6086,21.1129
SK,044 71,Čečejovce,48.595,21.0651
SK,044 71,Paňovce,48.6472,21.0628
SK,044 71,Cestice,48.5914,21.101
SK,044 73,Buzica,48.5322,21.0761
SK,044 73,Rešica,48.5425,21.04
SK,044 73,Nižný Lánec,48.5362,21.1094
SK,044 74,Vyšný Lánec,48.5304,21.1297
SK,044 74,Chym,48.5324,21.159
SK,044 74,Perín,48.5345,21.1883
SK,044 74,Perín-Chym,48.5332,21.174
SK,044 81,Malá Lodina,48.878,21.1333
SK,044 81,Veľká Lodina,48.8599,21.157
SK,044 81,Trebejov,48.835,21.2206
SK,044 81,Kysak,48.8556,21.2197
SK,044 81,Obišovce,48.862,21.2401
SK,045 01,Debraď,48.6507,20.9778
SK,045 01,Budulov,48.5882,20.9924
SK,045 01,Mokrance,48.596,21.0204
SK,045 01,Moldava nad Bodvou,48.6143,20.9996
SK,071 01,Michalovce 1,48.77,21.8789
SK,071 01,Michalovce,48.7543,21.9195
SK,071 01,Vŕbovec,48.7363,21.9515
SK,071 01,Petrovce nad Laborcom,48.7925,21.8736
SK,071 01,Lesné,48.8016,21.8154
SK,071 01,Suché,48.7653,21.8347
SK,072 01,Krásnovce,48.7211,21.8842
SK,072 01,Šamudovce,48.7064,21.8869
SK,072 01,Pozdišovce,48.7246,21.8546
SK,072 01,Laškovce,48.7011,21.8513
SK,072 02,Tušice,48.7268,21.7507
SK,072 02,Horovce,48.7047,21.7685
SK,072 02,Tušická Nová Ves,48.7164,21.7546
SK,072 03,Moravany,48.7405,21.7851
SK,072 03,Rakovec nad Ondavou,48.7687,21.7827
SK,072 04,Trhovište,48.6982,21.8047
SK,072 05,Bracovce,48.6462,21.839
SK,072 05,Ložín,48.6596,21.8352
SK,072 05,Kačanov,48.6122,21.8443
SK,072 05,Falkušovce,48.6323,21.8413
SK,072 06,Markovce,48.5909,21.8427
SK,072 06,Malčice,48.5779,21.8524
SK,072 06,Petrikovce,48.5453,21.861
SK,072 11,Čečehov,48.7248,21.9899
SK,072 11,Iňačovce,48.6973,22.0319
SK,072 11,Jastrabie pri Michalovciach,48.712,22.0301
SK,072 13,Zemplínska Široká,48.6933,21.9775
SK,072 13,Senné,48.6643,22.0231
SK,072 13,Stretava,48.6434,22.0037
SK,072 13,Stretavka,48.6225,21.9872
SK,072 13,Palín,48.6577,21.9877
SK,072 14,Vysoká nad Uhom,48.6261,22.0913
SK,072 14,Vysoká nad Uhom - Vysocký Dvor,48.6323,22.1003
SK,072 14,Pavlovce nad Uhom,48.6109,22.069
SK,072 15,Budkovce,48.6322,21.9306
SK,072 15,Dúbravka,48.6359,21.8886
SK,072 16,Hatalov,48.6588,21.889
SK,072 16,Žbince,48.6671,21.8817
SK,072 16,Vrbnica,48.6813,21.8878
SK,072 17,Slavkovce,48.6023,21.9215
SK,072 17,Zemplínske Kopčany,48.5896,21.9213
SK,072 17,Malé Raškovce,48.5793,21.9188
SK,072 21,Nacina Ves,48.8189,21.8546
SK,072 21,Voľa,48.845,21.8508
SK,072 22,Pusté Čemerné,48.8422,21.8166
SK,072 22,Strážske,48.8735,21.8367
SK,072 23,Staré,48.8614,21.8755
SK,072 23,Zbudza,48.8144,21.8932
SK,072 23,Oreské,48.8596,21.9046
SK,072 31,Vinné,48.8096,21.9676
SK,072 31,Trnava pri Laborci,48.8179,21.9319
SK,072 31,Klokočov,48.8136,22.0298
SK,072 32,Poruba pod Vihorlatom,48.826,22.1372
SK,072 32,Kusín,48.8158,22.0627
SK,072 32,Jovsa,48.8192,22.0908
SK,072 33,Hnojné,48.7784,22.0691
SK,072 33,Závadka,48.7661,22.0664
SK,072 34,Zalužice,48.7588,21.9874
SK,072 34,Hažín,48.7523,22.0194
SK,072 34,Lúčky,48.7669,22.0389
SK,072 36,Zemplínska Šírava,48.8078,21.9999
SK,072 36,Kaluža,48.8078,21.9999
SK,072 37,Sliepkovce,48.6726,21.9462
SK,072 37,Lastomír,48.7028,21.9253
SK,072 54,Bajany,48.6026,22.1088
SK,076 71,Čičarovce,48.54,22.0272
SK,076 72,Ižkovce,48.557,21.9564
SK,076 72,Vojany,48.568,21.9896
SK,076 72,Beša,48.5356,21.9514
SK,076 74,Drahňov,48.5932,21.9659
SK,076 75,Veľké Raškovce,48.5554,21.9107
SK,076 75,Oborín,48.5413,21.8836
SK,076 77,Ptrukša,48.4872,22.1407
SK,076 77,Ruská,48.5273,22.1407
SK,076 77,Budince,48.5447,22.1233
SK,076 77,Veľké Slemence,48.5091,22.1402
SK,079 01,Maťovské Vojkovce,48.5667,22.1374
SK,079 01,Kapušianske Kľačany,48.5333,22.1167
SK,079 01,Krišovská Liesková - Krížany,48.5829,22.031
SK,079 01,Krišovská Liesková,48.5855,22.0288
SK,079 01,Veľké Kapušany,48.552,22.0804
SK,079 01,Čierne Pole,48.5781,22.0759
SK,079 01,Krišovská Liesková - Liesková,48.5616,22.076
SK,048 01,Čučma,48.6916,20.5413
SK,048 01,Rožňava,48.6601,20.5376
SK,048 01,Rudná,48.6578,20.4894
SK,049 11,Plešivec,48.5458,20.4022
SK,049 11,Slavec,48.5858,20.4673
SK,049 11,Silická Brezová,48.5323,20.486
SK,049 12,Meliata,48.5158,20.3316
SK,049 12,Čoltovo,48.495,20.3754
SK,049 12,Bohúňovo,48.5133,20.3817
SK,049 12,Gemerská Hôrka,48.535,20.3782
SK,049 21,Betliar,48.7027,20.5081
SK,049 22,Gemerská Poloma,48.713,20.4828
SK,049 23,Kobeliarovo,48.7446,20.3709
SK,049 23,Henckovce,48.7129,20.4322
SK,049 23,Nižná Slaná,48.7252,20.4093
SK,049 24,Gočovo,48.7593,20.4202
SK,049 24,Vlachovo,48.7725,20.416
SK,049 25,Dobšiná,48.8207,20.3699
SK,049 26,Rejdová,48.7904,20.2861
SK,049 26,Vyšná Slaná,48.7861,20.3184
SK,049 31,Rakovnica,48.6564,20.4608
SK,049 31,Rožňavské Bystré,48.6652,20.442
SK,049 32,Rozložná,48.6172,20.3512
SK,049 32,Kunova Teplica,48.6118,20.3807
SK,049 32,Štítnik,48.659,20.364
SK,049 32,Honce,48.6678,20.4052
SK,049 32,Pašková,48.5915,20.3837
SK,049 32,Gočaltovo,48.6378,20.3454
SK,049 34,Brdárka,48.7669,20.3389
SK,049 34,Markuška,48.7284,20.3262
SK,049 34,Slavoška,48.7282,20.3368
SK,049 34,Hanková,48.7491,20.314
SK,049 35,Petrovo,48.7139,20.3642
SK,049 35,Ochtiná,48.6841,20.3275
SK,049 35,Roštár,48.6922,20.3506
SK,049 35,Koceľovce,48.7098,20.3438
SK,049 36,Rochovce,48.7024,20.3013
SK,049 36,Slavošovce,48.713,20.2822
SK,049 36,Čierna Lehota,48.7172,20.2707
SK,049 41,Pača,48.682,20.6121
SK,049 41,Krásnohorské Podhradie,48.6529,20.5987
SK,049 42,Kováčová,48.6407,20.699
SK,049 42,Lipovník,48.6291,20.6218
SK,049 42,Drnava,48.6395,20.6567
SK,049 42,Bôrka,48.6324,20.7645
SK,049 42,Lúčka,48.6348,20.7209
SK,049 43,Jablonov nad Turňou,48.5939,20.6745
SK,049 43,Hrušov,48.5824,20.6354
SK,049 43,Silická Jablonica,48.5583,20.6086
SK,049 44,Hrhov,48.6063,20.7507
SK,049 45,Jovice,48.631,20.5497
SK,049 45,Krásnohorská Dlhá Lúka,48.6254,20.5792
SK,049 51,Brzotín,48.631,20.4957
SK,049 51,Kružná,48.638,20.4706
SK,049 52,Silica,48.5555,20.5221
SK,049 55,Dlhá Ves,48.4949,20.439
SK,049 55,Ardovo,48.532,20.4151
SK,049 55,Kečovo,48.4921,20.4848
SK,049 71,Stratená,48.8712,20.3384
SK,049 73,Dedinky,48.8672,20.3795
SK,980 46,Gemerská Panica,48.4726,20.3504
SK,980 46,Bretka,48.4884,20.3409
SK,072 33,Fekišovce,48.7713,22.0848
SK,072 41,Remetské Hámre,48.8497,22.1837
SK,072 41,Vyšná Rybnica,48.8221,22.1773
SK,072 41,Vyšné Remety,48.8278,22.1678
SK,072 42,Úbrež,48.7863,22.1325
SK,072 43,Veľké Revištia,48.7487,22.1028
SK,072 43,Blatné Revištia,48.7383,22.0795
SK,072 44,Blatná Polianka,48.6895,22.1059
SK,072 44,Bunkovce,48.7249,22.1169
SK,072 44,Blatné Remety,48.7081,22.1041
SK,072 51,Husák,48.699,22.2879
SK,072 51,Orechová,48.7069,22.2238
SK,072 51,Krčava,48.683,22.2458
SK,072 51,Sejkov,48.6818,22.2276
SK,072 51,Vyšné Nemecké,48.6608,22.2618
SK,072 52,Nižné Nemecké,48.6535,22.2376
SK,072 52,Tašuľa,48.6595,22.1712
SK,072 52,Jenkovce,48.6556,22.2092
SK,072 53,Záhor,48.6249,22.205
SK,072 53,Bežovce,48.6288,22.1535
SK,072 54,Pinkovce,48.608,22.185
SK,072 54,Lekárovce,48.6032,22.156
SK,072 55,Svätuš,48.6846,22.1413
SK,072 55,Kristy,48.6867,22.1885
SK,072 55,Ostrov,48.7183,22.1635
SK,072 55,Porostov,48.6977,22.1779
SK,072 61,Vojnatina,48.7352,22.2299
SK,072 61,Kolibabovce,48.7196,22.2586
SK,072 61,Priekopa,48.7514,22.2762
SK,072 61,Porúbka,48.7322,22.2654
SK,072 62,Koromľa,48.7159,22.2932
SK,072 62,Petrovce,48.7075,22.3241
SK,072 63,Koňuš,48.7763,22.2691
SK,072 63,Choňkovce,48.779,22.2395
SK,072 64,Ruský Hrabovec,48.856,22.3544
SK,072 64,Beňatina,48.8088,22.3264
SK,072 64,Podhoroď,48.8183,22.3008
SK,072 64,Inovce,48.823,22.359
SK,072 64,Ruská Bystrá,48.8557,22.2962
SK,073 01,Tibava,48.7376,22.2128
SK,073 01,Sobrance,48.7445,22.1814
SK,073 01,Horňa,48.7576,22.1995
SK,073 01,Nižná Rybnica,48.741,22.1463
SK,073 01,Jasenov,48.7958,22.1678
SK,073 01,Hlivištia,48.8086,22.2206
SK,073 01,Baškovce,48.7852,22.2053
SK,073 01,Ruskovce,48.778,22.1635
SK,052 01,Spišské Tomášovce,48.962,20.4723
SK,052 01,Teplička,48.9092,20.5897
SK,052 01,Spišská Nová Ves,48.9446,20.5615
SK,052 05,Spišská Nová Ves,48.9446,20.5615
SK,053 01,Harichovce,48.9619,20.5826
SK,053 11,Smižany,48.9545,20.5234
SK,053 11,Iliašovce,48.9916,20.5265
SK,053 13,Letanovce,48.9765,20.4648
SK,053 13,Arnutovce,48.9789,20.4946
SK,053 15,Betlanovce,48.9812,20.3898
SK,053 15,Hrabušice,48.9756,20.4086
SK,053 21,Markušovce,48.9119,20.6307
SK,053 21,Matejovce nad Hornádom,48.918,20.6725
SK,053 21,Lieskovany,48.9281,20.6047
SK,053 22,Jamník,48.9437,20.6628
SK,053 22,Odorín,48.9337,20.6346
SK,053 22,Danišovce,48.9497,20.6202
SK,053 23,Rudňany,48.8816,20.6801
SK,053 23,Poráč,48.8842,20.7239
SK,053 31,Spišská Nová Ves,48.9446,20.5615
SK,053 32,Hnilčík,48.8592,20.5745
SK,053 40,Slovinky,48.881,20.837
SK,053 42,Kolinovce,48.9282,20.8524
SK,053 42,Kaľava,48.9342,20.8682
SK,053 42,Krompachy,48.9145,20.8751
SK,053 61,Slatvina,48.9623,20.842
SK,053 61,Oľšavka,48.9645,20.8244
SK,053 61,Žehra,48.9796,20.7917
SK,053 61,Vojkovce,48.9533,20.8627
SK,053 61,Spišské Vlachy,48.9475,20.7957
SK,053 61,Olcnava,48.9275,20.7556
SK,053 62,Bystrany,48.9487,20.7598
SK,053 63,Spišský Hrušov,48.9475,20.7059
SK,053 63,Hincovce,48.9587,20.7259
SK,053 63,Chrasť nad Hornádom,48.9266,20.6952
SK,053 63,Vítkovce,48.9275,20.7225
SK,053 75,Hnilec,48.8405,20.5052
SK,053 76,Mlynky,48.8522,20.4301
SK,075 01,Nový Ruskov,48.6458,21.6757
SK,075 01,Plechotice,48.6263,21.6424
SK,075 01,Trebišov 1,48.6231,21.6561
SK,075 01,Trebišov,48.6286,21.7195
SK,075 01,Egreš,48.6144,21.6062
SK,076 01,Zemplínske Hradište,48.5836,21.7372
SK,076 01,Kožuchov,48.5642,21.7241
SK,076 02,Novosad,48.5253,21.7426
SK,076 02,Kysta,48.5135,21.7201
SK,076 02,Kašov,48.4898,21.7416
SK,076 02,Zemplínsky Branč,48.5434,21.7202
SK,076 03,Sirník,48.5196,21.8017
SK,076 03,Hraň,48.545,21.7847
SK,076 05,Cejkov,48.4663,21.7605
SK,076 05,Brehov,48.4836,21.815
SK,076 05,Zemplínske Jastrabie,48.5,21.7833
SK,076 12,Kuzmice,48.5797,21.5696
SK,076 12,Brezina,48.5483,21.5605
SK,076 12,Slivník,48.5999,21.5566
SK,076 13,Kazimír,48.5236,21.5855
SK,076 13,Byšta,48.5307,21.5388
SK,076 14,Lastovce,48.5391,21.6281
SK,076 14,Michaľany,48.5159,21.6234
SK,076 14,Luhyňa,48.4906,21.6359
SK,076 15,Hrčeľ,48.519,21.6951
SK,076 15,Veľaty,48.5241,21.6605
SK,076 16,Stanča,48.5697,21.6561
SK,076 16,Zemplínska Nová Ves,48.5699,21.6702
SK,076 17,Nižný Žipov,48.5821,21.6377
SK,076 17,Čeľovce,48.6022,21.628
SK,076 22,Vojčice,48.6784,21.7158
SK,076 22,Hriadky,48.6991,21.7089
SK,076 31,Viničky,48.3988,21.7447
SK,076 31,Klin nad Bodrogom,48.3838,21.7253
SK,076 31,Streda nad Bodrogom,48.3722,21.7542
SK,076 32,Černochov,48.4412,21.732
SK,076 32,Bara,48.4256,21.7161
SK,076 32,Borša,48.3944,21.7042
SK,076 33,Karlov Dvor,48.41,21.782
SK,076 33,Slovenské Nové Mesto,48.4059,21.6714
SK,076 34,Zemplín,48.44,21.8101
SK,076 34,Ladmovce,48.4137,21.7805
SK,076 35,Somotor,48.4025,21.8079
SK,076 35,Svätá Mária,48.4333,21.839
SK,076 36,Veľký Kamenec,48.3616,21.8059
SK,076 36,Malý Kamenec,48.3522,21.7878
SK,076 37,Rad,48.4637,21.8577
SK,076 37,Svinice,48.4571,21.8822
SK,076 41,Biel,48.4089,22.0591
SK,076 41,Dobrá,48.4125,22.0286
SK,076 42,Veľké Trakany,48.3915,22.0886
SK,076 42,Boťany - Kolónia,48.3954,22.0972
SK,076 42,Malé Trakany,48.3994,22.1057
SK,076 43,Čierna,48.417,22.0887
SK,076 43,Boťany,48.4447,22.0926
SK,076 43,Čierna nad Tisou,48.417,22.0887
SK,076 51,Pribeník,48.3929,22.003
SK,076 52,Malý Horeš,48.3988,21.9464
SK,076 52,Veľký Horeš,48.3846,21.909
SK,076 52,Onča,48.3831,21.9073
SK,076 52,Strážne,48.3659,21.8666
SK,076 53,Zatín,48.4758,21.9039
SK,076 53,Soľnička,48.475,21.9605
SK,076 53,Boľ,48.4728,21.9445
SK,076 61,Stankovce,48.7646,21.6594
SK,076 61,Bačkov,48.7399,21.6232
SK,076 61,Kravany,48.7587,21.6433
SK,076 61,Višňov,48.7484,21.6686
SK,076 61,Dargov,48.7332,21.5852
SK,076 62,Parchovany,48.7522,21.716
SK,076 62,Dvorianky,48.7309,21.7078
SK,076 64,Zemplínska Teplica,48.6466,21.5721
SK,076 81,Čerhov,48.4633,21.6471
SK,076 82,Veľká Tŕňa,48.469,21.6787
SK,076 82,Malá Tŕňa,48.45,21.6833
SK,076 83,Svätuše,48.4333,21.9167
SK,076 83,Vojka,48.4615,21.9153
SK,076 84,Poľany,48.4686,21.9903
SK,076 84,Leles,48.463,22.029
SK,076 84,Bačka,48.4421,22.0494
SK,077 01,Kráľovský Chlmec,48.4234,21.9794
SK,078 01,Malé Ozorovce,48.6824,21.6134
SK,078 01,Trnávka,48.7069,21.6174
SK,078 01,Sečovce,48.7007,21.661
SK,078 01,Veľké Ozorovce,48.6628,21.6079
SK,078 01,Zbehňov,48.6895,21.6297
SK,040 02,Košice 2,48.7759,21.2059
SK,040 03,Košice 3,48.7759,21.2059
SK,040 04,Košice 4,48.7759,21.2059
SK,040 05,Košice 5,48.7759,21.2059
SK,040 07,Košice 7,48.7759,21.2059
SK,040 08,Košice 8,48.7759,21.2059
SK,040 10,Košice 10,48.6896,21.2776
SK,040 19,Košice 19,48.6896,21.2776
SK,040 20,Košice 20,48.7019,21.2673
SK,040 31,Košice 1,48.7019,21.2673
SK,040 32,Košice 1,48.7019,21.2673
SK,040 34,Košice 1,48.7019,21.2673
SK,040 39,Košice 1,48.7019,21.2673
SK,040 41,Košice 1,48.7019,21.2673
SK,040 42,Košice 1,48.7019,21.2673
SK,040 45,Košice 1,48.7019,21.2673
SK,040 46,Košice 1,48.7019,21.2673
SK,040 50,Košice 1,48.7019,21.2673
SK,040 53,Košice 1,48.7019,21.2673
SK,040 55,Košice 1,48.7019,21.2673
SK,040 57,Košice 1,48.7019,21.2673
SK,040 58,Košice 1,48.7019,21.2673
SK,040 59,Košice 1,48.7019,21.2673
SK,040 60,Košice 1,48.7019,21.2673
SK,040 64,Košice 1,48.7019,21.2673
SK,040 65,Košice 1,48.7019,21.2673
SK,040 66,Košice 1,48.7019,21.2673
SK,040 73,Košice 1,48.7019,21.2673
SK,040 74,Košice 1,48.7019,21.2673
SK,040 75,Košice 1,48.7019,21.2673
SK,040 77,Košice 1,48.7019,21.2673
SK,040 79,Košice 1,48.7019,21.2673
SK,040 81,Košice 1,48.7019,21.2673
SK,040 82,Košice 1,48.7019,21.2673
SK,040 83,Košice 1,48.7019,21.2673
SK,040 85,Košice 1,48.7019,21.2673
SK,040 87,Košice 1,48.7019,21.2673
SK,040 89,Košice 1,48.7019,21.2673
SK,041 00,Košice 1,48.6777,20.9367
SK,041 02,Košice 1,48.6777,20.9367
SK,041 03,Košice 1,48.6777,20.9367
SK,041 05,Košice 1,48.6777,20.9367
SK,041 07,Košice 1,48.6777,20.9367
SK,041 08,Košice 1,48.6777,20.9367
SK,041 09,Košice 1,48.6777,20.9367
SK,041 10,Košice 1,48.6777,20.9367
SK,041 11,Košice 1,48.6777,20.9367
SK,041 12,Košice 1,48.6777,20.9367
SK,041 14,Košice 1,48.6777,20.9367
SK,041 15,Košice 1,48.6777,20.9367
SK,041 17,Košice 1,48.6777,20.9367
SK,041 18,Košice 1,48.6777,20.9367
SK,041 19,Košice 1,48.6777,20.9367
SK,041 20,Košice 1,48.6777,20.9367
SK,041 21,Košice 1,48.6777,20.9367
SK,041 22,Košice 1,48.6777,20.9367
SK,041 23,Košice 1,48.6777,20.9367
SK,041 24,Košice 1,48.6777,20.9367
SK,041 25,Košice 1,48.6777,20.9367
SK,041 26,Košice 1,48.6777,20.9367
SK,041 27,Košice 1,48.6777,20.9367
SK,041 28,Košice 1,48.6777,20.9367
SK,041 30,Košice 1,48.6777,20.9367
SK,041 34,Košice 1,48.6777,20.9367
SK,041 37,Košice 1,48.6777,20.9367
SK,041 39,Košice 1,48.6777,20.9367
SK,041 40,Košice 1,48.6777,20.9367
SK,041 41,Košice 1,48.6777,20.9367
SK,041 42,Košice 1,48.6777,20.9367
SK,041 45,Košice 1,48.6777,20.9367
SK,041 47,Košice 1,48.6777,20.9367
SK,041 48,Košice 1,48.6777,20.9367
SK,041 49,Košice 1,48.6777,20.9367
SK,041 50,Košice 1,48.6777,20.9367
SK,041 52,Košice 1,48.6777,20.9367
SK,041 53,Košice 1,48.6777,20.9367
SK,041 54,Košice 1,48.6777,20.9367
SK,041 55,Košice 1,48.6777,20.9367
SK,041 56,Košice 1,48.6777,20.9367
SK,041 58,Košice 1,48.6777,20.9367
SK,041 60,Košice 1,48.6777,20.9367
SK,041 61,Košice 1,48.6777,20.9367
SK,041 62,Košice 1,48.6777,20.9367
SK,041 63,Košice 1,48.6777,20.9367
SK,041 67,Košice 1,48.6777,20.9367
SK,041 68,Košice 1,48.6777,20.9367
SK,041 70,Košice 1,48.6777,20.9367
SK,041 71,Košice 1,48.6777,20.9367
SK,041 74,Košice 1,48.6777,20.9367
SK,041 75,Košice 17,48.6777,20.9367
SK,041 76,Košice 1,48.6777,20.9367
SK,041 78,Košice 1,48.6777,20.9367
SK,041 79,Košice 1,48.6777,20.9367
SK,041 80,Košice 1,48.6777,20.9367
SK,041 81,Košice 1,48.6777,20.9367
SK,041 82,Košice 1,48.6777,20.9367
SK,041 83,Košice 1,48.6777,20.9367
SK,041 85,Košice 1,48.6777,20.9367
SK,041 86,Košice 1,48.6777,20.9367
SK,041 89,Košice 1,48.6777,20.9367
SK,041 92,Košice 1,48.6777,20.9367
SK,041 93,Košice 1,48.6777,20.9367
SK,041 96,Košice 1,48.6777,20.9367
SK,041 97,Košice 1,48.6777,20.9367
SK,042 00,Košice 1,48.6777,20.9367
SK,042 02,Košice 1,48.6777,20.9367
SK,042 03,Košice 1,48.6777,20.9367
SK,042 04,Košice 1,48.6777,20.9367
SK,042 05,Košice 1,48.6777,20.9367
SK,042 07,Košice 1,48.6777,20.9367
SK,042 08,Košice 1,48.6777,20.9367
SK,042 09,Košice 1,48.6777,20.9367
SK,042 11,Košice 1,48.6777,20.9367
SK,042 12,Košice 1,48.6777,20.9367
SK,042 13,Košice 1,48.6777,20.9367
SK,042 14,Košice 1,48.6777,20.9367
SK,042 15,Košice 1,48.6777,20.9367
SK,042 18,Košice 1,48.6777,20.9367
SK,042 19,Košice 1,48.6777,20.9367
SK,042 20,Košice 1,48.6777,20.9367
SK,042 23,Košice 1,48.6777,20.9367
SK,042 24,Košice 1,48.6777,20.9367
SK,042 26,Košice 1,48.6777,20.9367
SK,042 27,Košice 1,48.6777,20.9367
SK,042 29,Košice 1,48.6777,20.9367
SK,042 33,Košice 1,48.6777,20.9367
SK,042 34,Košice 1,48.6777,20.9367
SK,042 35,Košice 1,48.6777,20.9367
SK,042 39,Košice 1,48.6777,20.9367
SK,042 40,Košice 1,48.6777,20.9367
SK,042 41,Košice 1,48.6777,20.9367
SK,042 42,Košice 1,48.6777,20.9367
SK,042 44,Košice 1,48.6777,20.9367
SK,042 46,Košice 1,48.6777,20.9367
SK,042 48,Košice 1,48.6777,20.9367
SK,042 49,Košice 1,48.6777,20.9367
SK,042 52,Košice 1,48.6777,20.9367
SK,042 53,Košice 1,48.6777,20.9367
SK,042 54,Košice 1,48.6777,20.9367
SK,042 55,Košice 1,48.6777,20.9367
SK,042 60,Košice 1,48.6777,20.9367
SK,042 61,Košice 1,48.6777,20.9367
SK,042 64,Košice 1,48.6777,20.9367
SK,042 65,Košice 1,48.6777,20.9367
SK,042 71,Košice 1,48.6777,20.9367
SK,042 72,Košice 1,48.6777,20.9367
SK,042 73,Košice 1,48.6777,20.9367
SK,042 74,Košice 1,48.6777,20.9367
SK,042 77,Košice 1,48.6777,20.9367
SK,042 81,Košice 1,48.6777,20.9367
SK,042 82,Košice 1,48.6777,20.9367
SK,042 84,Košice 1,48.6777,20.9367
SK,042 86,Košice 1,48.6777,20.9367
SK,042 87,Košice 1,48.6777,20.9367
SK,042 88,Košice 1,48.6777,20.9367
SK,042 89,Košice 1,48.6777,20.9367
SK,042 90,Košice 1,48.6777,20.9367
SK,042 92,Košice 1,48.6777,20.9367
SK,042 95,Košice 1,48.6777,20.9367
SK,042 96,Košice 1,48.6777,20.9367
SK,042 97,Košice 1,48.6777,20.9367
SK,042 99,Košice 1,48.6777,20.9367
SK,043 00,Košice 1,48.6777,20.9367
SK,043 01,Košice 1,48.6777,20.9367
SK,043 04,Košice 1,48.6777,20.9367
SK,043 05,Košice 1,48.6777,20.9367
SK,043 06,Košice 1,48.6777,20.9367
SK,043 07,Košice 1,48.6777,20.9367
SK,043 09,Košice 1,48.6777,20.9367
SK,043 10,Košice 1,48.6777,20.9367
SK,043 14,Košice 1,48.6777,20.9367
SK,043 15,Košice 1,48.6777,20.9367
SK,043 17,Košice 1,48.6777,20.9367
SK,043 19,Košice 1,48.6777,20.9367
SK,043 20,Košice 1,48.6777,20.9367
SK,043 22,Košice 1,48.6777,20.9367
SK,043 26,Košice 1,48.6777,20.9367
SK,043 27,Košice 1,48.6777,20.9367
SK,043 28,Košice 1,48.6777,20.9367
SK,043 29,Košice 1,48.6777,20.9367
SK,043 32,Košice 1,48.6777,20.9367
SK,043 37,Košice 1,48.6777,20.9367
SK,043 38,Košice 1,48.6777,20.9367
SK,043 39,Košice 1,48.6777,20.9367
SK,043 40,Košice 1,48.6777,20.9367
SK,043 41,Košice 1,48.6777,20.9367
SK,043 43,Košice 1,48.6777,20.9367
SK,043 47,Košice 1,48.6777,20.9367
SK,043 49,Košice 1,48.6777,20.9367
SK,043 51,Košice 1,48.6777,20.9367
SK,043 52,Košice 1,48.6777,20.9367
SK,043 56,Košice 1,48.6777,20.9367
SK,043 57,Košice 1,48.6777,20.9367
SK,043 58,Košice 1,48.6777,20.9367
SK,043 60,Košice 1,48.6777,20.9367
SK,043 65,Košice 1,48.6777,20.9367
SK,043 66,Košice 1,48.6777,20.9367
SK,043 69,Košice 1,48.6777,20.9367
SK,043 70,Košice 1,48.6777,20.9367
SK,043 72,Košice 1,48.6777,20.9367
SK,043 73,Košice 1,48.6777,20.9367
SK,043 74,Košice 11,48.6777,20.9367
SK,043 75,Košice 1,48.6777,20.9367
SK,043 76,Košice 1,48.6777,20.9367
SK,043 77,Košice 1,48.6777,20.9367
SK,043 78,Košice 1,48.6777,20.9367
SK,043 79,Košice 1,48.6777,20.9367
SK,043 86,Košice 1,48.6777,20.9367
SK,043 89,Košice 1,48.6777,20.9367
SK,043 90,Košice 1,48.6777,20.9367
SK,043 91,Košice 1,48.6777,20.9367
SK,043 93,Košice 1,48.6777,20.9367
SK,043 95,Košice 1,48.6777,20.9367
SK,043 96,Košice 1,48.6777,20.9367
SK,043 98,Košice 1,48.6777,20.9367
SK,044 54,Košice - železiarne,48.5812,21.2332
SK,045 23,Moldava nad Bodvou,48.6143,20.9996
SK,045 52,Moldava nad Bodvou,48.6143,20.9996
SK,048 03,Rožňava 3,48.6698,20.5228
SK,048 15,Rožňava 1,48.6698,20.5228
SK,048 20,Rožňava 1,48.6698,20.5228
SK,048 40,Rožňava 1,48.6698,20.5228
SK,048 80,Rožňava 1,48.6698,20.5228
SK,052 06,Spišská Nová Ves 6,48.9401,20.5463
SK,052 07,Spišská Nová Ves 7,48.9401,20.5463
SK,052 19,Spišská Nová Ves 1,48.9401,20.5463
SK,052 20,Spišská Nová Ves 1,48.9401,20.5463
SK,052 21,Spišská Nová Ves 1,48.9401,20.5463
SK,052 24,Spišská Nová Ves 1,48.9401,20.5463
SK,052 26,Spišská Nová Ves 1,48.9401,20.5463
SK,052 51,Spišská Nová Ves 1,48.9401,20.5463
SK,052 63,Spišská Nová Ves 1,48.9401,20.5463
SK,052 70,Spišská Nová Ves 1,48.9401,20.5463
SK,052 73,Spišská Nová Ves 1,48.9401,20.5463
SK,052 75,Spišská Nová Ves 1,48.9401,20.5463
SK,052 80,Spišská Nová Ves 1,48.9401,20.5463
SK,071 03,Michalovce 3,48.77,21.8789
SK,071 05,Michalovce 5,48.77,21.8789
SK,071 20,Michalovce 1,48.77,21.8789
SK,071 21,Michalovce 1,48.77,21.8789
SK,071 55,Michalovce 1,48.77,21.8789
SK,071 56,Michalovce 1,48.77,21.8789
SK,071 60,Michalovce 1,48.77,21.8789
SK,071 74,Michalovce 1,48.77,21.8789
SK,071 80,Michalovce 1,48.77,21.8789
SK,071 84,Michalovce 1,48.77,21.8789
SK,073 42,Sobrance,48.7445,22.1814
SK,075 03,Trebišov 3,48.6231,21.6561
SK,075 12,Trebišov 1,48.6231,21.6561
SK,075 15,Trebišov 1,48.6231,21.6561
SK,075 16,Trebišov 1,48.6231,21.6561
SK,075 17,Trebišov 1,48.6231,21.6561
SK,075 18,Trebišov 1,48.6231,21.6561
SK,075 19,Trebišov 1,48.6231,21.6561
SK,075 20,Trebišov 1,48.6231,21.6561
SK,075 21,Trebišov 1,48.6231,21.6561
SK,075 22,Trebišov 1,48.6231,21.6561
SK,075 23,Trebišov 1,48.6231,21.6561
SK,075 25,Trebišov 1,48.6231,21.6561
SK,075 26,Trebišov 1,48.6231,21.6561
SK,075 27,Trebišov 1,48.6231,21.6561
SK,075 29,Trebišov 1,48.6231,21.6561
SK,075 31,Trebišov 1,48.6231,21.6561
SK,075 32,Trebišov 1,48.6231,21.6561
SK,075 34,Trebišov 1,48.6231,21.6561
SK,075 39,Trebišov 1,48.6231,21.6561
SK,075 40,Trebišov 1,48.6231,21.6561
SK,075 42,Trebišov 1,48.6231,21.6561
SK,075 43,Trebišov 1,48.6231,21.6561
SK,075 44,Trebišov 1,48.6231,21.6561
SK,075 45,Trebišov 1,48.6231,21.6561
SK,075 46,Trebišov 1,48.6231,21.6561
SK,075 48,Trebišov 1,48.6231,21.6561
SK,075 49,Trebišov 1,48.6231,21.6561
SK,075 52,Trebišov 1,48.6231,21.6561
SK,075 53,Trebišov 1,48.6231,21.6561
SK,075 54,Trebišov 1,48.6231,21.6561
SK,075 55,Trebišov 1,48.6231,21.6561
SK,075 57,Trebišov 1,48.6231,21.6561
SK,075 58,Trebišov 1,48.6231,21.6561
SK,075 60,Trebišov 1,48.6231,21.6561
SK,075 61,Trebišov 1,48.6231,21.6561
SK,075 62,Trebišov 1,48.6231,21.6561
SK,075 63,Trebišov 1,48.6231,21.6561
SK,075 64,Trebišov 1,48.6231,21.6561
SK,075 66,Trebišov 1,48.6231,21.6561
SK,075 67,Trebišov 1,48.6231,21.6561
SK,075 68,Trebišov 1,48.6231,21.6561
SK,075 71,Trebišov 1,48.6231,21.6561
SK,075 72,Trebišov 1,48.6231,21.6561
SK,075 73,Trebišov 1,48.6231,21.6561
SK,075 74,Trebišov 1,48.6231,21.6561
SK,075 75,Trebišov 1,48.6231,21.6561
SK,075 76,Trebišov 1,48.6231,21.6561
SK,075 77,Trebišov 1,48.6231,21.6561
SK,075 78,Trebišov 1,48.6231,21.6561
SK,075 79,Trebišov 1,48.6231,21.6561
SK,075 80,Trebišov 1,48.6231,21.6561
SK,075 81,Trebišov 1,48.6231,21.6561
SK,075 82,Trebišov 1,48.6231,21.6561
SK,075 85,Trebišov 1,48.6231,21.6561
SK,075 88,Trebišov 1,48.6231,21.6561
SK,075 89,Trebišov 1,48.6231,21.6561
SK,075 90,Trebišov 1,48.6231,21.6561
SK,075 93,Trebišov 1,48.6231,21.6561
SK,075 94,Trebišov 1,48.6231,21.6561
SK,075 95,Trebišov 1,48.6231,21.6561
SK,077 13,Kráľovský Chlmec 1,48.4234,21.9794
SK,077 15,Kráľovský Chlmec 1,48.4234,21.9794
SK,077 17,Kráľovský Chlmec 1,48.4234,21.9794
SK,077 21,Kráľovský Chlmec 1,48.4234,21.9794
SK,077 26,Kráľovský Chlmec 1,48.4234,21.9794
SK,077 29,Kráľovský Chlmec 1,48.4234,21.9794
SK,077 32,Kráľovský Chlmec 1,48.4234,21.9794
SK,077 33,Kráľovský Chlmec 1,48.4234,21.9794
SK,077 35,Kráľovský Chlmec 1,48.4234,21.9794
SK,077 37,Kráľovský Chlmec 1,48.4234,21.9794
SK,077 38,Kráľovský Chlmec 1,48.4234,21.9794
SK,077 39,Kráľovský Chlmec 1,48.4234,21.9794
SK,077 41,Kráľovský Chlmec 1,48.4234,21.9794
SK,077 44,Kráľovský Chlmec 1,48.4234,21.9794
SK,077 53,Kráľovský Chlmec 1,48.4234,21.9794
SK,077 54,Kráľovský Chlmec 1,48.4234,21.9794
SK,077 55,Kráľovský Chlmec 1,48.4234,21.9794
SK,077 61,Kráľovský Chlmec 1,48.4234,21.9794
SK,077 67,Kráľovský Chlmec 1,48.4234,21.9794
SK,077 68,Kráľovský Chlmec 1,48.4234,21.9794
SK,077 74,Kráľovský Chlmec 1,48.4234,21.9794
SK,077 81,Kráľovský Chlmec 1,48.4234,21.9794
SK,930 28,Madérét,47.9045,17.8857
SK,945 01,Vrbová nad Váhom,47.8514,18.052
SK,945 04,Komárno,47.7636,18.1226
SK,945 05,Komárno,47.7636,18.1226
SK,946 01,Kameničná - Balvany,47.8302,18.0224
SK,946 01,Kameničná,47.8189,18.0386
SK,946 02,Čalovec,47.8171,17.9877
SK,946 03,Dedina Mládeže,47.9495,18.0037
SK,946 03,Kolárovo,47.9229,17.9847
SK,946 03,Čierny Chrbát,47.9362,17.9942
SK,946 12,Zlatná na Ostrove,47.7667,17.9667
SK,946 13,Okoličná na Ostrove,47.8038,17.9209
SK,946 14,Lúky,47.8833,17.9
SK,946 14,Zemianska Olča,47.8081,17.8665
SK,946 14,Lipové,47.8415,17.8542
SK,946 14,Bodzianske Lúky,47.8833,17.9
SK,946 14,Sokolce - lúky,47.8541,17.8802
SK,946 15,Tôň,47.8044,17.8375
SK,946 16,Holiare,47.8275,17.8146
SK,946 16,Bodza,47.8364,17.8292
SK,946 17,Sokolce,47.8517,17.8276
SK,946 17,Brestovec,47.8634,17.8228
SK,946 19,Trávnik,47.7758,17.7929
SK,946 19,Klížska Nemá,47.7521,17.8197
SK,946 19,Číčov,47.7712,17.7731
SK,946 21,Veľké Kosihy,47.7624,17.8832
SK,946 31,Chotín,47.8071,18.2269
SK,946 32,Šrobárová,47.804,18.3248
SK,946 32,Marcelová,47.7879,18.2826
SK,946 32,Mudroňovo,47.8314,18.3215
SK,946 33,Modrany,47.8236,18.352
SK,946 34,Bátorove Kosihy,47.8294,18.4202
SK,946 35,Búč,47.8076,18.4466
SK,946 36,Kravany nad Dunajom,47.7633,18.4832
SK,946 37,Moča,47.761,18.4079
SK,946 38,Virt,47.7526,18.3212
SK,946 38,Radvaň nad Dunajom,47.7469,18.3661
SK,946 39,Iža,47.752,18.2276
SK,946 39,Patince,47.7389,18.2896
SK,946 51,Nesvady,47.9282,18.1268
SK,946 52,Imeľ,47.904,18.1417
SK,946 54,Bajč,47.9262,18.2074
SK,946 55,Pribeta,47.8998,18.315
SK,946 56,Dulovce,47.8692,18.2728
SK,946 57,Svätý Peter,47.8415,18.2541
SK,947 01,Martovce,47.855,18.1245
SK,947 01,Hurbanovo,47.8698,18.1923
SK,947 03,Hurbanovo,47.8698,18.1923
SK,934 01,Levice 1,48.2151,18.6565
SK,934 01,Levice,48.2156,18.607
SK,934 01,Krškany - Malé Krškany,48.218,18.6684
SK,934 01,Krškany - Veľké Krškany,48.2135,18.6753
SK,934 01,Krškany,48.2135,18.6753
SK,934 05,Levice,48.2156,18.607
SK,935 02,Žemberovce,48.2667,18.75
SK,935 02,Brhlovce,48.2159,18.7402
SK,935 03,Bátovce,48.2908,18.7457
SK,935 03,Drženice,48.2867,18.6969
SK,935 03,Pečenice,48.2975,18.7711
SK,935 04,Devičany,48.3225,18.7054
SK,935 05,Bohunice,48.3311,18.752
SK,935 05,Pukanec,48.354,18.7239
SK,935 05,Uhliská,48.4029,18.7548
SK,935 06,Jabloňovce,48.3185,18.7889
SK,935 21,Malé Kozmálovce,48.2737,18.5116
SK,935 21,Tlmače,48.2893,18.5315
SK,935 21,Veľké Kozmálovce,48.2705,18.5415
SK,935 22,Kozárovce,48.3174,18.5255
SK,935 23,Rybník,48.2925,18.5621
SK,935 24,Čajkov,48.2896,18.6006
SK,935 25,Nová Dedina pri Leviciach,48.2738,18.558
SK,935 25,Nová Dedina,48.2805,18.6433
SK,935 26,Starý Tekov,48.2447,18.5367
SK,935 27,Podlužany,48.2544,18.606
SK,935 27,Hronské Kosihy,48.2658,18.5953
SK,935 29,Hronské Kľačany,48.2401,18.5697
SK,935 31,Vyšné nad Hronom,48.1627,18.5845
SK,935 31,Dolná Seč,48.1763,18.564
SK,935 31,Horná Seč,48.1953,18.5445
SK,935 32,Kalná nad Hronom,48.2104,18.5103
SK,935 33,Nový Tekov,48.2474,18.517
SK,935 34,Veľký Ďur,48.2101,18.45
SK,935 35,Iňa,48.1698,18.4215
SK,935 35,Lula,48.1774,18.3606
SK,935 35,Tehla,48.1844,18.3855
SK,935 36,Beša,48.1434,18.4008
SK,935 36,Jesenské,48.1651,18.4112
SK,935 37,Horný Pial,48.1554,18.4504
SK,935 37,Dolný Pial,48.1317,18.4619
SK,935 38,Lok,48.1836,18.4606
SK,935 39,Mochovce elektráreň,48.1744,18.4635
SK,935 41,Plavé Vozokany - Medvecké,48.0986,18.5379
SK,935 41,Tekovské Lužany,48.0986,18.5379
SK,935 51,Ondrejovce,48.1376,18.519
SK,935 51,Bajka,48.1506,18.5179
SK,935 51,Tekovský Hrádok,48.1681,18.5517
SK,935 51,Turá,48.1548,18.5775
SK,935 52,Šarovce,48.1041,18.6353
SK,935 55,Zbrojníky - Pežerňa,48.1252,18.7039
SK,935 55,Zbrojníky,48.1155,18.7041
SK,935 55,Hontianska Vrbica,48.1348,18.7036
SK,935 56,Mýtne Ludany,48.1639,18.6643
SK,935 56,Starý Hrádok,48.1508,18.6386
SK,935 57,Žemliare,48.1483,18.6037
SK,935 57,Jur nad Hronom,48.1259,18.6294
SK,935 61,Hronovce,48.0057,18.6578
SK,935 62,Pohronský Ruskov,47.9736,18.6563
SK,935 63,Čata,47.9536,18.6515
SK,935 64,Kuraľany,47.9814,18.5408
SK,935 64,Keť,47.9667,18.5667
SK,935 65,Veľké Ludince,47.9627,18.5114
SK,935 66,Farná,48.0058,18.5112
SK,935 67,Nýrovce,48.0251,18.5821
SK,935 67,Málaš,48.0529,18.5268
SK,935 68,Čaka,48.0393,18.4689
SK,935 69,Plavé Vozokany,48.0709,18.4658
SK,935 71,Šalov,48.0031,18.7069
SK,935 74,Pastovce,47.9673,18.7574
SK,935 74,Bielovce,47.9935,18.7746
SK,935 75,Kubáňovo,48.0587,18.8114
SK,935 75,Ipeľský Sokolec,48.0189,18.8058
SK,935 75,Lontov,48.0421,18.7774
SK,935 77,Vyškovce nad Ipľom,48.0557,18.8678
SK,935 81,Horné Turovce,48.1256,18.9486
SK,935 81,Veľké Turovce,48.1039,18.9441
SK,935 82,Plášťovce,48.159,18.9785
SK,935 82,Ipeľské Úľany,48.1254,19.0499
SK,935 84,Slatina,48.1463,18.9005
SK,935 84,Horné Semerovce,48.1252,18.8819
SK,935 84,Hokovce,48.1549,18.8702
SK,935 84,Tupá,48.111,18.8917
SK,935 85,Demandice,48.1256,18.7831
SK,935 85,Sazdice,48.0881,18.7969
SK,935 85,Dolné Semerovce,48.1106,18.8527
SK,935 86,Hontianske Trsťany,48.2082,18.8044
SK,935 87,Domadice,48.1764,18.7797
SK,935 87,Santovka,48.157,18.7672
SK,935 87,Bory,48.1808,18.7517
SK,936 01,Hrkovce,48.0884,18.9027
SK,936 01,Šahy,48.0741,18.9495
SK,937 01,Kukučínov,48.089,18.7005
SK,937 01,Zalaba,47.9635,18.7013
SK,937 01,Sikenica,48.0694,18.7174
SK,937 01,Želiezovce,48.0508,18.6542
SK,937 01,Malé Ludince,47.9878,18.6968
SK,949 01,Nitrianske Hrnčiarovce,48.3328,18.1283
SK,949 01,Lužianky,48.3491,18.029
SK,949 01,Nitra,48.3076,18.0845
SK,949 05,Nitra,48.3076,18.0845
SK,949 07,Nitra,48.3076,18.0845
SK,949 11,Nitra,48.3076,18.0845
SK,951 01,Nitrianske Hrnčiarovce,48.3328,18.1283
SK,951 01,Štitáre,48.3505,18.1597
SK,951 02,Pohranice,48.331,18.1791
SK,951 02,Hosťová,48.3377,18.2045
SK,951 02,Dolné Obdokovce,48.3132,18.2105
SK,951 03,Pohranice,48.331,18.1791
SK,951 03,Čeľadice,48.3292,18.239
SK,951 04,Veľký Lapáš,48.291,18.181
SK,951 04,Malý Lapáš,48.3002,18.182
SK,951 05,Veľký Cetín,48.2203,18.1909
SK,951 05,Paňa,48.2334,18.2282
SK,951 06,Vinodol,48.1884,18.206
SK,951 06,Dolný Vinodol,48.1801,18.2115
SK,951 06,Horný Vinodol,48.1897,18.2031
SK,951 07,Čechynce,48.2549,18.1596
SK,951 07,Malý Cetín,48.2397,18.1769
SK,951 08,Golianovo,48.2719,18.1919
SK,951 12,Ivanka pri Nitre,48.243,18.1162
SK,951 13,Branč,48.2187,18.1442
SK,951 15,Štefanovičová,48.1881,18.0936
SK,951 15,Mojmírovce,48.2074,18.0658
SK,951 15,Poľný Kesov,48.1651,18.0669
SK,951 15,Veľká Dolina,48.1851,18.0301
SK,951 16,Svätoplukovo,48.2282,18.0558
SK,951 17,Cabaj-Čápor,48.2445,18.029
SK,951 21,Rišňovce,48.3686,17.8933
SK,951 22,Alekšince,48.3664,17.9479
SK,951 23,Lukáčovce,48.3955,17.9378
SK,951 24,Kapince,48.4497,17.9717
SK,951 24,Malé Zálužie,48.4358,17.986
SK,951 24,Čab,48.4085,17.9883
SK,951 24,Nové Sady,48.4068,17.9712
SK,951 25,Hruboňovo,48.4464,18.0255
SK,951 26,Šurianky,48.4219,18.0231
SK,951 34,Báb,48.3099,17.8666
SK,951 35,Veľké Zálužie,48.3084,17.9387
SK,951 36,Lehota,48.3116,17.9895
SK,951 37,Rumanová,48.3297,17.8715
SK,951 41,Lužianky,48.3491,18.029
SK,951 42,Zbehy,48.3656,18.0181
SK,951 43,Jelšovce,48.3823,18.0579
SK,951 43,Čakajovce,48.3716,18.0383
SK,951 44,Opatovce - Výčapy,48.4115,18.0822
SK,951 44,Ľudovítová,48.3975,18.0787
SK,951 44,Výčapy-Opatovce,48.4115,18.0822
SK,951 45,Lefantovce,48.4245,18.1342
SK,951 45,Dolné Lefantovce,48.4249,18.1249
SK,951 45,Horné Lefantovce,48.424,18.1435
SK,951 46,Bádice,48.399,18.1255
SK,951 46,Podhorany,48.3803,18.1162
SK,951 48,Jarok,48.2754,17.9591
SK,951 51,Nová Ves nad Žitavou,48.2903,18.3231
SK,951 53,Klasov,48.2762,18.2594
SK,951 53,Babindol,48.2892,18.2381
SK,951 54,Veľké Chyndice,48.2908,18.2881
SK,951 54,Malé Chyndice,48.3032,18.286
SK,951 61,Telince,48.2299,18.3686
SK,951 61,Čifáre,48.2324,18.3916
SK,951 73,Jelenec,48.3784,18.2235
SK,951 74,Žirany,48.3777,18.1751
SK,951 78,Kolíňany,48.3606,18.1969
SK,951 88,Lúčnica nad Žitavou,48.2123,18.283
SK,952 01,Tajná,48.265,18.3634
SK,952 01,Žitavce,48.2022,18.3008
SK,952 01,Melek,48.2017,18.3277
SK,952 01,Vráble,48.2437,18.3085
SK,940 01,Nové Zámky 1,47.9854,18.1619
SK,940 02,Nové Zámky,47.9854,18.1619
SK,941 01,Bánov,48.0466,18.1881
SK,941 02,Lipová,48.1165,18.1797
SK,941 03,Úľany nad Žitavou,48.1059,18.237
SK,941 04,Mojzesovo,48.1333,18.2333
SK,941 05,Černík,48.1522,18.2261
SK,941 06,Komjatice,48.157,18.1703
SK,941 07,Veľký Kýr,48.1825,18.1573
SK,941 10,Tvrdošovce,48.0945,18.0669
SK,941 10,Rastislavice,48.1302,18.0992
SK,941 10,Jatov,48.1288,18.0145
SK,941 11,Palárikovo,48.0437,18.072
SK,941 21,Komoča,47.9487,18.0203
SK,941 22,Zemné,47.9836,17.9949
SK,941 23,Andovce,47.9934,18.1051
SK,941 31,Branovo,48.0232,18.308
SK,941 31,Dvory nad Žitavou,47.9895,18.2672
SK,941 32,Semerovo,48.0113,18.3525
SK,941 32,Čechy,48.0352,18.3733
SK,941 33,Kolta,48.0174,18.4124
SK,941 34,Jasová,47.989,18.3971
SK,941 35,Dubník,47.9581,18.4119
SK,941 36,Rúbaň,47.9302,18.4001
SK,941 37,Strekov,47.9042,18.4165
SK,941 41,Bešeňov,48.0453,18.2642
SK,941 42,Veľké Lovce,48.0623,18.3385
SK,941 43,Dolný Ohaj,48.0821,18.253
SK,941 44,Vlkas,48.1274,18.2778
SK,941 44,Hul,48.0991,18.2633
SK,941 45,Maňa,48.1523,18.2836
SK,941 46,Trávnica,48.1397,18.3391
SK,941 47,Radava,48.0942,18.3037
SK,941 48,Belek,48.1041,18.3545
SK,941 48,Svätuša,48.1094,18.3346
SK,941 48,Podhájska,48.102,18.3397
SK,941 49,Bardoňovo,48.1087,18.422
SK,941 50,Dedinka,48.0656,18.4224
SK,941 51,Pozba,48.115,18.3869
SK,941 62,Michal nad Žitavou,48.1858,18.2818
SK,941 62,Kmeťovo,48.1675,18.2798
SK,942 01,Šurany,48.0861,18.1845
SK,943 01,Štúrovo,47.7949,18.7175
SK,943 04,Obid,47.778,18.6471
SK,943 42,Šarkan,47.8593,18.5525
SK,943 42,Nová Vieska,47.8695,18.4627
SK,943 42,Gbelce,47.8519,18.5128
SK,943 52,Mužla,47.793,18.5993
SK,943 53,Ľubá,47.8497,18.5965
SK,943 53,Belá,47.8323,18.5988
SK,943 54,Svodín,47.9105,18.4997
SK,943 55,Bruty,47.9232,18.5797
SK,943 56,Bíňa,47.9224,18.6416
SK,943 57,Kamenín,47.8884,18.6431
SK,943 58,Kamenný Most,47.8512,18.6564
SK,943 59,Pavlová,47.901,18.6736
SK,943 59,Sikenička,47.9373,18.6813
SK,943 60,Nána,47.8136,18.6965
SK,943 61,Malé Kosihy,47.9255,18.7501
SK,943 61,Salka,47.8859,18.7565
SK,943 65,Kamenica nad Hronom,47.8311,18.728
SK,943 65,Chľaba,47.8295,18.8259
SK,943 65,Malá nad Hronom,47.8549,18.6807
SK,943 65,Leľa,47.8588,18.7727
SK,943 65,Bajtava,47.8559,18.7494
SK,925 71,Trnovec nad Váhom,48.1493,17.931
SK,925 72,Selice,48.0958,17.9643
SK,925 81,Diakovce,48.1345,17.842
SK,925 82,Tešedíkovo,48.1061,17.8519
SK,925 83,Žihárec,48.0723,17.8867
SK,925 84,Vlčany,48.031,17.9521
SK,925 85,Neded,48.0212,17.9618
SK,925 91,Kráľová nad Váhom,48.1692,17.8422
SK,927 01,Šaľa,48.1513,17.8806
SK,927 05,Šaľa,48.1513,17.8806
SK,927 05,Dlhá nad Váhom,48.1719,17.8643
SK,951 31,Močenok,48.2277,17.9308
SK,951 32,Horná Kráľová,48.2453,17.9131
SK,951 33,Hájske,48.2548,17.8678
SK,955 01,Tovarníky,48.5784,18.1429
SK,955 01,Podhradie,48.6609,18.0517
SK,955 01,Velušovce,48.6299,18.0972
SK,955 01,Topoľčany,48.5636,18.1671
SK,955 01,Chrabrany,48.5325,18.1431
SK,955 01,Závada,48.6413,18.0853
SK,955 01,Práznovce,48.5667,18.2103
SK,955 01,Nemčice,48.5547,18.1191
SK,955 01,Závada - Záhrada,48.6305,18.0549
SK,955 03,Topoľčany,48.5636,18.1671
SK,956 01,Blesovce,48.5594,18.0369
SK,956 01,Lipovník,48.5692,18.011
SK,956 01,Veľké Dvorany,48.556,18.0754
SK,956 01,Bojná,48.5752,18.0551
SK,956 02,Urmince,48.535,18.0979
SK,956 03,Horné Štitáre,48.5254,18.0571
SK,956 03,Hajná Nová Ves,48.5367,18.037
SK,956 03,Krtovce,48.5417,18.0116
SK,956 05,Nitrianska Blatnica,48.5544,17.9664
SK,956 05,Radošina,48.5459,17.9385
SK,956 05,Vozokany,48.5656,17.9946
SK,956 06,Orešany,48.5112,17.9027
SK,956 06,Šalgovce,48.5263,17.8994
SK,956 06,Svrbice,48.522,17.8857
SK,956 06,Ardanovce,48.5373,17.9069
SK,956 07,Lužany,48.5163,18.0153
SK,956 07,Veľké Ripňany,48.5029,17.9787
SK,956 07,Malé Ripňany,48.4771,17.9798
SK,956 07,Biskupová,48.4629,17.9836
SK,956 08,Čermany,48.4689,18.0361
SK,956 08,Horné Obdokovce,48.5005,18.0147
SK,956 11,Ludanice,48.4956,18.116
SK,956 11,Dvorany nad Nitrou,48.4866,18.1187
SK,956 12,Preseľany,48.4515,18.0987
SK,956 12,Belince,48.4597,18.1013
SK,956 12,Kamanová,48.4752,18.102
SK,956 13,Hrušovany,48.4373,18.0932
SK,956 13,Koniarovce,48.4284,18.093
SK,956 14,Oponice,48.4686,18.1456
SK,956 14,Súlovce,48.4642,18.1675
SK,956 15,Kovarce,48.4957,18.1566
SK,956 16,Čeľadince,48.5109,18.1715
SK,956 16,Nitrianska Streda,48.5178,18.1751
SK,956 17,Solčany,48.538,18.2026
SK,956 19,Krnča,48.5443,18.2494
SK,956 21,Jacovce,48.5945,18.1347
SK,956 21,Tesáre,48.6021,18.0865
SK,956 21,Kuzmice,48.5825,18.1036
SK,956 22,Prašice,48.6429,18.1109
SK,956 22,Nemečky,48.6729,18.1172
SK,956 22,Tvrdomestice,48.6366,18.132
SK,956 31,Horné Chlebany,48.6055,18.2246
SK,956 31,Krušovce,48.5879,18.2047
SK,956 32,Rajčany,48.61,18.2338
SK,956 38,Norovce,48.6311,18.1812
SK,956 38,Solčianky,48.6198,18.2021
SK,951 52,Slepčany,48.3104,18.3396
SK,951 52,Vieska nad Žitavou,48.3183,18.3601
SK,951 62,Nevidzany,48.2846,18.3776
SK,951 71,Velčice,48.4143,18.3039
SK,951 71,Sľažany,48.3837,18.3256
SK,951 72,Neverice,48.3666,18.2746
SK,951 75,Chrašťany,48.3441,18.2899
SK,951 75,Beladice,48.3441,18.2899
SK,951 76,Tesárske Mlyňany,48.3375,18.3575
SK,951 76,Choča,48.3568,18.3241
SK,951 77,Kostoľany pod Tribečom,48.4154,18.2426
SK,951 77,Ladice,48.3956,18.262
SK,951 81,Nemčiňany,48.3087,18.4515
SK,951 82,Červený Hrádok,48.3018,18.3867
SK,951 82,Malé Vozokany,48.3092,18.3984
SK,951 82,Veľké Vozokany,48.3206,18.4121
SK,951 85,Skýcov,48.5029,18.4208
SK,951 87,Volkovce,48.3399,18.4575
SK,951 91,Mankovce,48.4275,18.3269
SK,951 91,Zlatno,48.4646,18.3129
SK,951 91,Hosťovce,48.4176,18.3582
SK,951 92,Lovce,48.4446,18.3633
SK,951 92,Žikava,48.444,18.3824
SK,951 93,Topoľčianky,48.4162,18.4128
SK,951 93,Machulince,48.4118,18.4322
SK,951 94,Hostie,48.4529,18.4383
SK,951 95,Obyce,48.4274,18.4563
SK,951 96,Jedľové Kostoľany,48.4694,18.4976
SK,951 97,Žitavany,48.3997,18.4186
SK,953 01,Zlaté Moravce,48.3855,18.4006
SK,953 01,Martin nad Žitavou,48.3943,18.357
SK,953 01,Čaradice,48.3589,18.5088
SK,953 05,Čierne Kľačany,48.3566,18.4717
SK,966 54,Hronský Beňadik,48.3561,18.5301
SK,966 54,Tekovské Nemce,48.3561,18.5301
SK,927 03,Šaľa 1,48.1581,17.8752
SK,927 14,Šaľa 1,48.1581,17.8752
SK,927 15,Šaľa 1,48.1581,17.8752
SK,927 19,Šaľa 1,48.1581,17.8752
SK,934 11,Levice 1,48.2152,18.6466
SK,934 13,Levice 1,48.2152,18.6466
SK,934 17,Levice 1,48.2152,18.6466
SK,934 27,Levice 1,48.2152,18.6466
SK,934 29,Levice 1,48.2152,18.6466
SK,934 30,Levice 1,48.2152,18.6466
SK,934 31,Levice 1,48.2152,18.6466
SK,934 32,Levice 1,48.2152,18.6466
SK,934 38,Levice 1,48.2152,18.6466
SK,934 39,Levice 1,48.2152,18.6466
SK,934 40,Levice 1,48.2152,18.6466
SK,934 47,Levice 1,48.2152,18.6466
SK,934 48,Levice 1,48.2152,18.6466
SK,934 52,Levice 1,48.2152,18.6466
SK,934 56,Levice 1,48.2152,18.6466
SK,934 61,Levice 1,48.2152,18.6466
SK,934 68,Levice 1,48.2152,18.6466
SK,937 17,Želiezovce,48.0508,18.6542
SK,940 03,Nové Zámky 3,47.9854,18.1619
SK,940 16,Nové Zámky 1,47.9854,18.1619
SK,940 30,Nové Zámky 1,47.9854,18.1619
SK,940 34,Nové Zámky 1,47.9854,18.1619
SK,940 35,Nové Zámky 1,47.9854,18.1619
SK,940 36,Nové Zámky 2,47.9854,18.1619
SK,940 37,Nové Zámky 1,47.9854,18.1619
SK,940 42,Nové Zámky 2,47.9854,18.1619
SK,940 44,Nové Zámky 1,47.9854,18.1619
SK,940 45,Nové Zámky 2,47.9854,18.1619
SK,940 85,Nové Zámky 2,47.9854,18.1619
SK,940 89,Nové Zámky 2,47.9854,18.1619
SK,940 91,Nové Zámky 1,47.9854,18.1619
SK,940 92,Nové Zámky 2,47.9854,18.1619
SK,941 08,Rastislavice,48.1302,18.0992
SK,942 18,Šurany 1,48.0861,18.1845
SK,945 11,Komárno 1,47.7928,18.0991
SK,945 12,Komárno 1,47.7928,18.0991
SK,945 23,Komárno 5,47.7928,18.0991
SK,945 25,Komárno 1,47.7928,18.0991
SK,945 28,Komárno 1,47.7928,18.0991
SK,945 29,Komárno 5,47.7928,18.0991
SK,945 30,Komárno 1,47.7928,18.0991
SK,945 33,Komárno 5,47.7928,18.0991
SK,945 35,Komárno 1,47.7928,18.0991
SK,945 40,Komárno 1,47.7928,18.0991
SK,945 45,Komárno 1,47.7928,18.0991
SK,945 47,Komárno 1,47.7928,18.0991
SK,945 50,Komárno 1,47.7928,18.0991
SK,945 52,Komárno 5,47.7928,18.0991
SK,945 53,Komárno 1,47.7928,18.0991
SK,945 59,Komárno 5,47.7928,18.0991
SK,945 60,Komárno 5,47.7928,18.0991
SK,945 67,Komárno 5,47.7928,18.0991
SK,945 71,Komárno 5,47.7928,18.0991
SK,945 74,Komárno 5,47.7928,18.0991
SK,945 75,Komárno 5,47.7928,18.0991
SK,945 76,Komárno 1,47.7928,18.0991
SK,945 78,Komárno 5,47.7928,18.0991
SK,945 79,Komárno 5,47.7928,18.0991
SK,945 84,Komárno 1,47.7928,18.0991
SK,947 12,Hurbanovo 1,47.8649,18.1697
SK,949 03,Nitra 3,48.3209,18.0822
SK,949 09,Nitra 11,48.3209,18.0822
SK,949 10,Nitra 10,48.3076,18.0845
SK,949 12,Nitra 12,48.3076,18.0845
SK,949 21,Nitra 1,48.3187,18.0826
SK,949 28,Nitra 1,48.3187,18.0826
SK,949 31,Nitra 1,48.3187,18.0826
SK,949 35,Nitra 1,48.3187,18.0826
SK,949 36,Nitra 1,48.3187,18.0826
SK,949 39,Nitra 1,48.3187,18.0826
SK,949 44,Nitra 1,48.3187,18.0826
SK,949 48,Nitra 1,48.3187,18.0826
SK,949 55,Nitra 1,48.3187,18.0826
SK,949 58,Nitra 1,48.3187,18.0826
SK,949 60,Nitra 1,48.3187,18.0826
SK,949 61,Nitra 1,48.3187,18.0826
SK,949 63,Nitra 1,48.3187,18.0826
SK,949 65,Nitra 1,48.3187,18.0826
SK,949 66,Nitra 1,48.3187,18.0826
SK,949 68,Nitra 1,48.3187,18.0826
SK,949 73,Nitra 1,48.3187,18.0826
SK,949 74,Nitra 1,48.3187,18.0826
SK,949 76,Nitra 1,48.3187,18.0826
SK,949 78,Nitra 1,48.3187,18.0826
SK,949 79,Nitra 1,48.3187,18.0826
SK,949 85,Nitra 1,48.3187,18.0826
SK,949 89,Nitra 1,48.3187,18.0826
SK,949 99,Nitra 1,48.3187,18.0826
SK,950 01,Nitra 1,48.4926,18.2007
SK,950 03,Nitra 1,48.4926,18.2007
SK,950 06,Nitra 1,48.4926,18.2007
SK,950 07,Nitra 1,48.4926,18.2007
SK,950 08,Nitra 1,48.4926,18.2007
SK,950 12,Nitra 1,48.4926,18.2007
SK,950 15,Nitra 1,48.4926,18.2007
SK,950 16,Nitra 1,48.4926,18.2007
SK,950 22,Nitra 1,48.4926,18.2007
SK,950 28,Nitra 1,48.4926,18.2007
SK,950 30,Nitra 1,48.4926,18.2007
SK,950 43,Nitra 1,48.4926,18.2007
SK,950 47,Nitra 1,48.4926,18.2007
SK,950 48,Nitra 1,48.4926,18.2007
SK,950 50,Nitra 1,48.4926,18.2007
SK,950 53,Nitra 1,48.4926,18.2007
SK,950 61,Nitra 1,48.4926,18.2007
SK,951 14,Poľný Kesov,48.1651,18.0669
SK,952 12,Vráble,48.2437,18.3085
SK,952 14,Vráble,48.2437,18.3085
SK,952 16,Vráble,48.2437,18.3085
SK,952 17,Vráble,48.2437,18.3085
SK,952 80,Vráble,48.2437,18.3085
SK,952 81,Vráble,48.2437,18.3085
SK,953 04,Zlaté Moravce 4,48.3738,18.4345
SK,953 11,Zlaté Moravce 1,48.3738,18.4345
SK,953 17,Zlaté Moravce 1,48.3738,18.4345
SK,953 20,Zlaté Moravce 1,48.3738,18.4345
SK,953 21,Zlaté Moravce 1,48.3738,18.4345
SK,953 22,Zlaté Moravce 1,48.3738,18.4345
SK,953 28,Zlaté Moravce 1,48.3738,18.4345
SK,953 30,Zlaté Moravce 1,48.3738,18.4345
SK,953 33,Zlaté Moravce 1,48.3738,18.4345
SK,953 36,Zlaté Moravce 1,48.3738,18.4345
SK,953 38,Zlaté Moravce 1,48.3738,18.4345
SK,953 39,Zlaté Moravce 1,48.3738,18.4345
SK,953 40,Zlaté Moravce 1,48.3738,18.4345
SK,953 42,Zlaté Moravce 1,48.3738,18.4345
SK,955 13,Topoľčany 1,48.5922,18.1239
SK,955 14,Topoľčany 1,48.5922,18.1239
SK,955 15,Topoľčany 1,48.5922,18.1239
SK,955 20,Topoľčany 1,48.5922,18.1239
SK,955 21,Topoľčany 1,48.5922,18.1239
SK,955 23,Topoľčany 1,48.5922,18.1239
SK,955 28,Topoľčany 1,48.5922,18.1239
SK,955 35,Topoľčany 1,48.5922,18.1239
SK,955 37,Topoľčany 1,48.5922,18.1239
SK,955 39,Topoľčany 1,48.5922,18.1239
SK,955 40,Topoľčany 1,48.5922,18.1239
SK,955 48,Topoľčany 1,48.5922,18.1239
SK,955 55,Topoľčany 1,48.5922,18.1239
SK,955 56,Topoľčany 1,48.5922,18.1239
SK,955 61,Topoľčany 1,48.5922,18.1239
SK,955 82,Topoľčany 1,48.5922,18.1239
SK,955 86,Topoľčany 1,48.5922,18.1239
SK,955 88,Topoľčany 1,48.5922,18.1239
SK,955 92,Topoľčany 1,48.5922,18.1239
SK,955 94,Topoľčany 1,48.5922,18.1239
SK,956 04,Nitrianska Blatnica,48.5544,17.9664
SK,085 01,Miháľov,49.2837,21.2317
SK,085 01,Bardejov,49.2918,21.2727
SK,085 01,Richvald,49.2756,21.1908
SK,086 01,Zlaté,49.3398,21.2012
SK,086 01,Rokytov,49.3182,21.1901
SK,086 01,Tarnov,49.3204,21.1716
SK,086 01,Mokroluh,49.3089,21.2125
SK,086 02,Gaboltov,49.3668,21.1406
SK,086 02,Nižný Tvarožec,49.3607,21.1861
SK,086 02,Vyšný Tvarožec,49.3823,21.1958
SK,086 02,Sveržov,49.3348,21.1611
SK,086 02,Cigeľka,49.4088,21.1476
SK,086 02,Frička,49.4046,21.0833
SK,086 02,Petrová,49.3875,21.1197
SK,086 04,Bogliarka,49.2799,21.151
SK,086 04,Krivé,49.2935,21.1511
SK,086 04,Kružlov,49.3085,21.1338
SK,086 04,Gerlachov,49.3196,21.1158
SK,086 04,Kríže,49.2425,21.1491
SK,086 04,Kurov,49.3415,21.1359
SK,086 05,Lukov,49.2934,21.0783
SK,086 05,Livovská Huta,49.2434,21.0332
SK,086 05,Livov,49.2522,21.0899
SK,086 06,Lenartov,49.3104,21.0214
SK,086 06,Snakov,49.3247,21.0537
SK,086 06,Hrabské,49.3403,21.0727
SK,086 06,Malcov,49.3047,21.0596
SK,086 11,Komárov,49.281,21.3485
SK,086 11,Poliakovce,49.2553,21.4064
SK,086 11,Hrabovec,49.2723,21.379
SK,086 11,Brezovka,49.2715,21.4204
SK,086 12,Šašová,49.256,21.4523
SK,086 12,Kurima,49.2263,21.4536
SK,086 12,Kučín,49.2096,21.454
SK,086 12,Porúbka,49.1999,21.4291
SK,086 12,Ortuťová,49.2694,21.4567
SK,086 12,Dubinné,49.2453,21.4384
SK,086 12,Nemcovce,49.2098,21.4421
SK,086 12,Lipová,49.2623,21.4824
SK,086 12,Kožany,49.2153,21.4894
SK,086 14,Beloveža,49.296,21.3683
SK,086 14,Hažlín,49.3012,21.4201
SK,086 21,Vyšná Voľa,49.2495,21.3621
SK,086 21,Nižná Voľa,49.2225,21.372
SK,086 21,Lukavica,49.262,21.3239
SK,086 21,Rešov,49.2399,21.3307
SK,086 22,Kobyly,49.2148,21.298
SK,086 22,Kľušov,49.2453,21.2591
SK,086 22,Hervartov,49.2467,21.2055
SK,086 22,Šiba,49.2324,21.2284
SK,086 31,Bardejovské Kúpele,49.3295,21.2697
SK,086 33,Regetovka,49.4193,21.2754
SK,086 33,Stebník,49.3797,21.2669
SK,086 33,Zborov,49.3687,21.308
SK,086 33,Stebnícka Huta,49.4084,21.251
SK,086 33,Smilno,49.3858,21.3525
SK,086 33,Chmeľová,49.4,21.2989
SK,086 35,Becherov,49.4197,21.3131
SK,086 36,Mikulášová,49.3842,21.3904
SK,086 36,Varadka,49.4129,21.3844
SK,086 36,Hutka,49.398,21.4305
SK,086 36,Vyšná Polianka,49.4323,21.3485
SK,086 36,Ondavka,49.4372,21.3385
SK,086 36,Jedlinka,49.3993,21.3701
SK,086 36,Nižná Polianka,49.4043,21.4014
SK,086 37,Andrejová,49.3359,21.3336
SK,086 37,Šarišské Čierne,49.3464,21.3861
SK,086 41,Lopúchov,49.1396,21.369
SK,086 41,Janovce,49.1897,21.3062
SK,086 41,Tročany,49.1826,21.3221
SK,086 41,Vaniškovce,49.1655,21.2985
SK,086 41,Abrahámovce,49.1617,21.344
SK,086 41,Raslavice,49.1505,21.3154
SK,086 42,Osikov,49.1746,21.2621
SK,086 42,Hertník,49.2071,21.2376
SK,086 42,Bartošovce,49.1954,21.277
SK,086 42,Fričkovce,49.1853,21.2391
SK,086 43,Buclovany,49.1553,21.3652
SK,086 43,Koprivnica,49.1567,21.3943
SK,086 43,Stuľany,49.1431,21.4038
SK,086 45,Marhaň,49.1705,21.4493
SK,086 45,Harhaj,49.1876,21.4201
SK,086 45,Lascov,49.1572,21.4756
SK,086 45,Vyšný Kručov,49.1697,21.434
SK,086 46,Hankovce,49.2036,21.4051
SK,086 46,Oľšavce,49.203,21.386
SK,086 46,Kochanovce,49.1906,21.385
SK,087 01,Brezov,49.1442,21.4923
SK,066 01,Závadka,48.9282,21.8467
SK,066 01,Lackovce,48.9406,21.9563
SK,066 01,Kochanovce,48.9529,21.9423
SK,066 01,Humenné,48.9371,21.9163
SK,066 01,Jasenov,48.9046,21.9032
SK,066 01,Myslina,48.9477,21.8554
SK,066 01,Brestov,48.9641,21.8894
SK,066 01,Brekov,48.9064,21.8361
SK,067 01,Hrabovec nad Laborcom,49.0968,21.9375
SK,067 11,Vyšné Ladičkovce,49.0398,21.8916
SK,067 11,Ľubiša,49.0058,21.9476
SK,067 11,Nižné Ladičkovce,49.0233,21.902
SK,067 12,Hankovce,49.0261,21.9469
SK,067 12,Zbudské Dlhé,49.0769,21.9602
SK,067 12,Dedačov,49.0333,21.973
SK,067 12,Koškovce,49.0473,21.9547
SK,067 13,Rokytov pri Humennom,49.1043,21.992
SK,067 13,Jabloň,49.0665,21.9794
SK,067 13,Slovenské Krivé,49.0714,22.0038
SK,067 22,Slovenská Volová,48.9806,21.84
SK,067 22,Gruzovce,48.9747,21.8658
SK,067 22,Ohradzany,48.9953,21.8451
SK,067 22,Sopkovce,49.0156,21.8686
SK,067 23,Černina,49.0534,21.8221
SK,067 23,Turcovce,49.0528,21.8467
SK,067 23,Baškovce,49.0325,21.8367
SK,067 23,Hrubov,49.0944,21.8615
SK,067 24,Jankovce,49.0586,21.7968
SK,067 24,Lukačovce,49.03,21.7837
SK,067 24,Víťazovce,49.0113,21.8009
SK,067 31,Veľopolie,48.9928,21.9551
SK,067 31,Udavské,48.9756,21.9651
SK,067 32,Adidovce,49.0153,22.037
SK,067 32,Rovné,48.9789,22.0108
SK,067 32,Maškovce,49.0134,21.9951
SK,067 32,Vyšný Hrušov,48.9939,22.0131
SK,067 33,Papín,49.0939,22.0601
SK,067 33,Nechválova Polianka,49.0717,22.0948
SK,067 33,Zubné,49.0459,22.0624
SK,067 34,Nižná Jablonka,49.1282,22.0861
SK,067 34,Vyšná Jablonka,49.1558,22.0984
SK,067 41,Porúbka,48.8635,21.9593
SK,067 41,Ptičie,48.9053,21.959
SK,067 41,Chlmec,48.8863,21.9393
SK,067 45,Topoľovka,48.9249,21.8096
SK,067 45,Karná,48.9842,21.8064
SK,067 45,Hudcovce,48.909,21.7891
SK,067 45,Lieskovec,48.952,21.8168
SK,067 82,Modra nad Cirochou,48.9436,22.0428
SK,067 83,Kamienka,48.9062,22.001
SK,067 83,Hažín nad Cirochou,48.9298,21.9605
SK,067 83,Kamenica nad Cirochou,48.9314,21.997
SK,067 83,Valaškovce (vojenský obvod),48.9251,22.1097
SK,094 06,Košarovce,49.0424,21.781
SK,094 07,Pakostov,49.0924,21.8247
SK,094 07,Nižná Sitnica,49.0672,21.7924
SK,094 07,Ruská Kajňa,49.1197,21.8397
SK,094 07,Rohožník,49.1119,21.7633
SK,094 07,Vyšná Sitnica,49.0971,21.7888
SK,094 08,Prituľany,49.1297,21.7743
SK,094 08,Ruská Poruba,49.1396,21.7922
SK,094 08,Závada,49.1723,21.7858
SK,059 01,Spišská Belá,49.1872,20.4595
SK,059 01,Krížová Ves,49.1898,20.4865
SK,059 02,Vojňany,49.2485,20.4418
SK,059 02,Slovenská Ves,49.2248,20.4251
SK,059 02,Výborná,49.2343,20.3981
SK,059 04,Spišské Hanušovce,49.331,20.3448
SK,059 04,Jezersko,49.3028,20.3503
SK,059 04,Matiašovce,49.354,20.3634
SK,059 04,Reľov,49.2979,20.3808
SK,059 04,Zálesie,49.3261,20.3874
SK,059 06,Červený Kláštor,49.3932,20.4116
SK,059 06,Lechnica,49.382,20.4085
SK,059 07,Lendak,49.2344,20.3565
SK,059 52,Veľká Lomnica,49.1125,20.3601
SK,059 52,Stará Lesná,49.1368,20.3046
SK,059 71,Ľubica,49.1167,20.45
SK,059 71,Tvarožná,49.0855,20.4783
SK,059 71,Vlkovce,49.0502,20.5007
SK,059 71,Hradisko,49.0575,20.5233
SK,059 72,Abrahámovce - Pikovce,49.0394,20.4611
SK,059 72,Vlková,49.0592,20.4306
SK,059 72,Vrbov,49.0876,20.4253
SK,059 72,Abrahámovce,49.0443,20.4386
SK,059 73,Žakovce,49.0832,20.3977
SK,059 76,Mlynčeky,49.1672,20.384
SK,059 76,Stráne pod Tatrami,49.1589,20.367
SK,059 76,Rakúsy,49.1884,20.3818
SK,059 78,Malá Franková,49.3139,20.3028
SK,059 78,Veľká Franková,49.3383,20.2937
SK,059 79,Osturňa,49.3301,20.2272
SK,059 92,Huncovce,49.115,20.3767
SK,059 93,Podhorany,49.2397,20.4801
SK,059 93,Bušovce,49.2178,20.4867
SK,059 94,Jurské,49.2025,20.5254
SK,059 94,Ihľany,49.1842,20.5422
SK,059 94,Holumnica,49.2337,20.5262
SK,059 95,Toporec,49.2641,20.4929
SK,060 01,Kežmarok,49.1357,20.4335
SK,060 01,Malý Slavkov,49.1368,20.3888
SK,061 01,Havka,49.3451,20.4067
SK,061 01,Majere,49.3972,20.3768
SK,061 01,Spišská Stará Ves,49.383,20.3596
SK,053 02,Domaňovce,48.96,20.6608
SK,053 02,Klčov,49.0039,20.6681
SK,053 02,Nemešany,49.0032,20.685
SK,053 02,Spišský Hrhov,48.9998,20.6412
SK,053 02,Doľany,49.0131,20.6555
SK,053 03,Jablonov,49.0166,20.7256
SK,053 03,Lúčka,49.0268,20.7293
SK,053 04,Buglovce,48.9857,20.6952
SK,053 04,Studenec,49.0124,20.769
SK,053 04,Baldovce,48.9923,20.7138
SK,053 04,Spišské Podhradie,49.0009,20.7531
SK,053 05,Granč-Petrovce,48.9965,20.8047
SK,053 05,Poľanovce,49.0249,20.8423
SK,053 05,Pongrácovce,49.0196,20.8237
SK,053 05,Korytné,49.0109,20.8376
SK,053 05,Harakovce,48.9978,20.8468
SK,053 05,Beharovce,49.0039,20.8131
SK,053 05,Dúbrava,48.9849,20.8471
SK,053 06,Bijacovce,49.0238,20.7994
SK,053 06,Ordzovany,49.0349,20.7859
SK,053 14,Spišský Štvrtok,49.0012,20.4671
SK,053 14,Dravce,49.0197,20.4853
SK,053 71,Nižné Repaše,49.0893,20.7042
SK,053 71,Uloža,49.0437,20.6459
SK,053 71,Pavľany,49.0571,20.7132
SK,053 71,Torysky,49.0967,20.6762
SK,053 71,Vyšné Repaše,49.0678,20.6873
SK,053 73,Brutovce,49.0859,20.7762
SK,053 73,Vyšný Slavkov,49.0721,20.8543
SK,053 73,Oľšavica,49.0831,20.7552
SK,054 01,Kurimany,48.9988,20.5428
SK,054 01,Dlhé Stráže,49.0268,20.5208
SK,054 01,Levoča,49.0217,20.5921
SK,067 01,Brestov nad Laborcom,49.1112,21.9388
SK,067 01,Zbudská Belá,49.1534,21.9407
SK,067 01,Radvaň nad Laborcom,49.1297,21.9276
SK,067 01,Volica,49.1557,21.9182
SK,067 01,Valentovce,49.1783,21.9539
SK,067 02,Roškovce,49.2392,21.8477
SK,067 02,Sukov,49.2191,21.8745
SK,067 02,Čabiny,49.1819,21.9017
SK,067 04,Oľka,49.1538,21.8464
SK,067 04,Repejov,49.1998,21.8196
SK,067 13,Zbojné,49.1397,21.9962
SK,067 16,Oľšinkov,49.1998,22.0393
SK,067 16,Čabalovce,49.227,21.966
SK,067 16,Svetlice,49.1706,22.0401
SK,067 16,Výrava,49.192,22.0053
SK,067 52,Habura,49.3246,21.8618
SK,067 52,Čertižné,49.3493,21.825
SK,068 01,Ňagov,49.2525,21.9357
SK,068 01,Rokytovce,49.2614,21.8775
SK,068 01,Palota,49.2691,21.9927
SK,068 01,Krásny Brod,49.2396,21.897
SK,068 01,Medzilaborce,49.2719,21.9007
SK,068 01,Kalinov,49.3172,21.9222
SK,058 01,Poprad,49.0614,20.298
SK,058 01,Gánovce,49.0301,20.3275
SK,059 11,Poprad 1,49.0344,20.3469
SK,059 11,Hozelec,49.0344,20.3469
SK,059 12,Švábovce,49.028,20.3578
SK,059 12,Hôrka,49.0167,20.0333
SK,059 12,Hôrka pri Poprade,49.0223,20.1956
SK,059 13,Jánovce,49.0174,20.4323
SK,059 14,Spišský Štiavnik,48.9937,20.3585
SK,059 14,Vydrník,49.0006,20.4066
SK,059 16,Hranovnica,48.9895,20.309
SK,059 17,Vernár,48.9175,20.2706
SK,059 18,Spišské Bystré,48.9911,20.2436
SK,059 18,Kravany,48.9968,20.2017
SK,059 19,Vikartovce,48.9935,20.1509
SK,059 21,Svit 1,49.0601,20.2069
SK,059 21,Svit,49.0601,20.2069
SK,059 31,Lučivná 1,49.0515,20.1424
SK,059 31,Lučivná,49.0515,20.1424
SK,059 34,Spišská Teplica,49.046,20.2487
SK,059 35,Batizovce,49.0761,20.185
SK,059 36,Mengusovce,49.0735,20.1403
SK,059 37,Štôla,49.0924,20.1405
SK,059 38,Štrba,49.0591,20.0797
SK,059 39,Šuňava,49.0306,20.0845
SK,059 40,Liptovská Teplička,48.9664,20.0888
SK,059 41,Štrba,49.0591,20.0797
SK,059 42,Gerlachov,49.0987,20.2064
SK,059 51,Poprad,49.0614,20.298
SK,059 55,Ždiar,49.271,20.2624
SK,059 56,Tatranská Javorina,49.2675,20.1475
SK,059 56,Podspády,49.2818,20.1749
SK,059 60,Vysoké Tatry,49.1364,20.2439
SK,059 60,Tatranská Lomnica,49.1662,20.2813
SK,059 81,Dolný Smokovec,49.127,20.2505
SK,059 81,Vysoké Tatry,49.1364,20.2439
SK,059 84,Vyšné Hágy,49.1185,20.1246
SK,059 85,Štrba,49.0591,20.0797
SK,059 86,Nová Lesná,49.1225,20.2674
SK,059 91,Veľký Slavkov,49.0933,20.2826
SK,059 91,Mlynica,49.1009,20.3137
SK,062 01,Starý Smokovec,49.139,20.2203
SK,062 01,Vysoké Tatry,49.1364,20.2439
SK,080 01,Malý Šariš,49.0099,21.183
SK,080 01,Župčany,49.0121,21.1587
SK,080 01,Haniska,48.9544,21.2389
SK,080 01,Prešov - Cemjata,48.9845,21.1747
SK,080 01,Prešov,48.9984,21.2339
SK,080 01,Petrovany - Vysielač,48.9918,21.1979
SK,080 05,Teriakovce,48.9898,21.3123
SK,080 05,Ruská Nová Ves,48.9773,21.3244
SK,080 06,Ľubotice,49.0116,21.2737
SK,080 06,Vyšná Šebastová,49.0159,21.3235
SK,080 06,Podhradík,49.0034,21.3491
SK,082 01,Drienovská Nová Ves,48.8997,21.2402
SK,082 01,Kendice,48.9249,21.2415
SK,082 03,Seniakovce,48.8254,21.3027
SK,082 03,Ličartovce,48.8761,21.2467
SK,082 03,Bretejovce,48.8277,21.2957
SK,082 03,Janovík,48.8202,21.2782
SK,082 03,Lemešany,48.8499,21.2711
SK,082 04,Drienov,48.8732,21.2738
SK,082 05,Brestov,48.8712,21.3509
SK,082 05,Varhaňovce,48.8556,21.3588
SK,082 05,Šarišské Bohdanovce,48.848,21.3182
SK,082 06,Mirkovce,48.8922,21.3257
SK,082 06,Žehňa,48.9177,21.3415
SK,082 07,Červenica,48.8868,21.449
SK,082 07,Lúčina,48.8931,21.4312
SK,082 07,Tuhrina,48.8994,21.406
SK,082 07,Lesíček,48.9181,21.3854
SK,082 12,Fulianka,49.064,21.3315
SK,082 12,Chmeľovec,49.0823,21.3666
SK,082 12,Lada,49.0435,21.3591
SK,082 12,Kapušany,49.0452,21.3335
SK,082 12,Nemcovce,49.0491,21.3824
SK,082 12,Okružná,49.0222,21.3714
SK,082 12,Podhorany,49.0837,21.3553
SK,082 12,Šarišská Poruba,49.0385,21.3865
SK,082 12,Lipníky,49.0447,21.4061
SK,082 12,Trnkov,49.0358,21.3579
SK,082 13,Tulčík,49.089,21.3097
SK,082 13,Demjata,49.1065,21.3139
SK,082 14,Šarišská Trstená,49.0867,21.3834
SK,082 14,Pušovce,49.0853,21.4102
SK,082 14,Čelovce,49.0797,21.3997
SK,082 14,Proč,49.0967,21.3916
SK,082 15,Chmeľov,49.068,21.4381
SK,082 15,Lipníky - Podhrabina,49.068,21.4381
SK,082 16,Záhradné,49.0908,21.2694
SK,082 16,Fintice,49.0519,21.2866
SK,082 21,Veľký Šariš,49.0411,21.1993
SK,082 21,Medzany,49.0432,21.1517
SK,082 32,Svinia,49.0127,21.1217
SK,082 32,Kojatice,48.9981,21.1305
SK,082 32,Lažany,49.036,21.0985
SK,082 33,Krížovany,48.9815,21.0498
SK,082 33,Chmiňany,49.0014,21.0678
SK,082 33,Chminianske Jakubovany,48.9966,21.0199
SK,082 33,Hrabkov,48.9597,21.0234
SK,082 33,Chminianska Nová Ves,49.0033,21.0825
SK,082 33,Ondrašovce,48.9884,21.0778
SK,082 35,Hermanovce,49.0458,21.0163
SK,082 35,Štefanovce,49.0418,20.9727
SK,082 35,Hendrichovce,49.0242,21.0001
SK,082 35,Bertotovce,49.0216,21.0242
SK,082 36,Lipovce,49.0562,20.9534
SK,082 36,Šindliar,49.0396,20.9439
SK,082 37,Fričovce,49.0167,20.963
SK,082 37,Široké,48.9979,20.9407
SK,082 38,Ovčie,48.9641,20.977
SK,082 38,Víťaz,48.9714,20.9565
SK,082 41,Rokycany,48.9611,21.142
SK,082 41,Brežany,48.9784,21.1101
SK,082 41,Žipov,48.9659,21.085
SK,082 41,Kvačany,48.9452,21.0865
SK,082 41,Bajerov,48.9535,21.1153
SK,082 42,Bzenov,48.9473,21.1667
SK,082 42,Ľubovec,48.9123,21.1747
SK,082 42,Janov,48.9389,21.1785
SK,082 42,Radatice,48.9261,21.1877
SK,082 43,Sedlice,48.9182,21.1181
SK,082 43,Suchá Dolina,48.9156,21.1433
SK,082 44,Klenov,48.9267,21.056
SK,082 44,Miklušovce,48.9167,21.0805
SK,082 52,Zlatá Baňa,48.9532,21.421
SK,082 52,Dulova Ves,48.9531,21.3061
SK,082 52,Abranovce,48.9318,21.3453
SK,082 52,Kokošovce,48.9441,21.3351
SK,082 53,Záborské,48.9451,21.2898
SK,082 53,Petrovany,48.9174,21.2605
SK,082 66,Gregorovce,49.0674,21.2076
SK,082 67,Geraltov,49.1394,21.2586
SK,082 67,Mošurov,49.1196,21.2531
SK,082 67,Veľký Slivník,49.1142,21.2751
SK,082 67,Terňa,49.1097,21.2387
SK,082 67,Malý Slivník,49.1183,21.2603
SK,082 22,Ostrovany,49.0632,21.1177
SK,082 22,Šarišské Michaľany,49.0679,21.1354
SK,082 56,Jakubova Voľa,49.1323,21.0156
SK,082 56,Hanigovce,49.1726,21.0179
SK,082 56,Červenica pri Sabinove,49.1359,21.0232
SK,082 56,Pečovská Nová Ves,49.1238,21.0437
SK,082 57,Ľutina,49.1676,21.0486
SK,082 57,Olejníkov,49.1819,21.0652
SK,082 61,Ražňany,49.0823,21.085
SK,082 61,Uzovský Šalgov,49.0917,21.0606
SK,082 63,Renčišov,49.0936,20.9639
SK,082 63,Jarovnice,49.058,21.0581
SK,082 63,Uzovské Pekľany,49.0879,21.0185
SK,082 63,Daletice,49.0401,21.0629
SK,082 66,Hubošovce,49.0964,21.2054
SK,082 66,Šarišské Sokolovce,49.1056,21.164
SK,082 66,Bodovce,49.1123,21.1766
SK,082 66,Uzovce,49.0942,21.1807
SK,082 66,Ratvaj,49.1128,21.1974
SK,082 71,Lipany,49.1538,20.9638
SK,082 71,Ďačov,49.1486,20.9292
SK,082 71,Milpoš,49.1802,21.005
SK,082 71,Dubovica,49.1363,20.954
SK,082 71,Kamenica,49.1889,20.9593
SK,082 71,Krivany,49.1694,20.912
SK,082 71,Rožkovany,49.1379,20.9899
SK,082 71,Lúčka,49.183,20.9818
SK,082 73,Šarišské Dravce,49.1752,20.8652
SK,082 73,Bajerovce,49.2138,20.7975
SK,082 73,Poloma,49.1678,20.8286
SK,082 73,Krásna Lúka,49.1936,20.8198
SK,082 74,Brezovica,49.15,20.85
SK,082 74,Tichý Potok,49.1471,20.7891
SK,082 74,Vysoká,49.1253,20.8822
SK,082 74,Brezovička,49.1287,20.855
SK,082 75,Nižný Slavkov,49.1023,20.8505
SK,082 76,Torysa,49.1608,20.8846
SK,082 76,Oľšov,49.18,20.8795
SK,083 01,Sabinov,49.1031,21.0988
SK,083 01,Červená Voda,49.1416,21.0807
SK,083 01,Jakubovany,49.1056,21.141
SK,083 01,Jakovany,49.153,21.0713
SK,083 01,Drienica,49.1311,21.1106
SK,067 34,Osadné,49.1407,22.1525
SK,067 35,Hostovice,49.1169,22.144
SK,067 35,Čukalovce,49.102,22.1695
SK,067 35,Parihuzovce,49.1083,22.1923
SK,067 35,Pčoliné,49.0662,22.1701
SK,067 61,Jalová,49.039,22.2374
SK,067 61,Kolonica,48.9578,22.2559
SK,067 61,Stakčín,49.0017,22.2296
SK,067 65,Topoľa,49.0442,22.356
SK,067 65,Runina,49.0713,22.4014
SK,067 66,Kolbasov,49.0065,22.3819
SK,067 66,Ruský Potok,49.0279,22.4102
SK,067 66,Príslop,49.0385,22.3265
SK,067 67,Uličské Krivé,48.9916,22.4373
SK,067 67,Ulič,48.9588,22.4281
SK,067 68,Nová Sedlica,49.0441,22.5149
SK,067 68,Zboj,49.0288,22.4837
SK,067 71,Ubľa,48.8994,22.3927
SK,067 72,Ruská Volová,48.9447,22.3663
SK,067 72,Kalná Roztoka,48.9683,22.3242
SK,067 72,Klenová,48.9411,22.3338
SK,067 73,Ubľa,48.8994,22.3927
SK,067 73,Hrabová Roztoka,48.8786,22.3004
SK,067 73,Strihovce,48.8965,22.2779
SK,067 73,Dúbrava,48.8758,22.3584
SK,067 73,Brezovec,48.9351,22.3864
SK,067 73,Michajlov,48.9098,22.3441
SK,067 73,Šmigovec,48.8919,22.317
SK,067 77,Zemplínske Hámre,48.95,22.1667
SK,067 81,Belá nad Cirochou,48.975,22.1076
SK,067 82,Dlhé nad Cirochou,48.9599,22.0623
SK,069 01,Snina,48.9886,22.151
SK,069 01,Pichne,49.0377,22.1214
SK,064 01,Stará Ľubovňa,49.2986,20.6862
SK,064 01,Chmeľnica,49.2961,20.7295
SK,065 01,Lacková,49.3078,20.5936
SK,065 01,Forbasy,49.2965,20.6107
SK,065 01,Hniezdne,49.3026,20.6329
SK,065 02,Nižné Ružbachy,49.2811,20.5775
SK,065 02,Vyšné Ružbachy,49.3039,20.5656
SK,065 03,Podolínec,49.2587,20.536
SK,065 03,Lomnička,49.2497,20.5696
SK,065 11,Nová Ľubovňa,49.2702,20.6835
SK,065 11,Kolačkov,49.2609,20.6288
SK,065 12,Jakubany,49.2481,20.6959
SK,065 22,Kremná,49.3585,20.6996
SK,065 22,Mníšek nad Popradom,49.414,20.7163
SK,065 22,Hraničné,49.3748,20.7002
SK,065 31,Jarabina,49.3356,20.6567
SK,065 31,Litmanová,49.3701,20.6229
SK,065 32,Kamienka,49.3324,20.6146
SK,065 33,Lesnica,49.402,20.4698
SK,065 33,Veľký Lipník,49.3735,20.5027
SK,065 33,Stráňany,49.367,20.5429
SK,065 34,Haligovce,49.3635,20.4478
SK,065 34,Veľká Lesná,49.3313,20.4369
SK,065 41,Pusté Pole,49.2172,20.9013
SK,065 41,Vislanka,49.2354,20.8612
SK,065 41,Ďurková,49.2406,20.8701
SK,065 41,Ľubotín,49.2634,20.8769
SK,065 42,Čirč,49.2787,20.9242
SK,065 42,Ruská Voľa nad Popradom,49.2965,20.9387
SK,065 42,Obručné,49.303,20.9817
SK,065 43,Orlov,49.2847,20.8696
SK,065 44,Plaveč,49.2627,20.8423
SK,065 45,Šambron,49.2242,20.7505
SK,065 45,Hajtovka,49.2964,20.7737
SK,065 45,Údol,49.2916,20.8076
SK,065 45,Hromoš,49.2522,20.7938
SK,065 45,Plavnica,49.2731,20.7798
SK,065 46,Legnava,49.3388,20.8512
SK,065 46,Sulín,49.37,20.763
SK,065 46,Malý Lipník,49.3393,20.8017
SK,065 46,Matysová,49.318,20.7556
SK,065 46,Starina,49.3248,20.8281
SK,065 48,Kyjov,49.2193,20.9423
SK,065 48,Šarišské Jastrabie,49.2429,20.9089
SK,090 21,Vislava,49.2815,21.6601
SK,090 21,Chotča,49.2464,21.6824
SK,090 21,Vyškovce,49.251,21.6693
SK,090 22,Oľšavka,49.2915,21.688
SK,090 22,Kožuchovce,49.32,21.7042
SK,090 22,Bukovce,49.2681,21.7151
SK,090 22,Gribov,49.2945,21.7229
SK,090 23,Staškovce,49.2797,21.754
SK,090 23,Bystrá,49.2436,21.8195
SK,090 23,Makovce,49.2582,21.7524
SK,090 23,Varechovce,49.2242,21.8069
SK,090 23,Havaj,49.2567,21.7866
SK,090 23,Vladiča,49.3145,21.7796
SK,090 24,Miková,49.296,21.8214
SK,090 24,Malá Poľana,49.2802,21.8235
SK,090 31,Soľník,49.2,21.7333
SK,090 31,Korunková,49.1994,21.747
SK,090 31,Jakušovce,49.158,21.7498
SK,090 31,Brusnica,49.1532,21.6979
SK,090 31,Krišľovce,49.139,21.7228
SK,090 31,Kolbovce,49.1645,21.7262
SK,090 32,Nižná Olšava,49.1433,21.6342
SK,090 32,Vyšná Olšava,49.1588,21.6019
SK,090 32,Kručov,49.1146,21.6063
SK,090 32,Miňovce,49.1345,21.6519
SK,090 33,Lomné,49.1058,21.6333
SK,090 33,Turany nad Ondavou,49.0997,21.6565
SK,090 33,Bžany,49.0914,21.6383
SK,090 34,Tokajík,49.1063,21.708
SK,090 34,Vyšný Hrabovec,49.0892,21.6877
SK,090 34,Mrázovce,49.1152,21.6742
SK,091 01,Potôčky,49.2095,21.7162
SK,091 01,Potoky,49.2586,21.6254
SK,091 01,Krušinec,49.2311,21.6626
SK,091 01,Šandal,49.1869,21.6173
SK,091 01,Tisinec,49.2213,21.637
SK,091 01,Breznička,49.223,21.7039
SK,091 01,Veľkrop,49.2416,21.7488
SK,091 01,Baňa,49.2159,21.6094
SK,091 01,Vojtovce,49.2052,21.6933
SK,091 01,Stropkov,49.2021,21.6522
SK,091 01,Duplín,49.2356,21.6248
SK,091 01,Breznica,49.1618,21.6582
SK,086 37,Cigla,49.3598,21.3971
SK,086 44,Dukovce,49.1217,21.4168
SK,086 44,Želmanovce,49.1182,21.4283
SK,086 44,Kuková,49.1095,21.4549
SK,087 01,Lužany pri Topli,49.1202,21.4926
SK,087 01,Železník,49.093,21.5023
SK,087 01,Kalnište,49.1307,21.4832
SK,087 01,Kobylnice,49.0914,21.5429
SK,087 01,Giraltovce,49.114,21.5173
SK,087 01,Fijaš,49.1267,21.5724
SK,087 01,Mičakovce,49.09,21.5206
SK,087 01,Kračúnovce,49.0952,21.488
SK,087 01,Lúčka,49.1041,21.4786
SK,089 01,Stročín,49.2647,21.595
SK,089 01,Vyšná Jedľová,49.347,21.5421
SK,089 01,Hrabovčík,49.2804,21.5568
SK,089 01,Belejovce,49.3739,21.5429
SK,089 01,Jurkova Voľa,49.3219,21.5124
SK,089 01,Svidník,49.3082,21.5703
SK,089 01,Nižná Jedľová,49.3373,21.5595
SK,089 01,Nová Polianka,49.2875,21.62
SK,089 01,Rakovčík,49.2445,21.576
SK,090 01,Dobroslava,49.3637,21.615
SK,090 01,Vyšná Pisaná,49.4019,21.6133
SK,090 01,Nižná Pisaná,49.3834,21.6016
SK,090 01,Kapišová,49.3457,21.5941
SK,090 02,Kružlová,49.3643,21.5819
SK,090 02,Vápeník,49.3941,21.5393
SK,090 02,Dlhoňa,49.4012,21.5706
SK,090 02,Svidnička,49.3841,21.5695
SK,090 02,Havranec,49.4111,21.5551
SK,090 03,Vagrinec,49.314,21.6273
SK,090 03,Hunkovce,49.3602,21.6519
SK,090 03,Ladomirová,49.3293,21.6237
SK,090 03,Krajné Čierno,49.3498,21.6612
SK,090 03,Šemetkovce,49.3084,21.6596
SK,090 05,Pstriná,49.3099,21.7471
SK,090 05,Krajná Porúbka,49.4127,21.6487
SK,090 05,Krajná Bystrá,49.3857,21.6746
SK,090 05,Medvedie,49.3991,21.6398
SK,090 05,Miroľa,49.3274,21.733
SK,090 05,Nižný Komárnik,49.3751,21.6969
SK,090 05,Bodružal,49.3537,21.7073
SK,090 05,Šarbov,49.427,21.6304
SK,090 05,Príkra,49.3623,21.7409
SK,090 05,Korejovce,49.3791,21.6431
SK,090 05,Krajná Poľana,49.3627,21.6848
SK,090 05,Vyšný Komárnik,49.4021,21.7056
SK,090 11,Kečkovce,49.3872,21.5128
SK,090 11,Vyšný Mirošov,49.3881,21.4451
SK,090 11,Nižný Orlík,49.3332,21.5286
SK,090 11,Vyšný Orlík,49.3438,21.5025
SK,090 11,Nižný Mirošov,49.3576,21.4752
SK,090 11,Roztoky,49.3899,21.493
SK,090 11,Dubová,49.362,21.4342
SK,090 16,Mlynárovce,49.2511,21.5307
SK,090 16,Kurimka,49.3184,21.439
SK,090 16,Rovné,49.2817,21.518
SK,090 16,Cernina,49.2958,21.4742
SK,090 41,Mestisko,49.2603,21.5808
SK,090 42,Matovce,49.1394,21.5451
SK,090 42,Štefurov,49.1759,21.5069
SK,090 42,Šarišský Štiavnik,49.2139,21.5676
SK,090 42,Okrúhle,49.1802,21.553
SK,090 42,Radoma,49.2029,21.5653
SK,090 42,Valkovce,49.1707,21.5268
SK,090 42,Beňadikovce,49.2311,21.5475
SK,090 42,Soboš,49.1459,21.5509
SK,093 01,Vranov nad Topľou,48.8884,21.6848
SK,093 01,Čičava,48.9244,21.6698
SK,093 01,Komárany,48.9199,21.6404
SK,093 01,Nižný Kručov,48.9131,21.653
SK,093 02,Hencovce,48.8764,21.734
SK,093 03,Kamenná Poruba,48.8476,21.6491
SK,093 03,Davidov,48.8265,21.631
SK,094 01,Tovarné,48.9132,21.7585
SK,094 01,Ondavské Matiašovce,48.937,21.7435
SK,094 01,Štefanovce,48.9598,21.7731
SK,094 01,Tovarnianska Polianka,48.8986,21.7726
SK,094 02,Slovenská Kajňa,48.9661,21.7009
SK,094 02,Benkovce,48.9509,21.7095
SK,094 02,Malá Domaša,48.9711,21.7111
SK,094 02,Kvakovce,48.9885,21.6707
SK,094 03,Žalobín,48.9695,21.7298
SK,094 04,Nová Kelča,49.0604,21.6936
SK,094 05,Rafajovce,49.0442,21.7371
SK,094 05,Giglovce,49.001,21.7306
SK,094 05,Holčíkovce,49.0177,21.7255
SK,094 05,Jasenovce,48.9946,21.7448
SK,094 05,Piskorovce,49.106,21.7348
SK,094 05,Ďapalovce,49.0669,21.7494
SK,094 06,Girovce,49.0136,21.7585
SK,094 09,Sedliská,48.906,21.7227
SK,094 09,Vyšný Kazimír,48.9405,21.6809
SK,094 09,Majerovce,48.8917,21.7172
SK,094 12,Vechec,48.8729,21.6301
SK,094 12,Banské,48.8299,21.5758
SK,094 12,Juskova Voľa,48.8794,21.5685
SK,094 13,Dlhé Klčovo,48.8108,21.7399
SK,094 13,Sačurov,48.8204,21.694
SK,094 14,Cabov,48.8025,21.6494
SK,094 14,Sečovská Polianka,48.7824,21.6839
SK,094 15,Zámutov,48.9014,21.557
SK,094 21,Kladzany,48.8843,21.7496
SK,094 21,Nižný Hrabovec,48.8534,21.7565
SK,094 21,Kučín,48.8691,21.7439
SK,094 21,Poša,48.8392,21.7598
SK,094 22,Nižný Hrušov,48.8075,21.773
SK,094 23,Dobrianky,48.969,21.6392
SK,094 23,Michalok,48.9897,21.635
SK,094 23,Merník,48.9483,21.6434
SK,094 31,Ruská Voľa,49.0968,21.5895
SK,094 31,Vavrinec,49.0491,21.5966
SK,094 31,Remeniny,49.0354,21.5531
SK,094 31,Ďurďoš,49.0465,21.5228
SK,094 31,Detrík,49.0422,21.6223
SK,094 31,Babie,49.0698,21.4913
SK,094 31,Hanušovce nad Topľou,49.0269,21.5041
SK,094 31,Vlača,49.0488,21.5106
SK,094 31,Prosačov,49.0436,21.5349
SK,094 31,Petrovce,48.9957,21.4762
SK,094 31,Medzianky,49.0373,21.4714
SK,094 31,Matiaška,49.062,21.5821
SK,094 31,Radvanovce,49.0495,21.4608
SK,094 31,Pavlovce,49.0259,21.4414
SK,094 33,Petkovce,49.0021,21.6002
SK,094 33,Skrabské,49.0073,21.5785
SK,094 33,Zlatník,48.9667,21.5422
SK,094 33,Vyšný Žipov,48.9847,21.5878
SK,094 34,Čierne nad Topľou,48.997,21.5673
SK,094 34,Bystré,49.0113,21.5429
SK,094 34,Hermanovce nad Topľou,48.9835,21.5104
SK,094 35,Hlinné,48.9507,21.5788
SK,094 35,Soľ,48.9278,21.5995
SK,094 35,Rudlov,48.9231,21.5726
SK,094 35,Čaklov,48.9075,21.6299
SK,094 35,Jastrabie nad Topľou,48.938,21.608
SK,054 11,Levoča,49.0217,20.5921
SK,054 13,Levoča,49.0217,20.5921
SK,054 27,Levoča,49.0217,20.5921
SK,054 28,Levoča,49.0217,20.5921
SK,054 29,Levoča,49.0217,20.5921
SK,054 45,Levoča,49.0217,20.5921
SK,054 50,Levoča,49.0217,20.5921
SK,054 65,Levoča,49.0217,20.5921
SK,054 67,Levoča,49.0217,20.5921
SK,054 68,Levoča,49.0217,20.5921
SK,054 70,Levoča,49.0217,20.5921
SK,058 02,Poprad 2,49.0458,20.3127
SK,058 06,Poprad 6,49.0458,20.3127
SK,058 08,Poprad 8,49.0458,20.3127
SK,058 09,Poprad 9,49.0458,20.3127
SK,058 27,Poprad 1,49.0458,20.3127
SK,058 44,Poprad 1,49.0458,20.3127
SK,058 45,Poprad 1,49.0458,20.3127
SK,058 52,Poprad 1,49.0458,20.3127
SK,058 89,Poprad 1,49.0458,20.3127
SK,060 03,Kežmarok 3,49.1363,20.4112
SK,060 26,Kežmarok 1,49.1363,20.4112
SK,060 42,Kežmarok 1,49.1363,20.4112
SK,064 27,Stará Ľubovňa,49.2986,20.6862
SK,064 29,Stará Ľubovňa,49.2986,20.6862
SK,066 02,Humenné 2,48.9352,21.8932
SK,066 03,Humenné 3,48.9352,21.8932
SK,066 11,Humenné 1,48.9352,21.8932
SK,066 18,Humenné 1,48.9352,21.8932
SK,066 22,Humenné 1,48.9352,21.8932
SK,066 23,Humenné 1,48.9352,21.8932
SK,066 24,Humenné 1,48.9352,21.8932
SK,066 27,Humenné 1,48.9352,21.8932
SK,066 28,Humenné 1,48.9352,21.8932
SK,066 31,Humenné 1,48.9352,21.8932
SK,066 37,Humenné 3,48.9352,21.8932
SK,066 39,Humenné 3,48.9352,21.8932
SK,066 42,Humenné 1,48.9352,21.8932
SK,066 43,Humenné 1,48.9352,21.8932
SK,066 44,Humenné 1,48.9352,21.8932
SK,066 54,Humenné 1,48.9352,21.8932
SK,066 57,Humenné 3,48.9352,21.8932
SK,066 58,Humenné 1,48.9352,21.8932
SK,066 70,Humenné 1,48.9352,21.8932
SK,066 80,Humenné 3,48.9352,21.8932
SK,066 83,Humenné 1,48.9352,21.8932
SK,066 84,Humenné 1,48.9352,21.8932
SK,069 03,Snina 3,49.0131,22.1362
SK,069 17,Snina 1,49.0131,22.1362
SK,069 19,Snina 1,49.0131,22.1362
SK,069 23,Snina 1,49.0131,22.1362
SK,069 27,Snina 1,49.0131,22.1362
SK,069 29,Snina 1,49.0131,22.1362
SK,069 34,Snina 1,49.0131,22.1362
SK,069 36,Snina 1,49.0131,22.1362
SK,069 44,Snina 1,49.0131,22.1362
SK,069 50,Snina 1,49.0131,22.1362
SK,080 02,Prešov 2,48.9957,21.2572
SK,080 03,Prešov 3,48.9957,21.2572
SK,080 07,Prešov 7,48.9957,21.2572
SK,080 09,Prešov 9,48.9957,21.2572
SK,080 10,Prešov 10,48.9957,21.2572
SK,080 16,Prešov 1,48.9957,21.2572
SK,080 20,Prešov 1,48.9957,21.2572
SK,080 21,Prešov 1,48.9957,21.2572
SK,080 26,Prešov 1,48.9957,21.2572
SK,080 28,Prešov 1,48.9957,21.2572
SK,080 42,Prešov 1,48.9957,21.2572
SK,080 85,Prešov 1,48.9957,21.2572
SK,081 06,Prešov 1,49.1402,21.2399
SK,081 08,Prešov 1,49.1402,21.2399
SK,081 11,Prešov 1,49.1402,21.2399
SK,081 13,Prešov 1,49.1402,21.2399
SK,081 27,Prešov 1,49.1402,21.2399
SK,081 35,Prešov 1,49.1402,21.2399
SK,081 50,Prešov 1,49.1402,21.2399
SK,081 54,Prešov 1,49.1402,21.2399
SK,081 59,Prešov 1,49.1402,21.2399
SK,081 60,Prešov 1,49.1402,21.2399
SK,081 70,Prešov 1,49.1402,21.2399
SK,081 73,Prešov 1,49.1402,21.2399
SK,081 77,Prešov 1,49.1402,21.2399
SK,081 78,Prešov 1,49.1402,21.2399
SK,081 81,Prešov 1,49.1402,21.2399
SK,081 84,Prešov 1,49.1402,21.2399
SK,081 86,Prešov 1,49.1402,21.2399
SK,081 89,Prešov 1,49.1402,21.2399
SK,083 14,Sabinov,49.1031,21.0988
SK,083 17,Sabinov,49.1031,21.0988
SK,083 18,Sabinov,49.1031,21.0988
SK,083 30,Sabinov,49.1031,21.0988
SK,085 03,Bardejov 3,49.2837,21.2317
SK,085 04,Bardejov 4,49.2837,21.2317
SK,085 06,Bardejov 1,49.2837,21.2317
SK,085 19,Bardejov 1,49.2837,21.2317
SK,085 20,Bardejov 1,49.2837,21.2317
SK,085 24,Bardejov 1,49.2837,21.2317
SK,085 36,Bardejov 1,49.2837,21.2317
SK,085 42,Bardejov 1,49.2837,21.2317
SK,085 46,Bardejov 1,49.2837,21.2317
SK,085 50,Bardejov 1,49.2837,21.2317
SK,085 64,Bardejov 1,49.2837,21.2317
SK,085 67,Bardejov 1,49.2837,21.2317
SK,085 69,Bardejov 1,49.2837,21.2317
SK,085 70,Bardejov 1,49.2837,21.2317
SK,085 71,Bardejov 1,49.2837,21.2317
SK,085 73,Bardejov 1,49.2837,21.2317
SK,085 75,Bardejov 1,49.2837,21.2317
SK,085 76,Bardejov 1,49.2837,21.2317
SK,085 87,Bardejov 1,49.2837,21.2317
SK,085 88,Bardejov 1,49.2837,21.2317
SK,085 98,Bardejov 1,49.2837,21.2317
SK,089 13,Svidník,49.3082,21.5703
SK,089 24,Svidník,49.3082,21.5703
SK,089 80,Svidník,49.3082,21.5703
SK,091 12,Stropkov,49.2021,21.6522
SK,091 80,Stropkov,49.2021,21.6522
SK,093 11,Vranov nad Topľou 1,48.8852,21.666
SK,093 12,Vranov nad Topľou 1,48.8852,21.666
SK,093 15,Vranov nad Topľou 1,48.8852,21.666
SK,093 16,Vranov nad Topľou 1,48.8852,21.666
SK,093 17,Vranov nad Topľou 1,48.8852,21.666
SK,093 18,Vranov nad Topľou 1,48.8852,21.666
SK,093 19,Vranov nad Topľou 1,48.8852,21.666
SK,093 21,Vranov nad Topľou 1,48.8852,21.666
SK,093 22,Vranov nad Topľou 1,48.8852,21.666
SK,093 24,Vranov nad Topľou 1,48.8852,21.666
SK,093 27,Vranov nad Topľou 1,48.8852,21.666
SK,093 28,Vranov nad Topľou 1,48.8852,21.666
SK,093 30,Vranov nad Topľou 1,48.8852,21.666
SK,093 32,Vranov nad Topľou 1,48.8852,21.666
SK,093 36,Vranov nad Topľou 1,48.8852,21.666
SK,093 37,Vranov nad Topľou 1,48.8852,21.666
SK,093 40,Vranov nad Topľou 1,48.8852,21.666
SK,093 41,Vranov nad Topľou 1,48.8852,21.666
SK,093 42,Vranov nad Topľou 1,48.8852,21.666
SK,093 43,Vranov nad Topľou 1,48.8852,21.666
SK,093 45,Vranov nad Topľou 1,48.8852,21.666
SK,093 46,Vranov nad Topľou 1,48.8852,21.666
SK,093 49,Vranov nad Topľou 1,48.8852,21.666
SK,093 51,Vranov nad Topľou 1,48.8852,21.666
SK,093 60,Vranov nad Topľou 1,48.8852,21.666
SK,929 01,Boheľov,47.9186,17.6923
SK,929 01,Dunajská Streda,47.9927,17.6121
SK,929 01,Malé Dvorníky,48.0151,17.6468
SK,929 01,Kútniky,47.9667,17.6667
SK,929 01,Pataš,47.8754,17.6523
SK,929 01,Padáň,47.9313,17.6828
SK,929 01,Povoda,47.9667,17.6333
SK,929 01,Veľké Dvorníky,48.0011,17.6563
SK,930 01,Veľké Blahovo,48.0037,17.5764
SK,930 02,Vieska,48.0042,17.5292
SK,930 02,Orechová Potôň,48.0171,17.5381
SK,930 03,Kostolné Kračany,47.9735,17.5734
SK,930 03,Lúč na Ostrove,47.9734,17.5144
SK,930 03,Kráľovičove Kračany,47.9853,17.5506
SK,930 04,Jurová,47.9336,17.5228
SK,930 04,Trstená na Ostrove,47.9178,17.4995
SK,930 04,Baka,47.9076,17.5217
SK,930 05,Gabčíkovo,47.8921,17.5788
SK,930 06,Sap,47.8167,17.6167
SK,930 06,Ňárad,47.8336,17.6125
SK,930 07,Kľúčovec,47.7981,17.7201
SK,930 07,Medveďov,47.8003,17.6651
SK,930 08,Čiližská Radvaň,47.8345,17.6961
SK,930 08,Baloň,47.8259,17.6779
SK,930 10,Dolný Štál,47.9333,17.7167
SK,930 10,Okoč - Jánošíkovo na Ostrove,47.9093,17.7573
SK,930 11,Topoľníky,47.9675,17.7902
SK,930 12,Ohrady,47.9833,17.7
SK,930 13,Horné Mýto,48.0112,17.751
SK,930 13,Trhová Hradská,47.99,17.7611
SK,930 14,Dolný Bar,47.9659,17.6881
SK,930 14,Mad,47.955,17.6583
SK,930 16,Vydrany,48.0181,17.5859
SK,930 21,Jahodná,48.053,17.7074
SK,930 21,Dunajský Klátov,48.0331,17.6957
SK,930 21,Jahodná pri Dunajskej Strede,48.043,17.7015
SK,930 25,Vrakúň,47.9429,17.6011
SK,930 28,Okoč,47.8876,17.8087
SK,930 30,Rohovce,47.9961,17.4114
SK,930 30,Báč,48.0026,17.3742
SK,930 30,Kyselica,47.9877,17.389
SK,930 31,Vojka nad Dunajom,47.9735,17.3815
SK,930 31,Bodíky,47.9232,17.4595
SK,930 31,Dobrohošť,47.9827,17.3656
SK,930 32,Trnávka,48.0138,17.4048
SK,930 32,Macov,48.0203,17.4305
SK,930 32,Blatná na Ostrove,48.0084,17.4426
SK,930 33,Horný Bar,47.9483,17.4627
SK,930 34,Holice,47.993,17.4818
SK,930 35,Michal na Ostrove,48.0246,17.5153
SK,930 35,Kútniky - Kolónia,48.0272,17.4233
SK,930 36,Horná Potôň,48.0389,17.4904
SK,930 37,Lehnice,48.0558,17.4634
SK,930 38,Nový Život,48.1154,17.459
SK,930 39,Oľdza,48.0854,17.4234
SK,930 39,Janíky,48.1398,17.3976
SK,930 39,Hubice,48.0966,17.3936
SK,930 39,Rastice,48.1167,17.4167
SK,930 39,Zlaté Klasy,48.122,17.4207
SK,930 39,Čenkovce,48.1062,17.4301
SK,930 40,Štvrtok na Ostrove,48.0992,17.3539
SK,930 40,Čakany,48.118,17.3662
SK,930 41,Kvetoslavov,48.0552,17.3382
SK,930 41,Hviezdoslavov,48.0679,17.3479
SK,930 41,Mierovo,48.0667,17.3833
SK,930 51,Veľká Paka,48.0406,17.4057
SK,930 52,Bellova Ves,48.0908,17.5131
SK,930 52,Orechová Potôň - Lúky,48.0871,17.5315
SK,930 52,Horná Potôň - Lúky,48.0871,17.5315
SK,930 52,Blahová,48.0833,17.55
SK,930 52,Potônske Lúky,48.0921,17.5935
SK,931 01,Šamorín,48.0301,17.3097
SK,932 01,Veľký Meder,47.858,17.7688
SK,924 01,Galanta,48.19,17.7275
SK,924 01,Gáň,48.2291,17.7189
SK,925 01,Matúškovo,48.1684,17.7318
SK,925 02,Dolné Saliby,48.1072,17.7817
SK,925 03,Horné Saliby,48.1231,17.7589
SK,925 04,Tomášikovo,48.0844,17.6915
SK,925 05,Vozokany,48.1058,17.6881
SK,925 06,Čierna Voda,48.129,17.6515
SK,925 07,Mostová,48.1401,17.6763
SK,925 08,Čierny Brod,48.1473,17.6532
SK,925 09,Košúty,48.1699,17.6576
SK,925 21,Sládkovičovo,48.2014,17.6385
SK,925 21,Malá Mača,48.2222,17.6394
SK,925 22,Jánovce,48.178,17.5324
SK,925 22,Veľké Úľany,48.1665,17.5752
SK,925 23,Jelka,48.1454,17.5113
SK,925 27,Veľký Grob,48.2497,17.4961
SK,925 27,Pusté Úľany,48.2315,17.5739
SK,925 28,Pusté Úľany,48.2315,17.5739
SK,925 32,Veľká Mača,48.2415,17.6899
SK,925 41,Kráľov Brod,48.0602,17.8281
SK,925 41,Dolný Chotár,48,17.8667
SK,925 42,Trstice,48.0145,17.8084
SK,925 45,Abrahám,48.2484,17.6188
SK,925 45,Hoste,48.2604,17.6394
SK,925 51,Šintava,48.2836,17.7583
SK,925 52,Šoporňa,48.2537,17.8166
SK,925 53,Pata,48.2775,17.823
SK,925 54,Šalgočka,48.3362,17.8133
SK,925 54,Pusté Sady,48.3134,17.8295
SK,925 54,Zemianske Sady,48.33,17.8199
SK,925 55,Vinohrady nad Váhom,48.3,17.7667
SK,925 62,Váhovce,48.2492,17.7854
SK,925 63,Dolná Streda,48.2691,17.7499
SK,925 92,Kajal,48.1862,17.7842
SK,925 92,Topoľnica,48.1698,17.7949
SK,926 01,Sereď,48.2912,17.7333
SK,919 33,Trakovice,48.4393,17.7116
SK,920 01,Koplotovce,48.4778,17.8082
SK,920 01,Hlohovec,48.4317,17.8031
SK,920 03,Hlohovec,48.4317,17.8031
SK,920 41,Leopoldov,48.4457,17.7646
SK,920 42,Červeník,48.4594,17.7569
SK,920 42,Žlkovce,48.461,17.718
SK,920 42,Ratkovce,48.4692,17.7203
SK,920 52,Siladice,48.3581,17.7425
SK,920 52,Dolné Zelenice,48.376,17.7476
SK,920 52,Horné Zelenice,48.3856,17.7597
SK,920 55,Bojničky,48.3901,17.7978
SK,920 56,Dvorníky,48.3514,17.7926
SK,920 61,Dolné Otrokovce,48.4681,17.9101
SK,920 61,Merašice,48.4622,17.9436
SK,920 61,Dolné Trhovište,48.4402,17.9043
SK,920 62,Horné Otrokovce,48.4912,17.8794
SK,920 62,Tekolďany,48.4931,17.9059
SK,920 63,Pastuchov,48.4263,17.8781
SK,920 64,Kľačany,48.3898,17.8712
SK,920 65,Sasinkovo,48.3712,17.8493
SK,920 66,Horné Trhovište,48.4681,17.8689
SK,920 66,Tepličky,48.4661,17.8522
SK,922 31,Jalšové,48.5094,17.8275
SK,922 42,Madunice,48.4772,17.7803
SK,921 01,Piešťany,48.5948,17.8259
SK,921 01,Banka,48.5855,17.8554
SK,922 01,Bašovce,48.6336,17.7965
SK,922 01,Ostrov,48.6273,17.7686
SK,922 01,Veľké Orvište,48.6188,17.7883
SK,922 02,Krakovany,48.612,17.7523
SK,922 03,Šterusy,48.6012,17.6801
SK,922 03,Vrbové,48.6197,17.7226
SK,922 03,Šípkové,48.6575,17.7181
SK,922 04,Kočín-Lančár,48.6017,17.6589
SK,922 04,Dolný Lopašov,48.5741,17.6463
SK,922 05,Chtelnica,48.5691,17.6231
SK,922 06,Nižná,48.5329,17.6504
SK,922 07,Pečeňady,48.4849,17.7202
SK,922 07,Veľké Kostoľany,48.5099,17.7219
SK,922 08,Dubovany,48.5281,17.7331
SK,922 08,Rakovice,48.5579,17.739
SK,922 08,Veselé,48.5497,17.7343
SK,922 09,Borovce,48.5725,17.7456
SK,922 10,Trebatice,48.5965,17.7515
SK,922 11,Prašník,48.6515,17.6873
SK,922 21,Ducové,48.6284,17.8665
SK,922 21,Hubina,48.6179,17.8847
SK,922 21,Moravany nad Váhom,48.6012,17.8583
SK,922 31,Sokolovce,48.5356,17.8436
SK,922 31,Ratnovce,48.5596,17.8451
SK,922 41,Drahovce,48.5159,17.8029
SK,905 01,Rovensko,48.7144,17.376
SK,905 01,Senica,48.6792,17.367
SK,906 02,Dojč,48.6775,17.2543
SK,906 03,Koválov,48.7041,17.2818
SK,906 03,Smrdáky,48.7223,17.3024
SK,906 04,Rohov,48.7272,17.3458
SK,906 04,Častkov,48.7483,17.3528
SK,906 04,Rybky,48.7093,17.3381
SK,906 05,Podbranč,48.7336,17.4523
SK,906 05,Sobotište,48.7351,17.4073
SK,906 07,Šajdíkove Humence,48.6543,17.2676
SK,906 11,Prietrž,48.6741,17.4415
SK,906 12,Hradište pod Vrátnom,48.627,17.4876
SK,906 12,Osuské,48.6242,17.44
SK,906 31,Hlboké,48.6592,17.4068
SK,906 32,Jablonica,48.606,17.4217
SK,906 33,Cerová,48.581,17.3899
SK,906 34,Prievaly,48.5568,17.3492
SK,906 35,Plavecký Peter,48.536,17.3251
SK,906 45,Štefanov,48.6792,17.201
SK,908 01,Kúty,48.66,17.0282
SK,908 41,Šaštín-Stráže,48.6372,17.1453
SK,908 42,Smolinské,48.6752,17.1302
SK,908 43,Čáry,48.6551,17.0913
SK,908 71,Moravský Svätý Ján,48.5916,17.0022
SK,908 76,Lakšárska Nová Ves,48.5769,17.1854
SK,908 77,Borský Mikuláš,48.6309,17.2145
SK,908 77,Bílkove Humence,48.5857,17.2381
SK,908 78,Kuklov,48.639,17.0726
SK,908 79,Borský Svätý Jur,48.6137,17.0466
SK,908 80,Sekule,48.601,17.0038
SK,908 44,Letničie,48.7115,17.1791
SK,908 44,Petrova Ves,48.7194,17.1619
SK,908 45,Gbely,48.718,17.1163
SK,908 46,Unín,48.7252,17.2145
SK,908 47,Radimov,48.7514,17.1958
SK,908 48,Kopčany,48.7872,17.1135
SK,908 48,Gbely - Cunín,48.7662,17.1015
SK,908 49,Prietržka,48.8053,17.1962
SK,908 49,Vrádište,48.8236,17.1909
SK,908 49,Kátov,48.8303,17.1699
SK,908 51,Holíč,48.8111,17.1624
SK,908 51,Trnovec,48.7991,17.1877
SK,908 61,Popudinské Močidľany,48.7852,17.2203
SK,908 62,Dubovce,48.7738,17.2462
SK,908 63,Radošovce,48.7719,17.2812
SK,908 63,Koválovec,48.7841,17.3026
SK,908 63,Lopašov,48.7512,17.3311
SK,908 63,Oreské,48.7443,17.3062
SK,908 64,Chropov,48.7742,17.3182
SK,908 65,Mokrý Háj,48.8128,17.2442
SK,908 85,Brodské,48.6909,17.0145
SK,909 01,Skalica,48.8449,17.2264
SK,917 01,Trnava,48.3774,17.5872
SK,917 02,Trnava,48.3774,17.5872
SK,917 05,Trnava,48.3774,17.5872
SK,917 08,Trnava,48.3774,17.5872
SK,919 01,Košolná,48.4246,17.4648
SK,919 01,Suchá nad Parnou,48.411,17.487
SK,919 01,Dlhá,48.4121,17.4275
SK,919 01,Zvončín,48.4007,17.5065
SK,919 02,Dolné Orešany,48.4397,17.4294
SK,919 03,Horné Orešany,48.4674,17.441
SK,919 04,Smolenice,48.5048,17.4307
SK,919 04,Lošonec,48.482,17.399
SK,919 05,Trstín,48.5268,17.4657
SK,919 05,Rasochov,48.5268,17.4657
SK,919 07,Bíňovce,48.5042,17.4807
SK,919 08,Boleráz,48.4681,17.4948
SK,919 09,Šelpice,48.4312,17.5313
SK,919 09,Bohdanovce nad Trnavou,48.43,17.5447
SK,919 10,Buková,48.5432,17.397
SK,919 21,Zeleneč,48.329,17.5954
SK,919 22,Majcichov,48.2846,17.6303
SK,919 23,Vlčkovce,48.317,17.6497
SK,919 24,Križovany nad Dudváhom,48.3333,17.6667
SK,919 25,Šúrovce,48.3312,17.7186
SK,919 26,Zavar,48.3528,17.6738
SK,919 27,Dolné Lovčice,48.3665,17.6763
SK,919 27,Brestovany,48.3883,17.6881
SK,919 28,Bučany,48.4158,17.6972
SK,919 29,Malženice,48.4501,17.675
SK,919 30,Jaslovské Bohunice,48.4755,17.6474
SK,919 30,Radošovce,48.4973,17.634
SK,919 32,Opoj,48.3021,17.6438
SK,919 34,Biely Kostol,48.3675,17.5304
SK,919 35,Hrnčiarovce nad Parnou,48.3426,17.5677
SK,919 42,Slovenská Nová Ves,48.2922,17.5338
SK,919 42,Pavlice,48.2579,17.5766
SK,919 42,Voderady,48.277,17.5594
SK,919 43,Cífer,48.3175,17.4899
SK,919 51,Špačince,48.4402,17.6074
SK,919 52,Dolné Dubové,48.4917,17.6102
SK,919 53,Dechtice,48.5469,17.5967
SK,919 54,Dobrá Voda,48.5972,17.5385
SK,919 55,Kátlovce,48.5243,17.6099
SK,919 61,Borová,48.3872,17.4452
SK,919 61,Ružindol,48.3718,17.4911
SK,919 65,Horné Dubové,48.5193,17.5638
SK,919 65,Dolná Krupá,48.4827,17.5511
SK,919 65,Naháč,48.5345,17.5327
SK,919 65,Horná Krupá,48.5163,17.5249
SK,905 03,Senica 3,48.6968,17.3715
SK,905 08,Senica 1,48.6968,17.3715
SK,905 11,Senica 1,48.6968,17.3715
SK,905 15,Senica 1,48.6968,17.3715
SK,905 25,Senica 1,48.6968,17.3715
SK,905 26,Senica 1,48.6968,17.3715
SK,905 28,Senica 1,48.6968,17.3715
SK,905 29,Senica 1,48.6968,17.3715
SK,905 30,Senica 1,48.6968,17.3715
SK,905 31,Senica 1,48.6968,17.3715
SK,905 32,Senica 1,48.6968,17.3715
SK,905 35,Senica 1,48.6968,17.3715
SK,905 40,Senica 1,48.6968,17.3715
SK,905 45,Senica 1,48.6968,17.3715
SK,905 47,Senica 1,48.6968,17.3715
SK,905 80,Senica 1,48.6968,17.3715
SK,905 91,Senica 1,48.6968,17.3715
SK,909 03,Skalica 3,48.8449,17.2264
SK,909 82,Skalica 1,48.8449,17.2264
SK,917 03,Trnava 3,48.3774,17.5872
SK,917 10,Trnava 10,48.3774,17.5872
SK,917 21,Trnava 1,48.3774,17.5872
SK,917 22,Trnava 1,48.3774,17.5872
SK,917 23,Trnava 1,48.3774,17.5872
SK,917 24,Trnava 1,48.3774,17.5872
SK,917 25,Trnava 1,48.3774,17.5872
SK,917 27,Trnava 1,48.3774,17.5872
SK,917 32,Trnava 1,48.3774,17.5872
SK,917 38,Trnava 1,48.3774,17.5872
SK,917 42,Trnava 1,48.3774,17.5872
SK,917 43,Trnava 1,48.3774,17.5872
SK,917 44,Trnava 1,48.3774,17.5872
SK,917 46,Trnava 1,48.3774,17.5872
SK,917 47,Trnava 1,48.3774,17.5872
SK,917 48,Trnava 1,48.3774,17.5872
SK,917 50,Trnava 1,48.3774,17.5872
SK,917 51,Trnava 1,48.3774,17.5872
SK,917 54,Trnava 1,48.3774,17.5872
SK,917 56,Trnava 1,48.3774,17.5872
SK,917 58,Trnava 1,48.3774,17.5872
SK,917 60,Trnava 1,48.3774,17.5872
SK,917 61,Trnava 1,48.3774,17.5872
SK,917 65,Trnava 1,48.3774,17.5872
SK,917 66,Trnava 1,48.3774,17.5872
SK,917 67,Trnava 1,48.3774,17.5872
SK,917 68,Trnava 1,48.3774,17.5872
SK,917 71,Trnava 1,48.3774,17.5872
SK,917 74,Trnava 1,48.3774,17.5872
SK,917 75,Trnava 2,48.3774,17.5872
SK,917 77,Trnava 1,48.3774,17.5872
SK,917 80,Trnava 1,48.3774,17.5872
SK,917 81,Trnava 1,48.3774,17.5872
SK,917 83,Trnava 1,48.3774,17.5872
SK,917 85,Trnava 1,48.3774,17.5872
SK,917 87,Trnava 1,48.3774,17.5872
SK,917 92,Trnava 1,48.3774,17.5872
SK,917 95,Trnava 2,48.3774,17.5872
SK,917 97,Trnava 1,48.3774,17.5872
SK,917 99,Trnava 1,48.3774,17.5872
SK,918 10,Trnava 1,48.6432,17.7792
SK,918 20,Trnava 1,48.6432,17.7792
SK,918 22,Trnava 1,48.6432,17.7792
SK,918 25,Trnava 1,48.6432,17.7792
SK,918 27,Trnava 1,48.6432,17.7792
SK,918 30,Trnava 2,48.6432,17.7792
SK,918 31,Trnava 1,48.6432,17.7792
SK,918 40,Trnava 1,48.6432,17.7792
SK,918 42,Trnava 1,48.6432,17.7792
SK,918 43,Trnava 1,48.6432,17.7792
SK,918 44,Trnava 1,48.6432,17.7792
SK,918 64,Trnava 1,48.6432,17.7792
SK,918 65,Trnava 1,48.6432,17.7792
SK,918 70,Trnava 1,48.6432,17.7792
SK,918 71,Trnava 1,48.6432,17.7792
SK,920 10,Hlohovec 1,48.4325,17.8217
SK,920 11,Hlohovec 1,48.4325,17.8217
SK,920 12,Hlohovec 1,48.4325,17.8217
SK,920 14,Hlohovec 1,48.4325,17.8217
SK,920 19,Hlohovec 1,48.4325,17.8217
SK,920 26,Hlohovec 1,48.4325,17.8217
SK,920 27,Hlohovec 1,48.4325,17.8217
SK,920 28,Hlohovec 1,48.4325,17.8217
SK,920 29,Hlohovec 1,48.4325,17.8217
SK,921 06,Piešťany 6,48.5901,17.8407
SK,921 12,Piešťany 1,48.5901,17.8407
SK,921 15,Piešťany 1,48.5901,17.8407
SK,921 16,Piešťany 1,48.5901,17.8407
SK,921 19,Piešťany 1,48.5901,17.8407
SK,921 21,Piešťany 1,48.5901,17.8407
SK,921 22,Piešťany 1,48.5901,17.8407
SK,921 25,Piešťany 1,48.5901,17.8407
SK,921 26,Piešťany 1,48.5901,17.8407
SK,921 28,Piešťany 1,48.5901,17.8407
SK,921 29,Piešťany 1,48.5901,17.8407
SK,921 45,Piešťany 1,48.5901,17.8407
SK,921 47,Piešťany 1,48.5901,17.8407
SK,921 49,Piešťany 1,48.5901,17.8407
SK,921 59,Piešťany 1,48.5901,17.8407
SK,921 63,Piešťany 1,48.5901,17.8407
SK,921 68,Piešťany 1,48.5901,17.8407
SK,921 69,Piešťany 1,48.5901,17.8407
SK,921 71,Piešťany 1,48.5901,17.8407
SK,921 72,Piešťany 1,48.5901,17.8407
SK,921 77,Piešťany 1,48.5901,17.8407
SK,921 79,Piešťany 1,48.5901,17.8407
SK,921 80,Piešťany 1,48.5901,17.8407
SK,924 14,Galanta 1,48.2096,17.7232
SK,924 18,Galanta 1,48.2096,17.7232
SK,924 19,Galanta 1,48.2096,17.7232
SK,924 22,Galanta 1,48.2096,17.7232
SK,924 23,Galanta 1,48.2096,17.7232
SK,924 25,Galanta 1,48.2096,17.7232
SK,924 27,Galanta 1,48.2096,17.7232
SK,924 29,Galanta 1,48.2096,17.7232
SK,924 36,Galanta 1,48.2096,17.7232
SK,924 41,Galanta 1,48.2096,17.7232
SK,924 52,Galanta 1,48.2096,17.7232
SK,924 57,Galanta 1,48.2096,17.7232
SK,924 81,Galanta 1,48.2096,17.7232
SK,926 14,Sereď 1,48.2912,17.7333
SK,926 21,Sereď 1,48.2912,17.7333
SK,929 04,Dunajská Streda 4,47.9584,17.6553
SK,929 12,Dunajská Streda 1,47.9584,17.6553
SK,929 13,Dunajská Streda 1,47.9584,17.6553
SK,929 16,Dunajská Streda 1,47.9584,17.6553
SK,929 21,Dunajská Streda 1,47.9584,17.6553
SK,929 24,Dunajská Streda 1,47.9584,17.6553
SK,929 27,Dunajská Streda 1,47.9584,17.6553
SK,929 31,Dunajská Streda 1,47.9584,17.6553
SK,929 36,Dunajská Streda 1,47.9584,17.6553
SK,929 46,Dunajská Streda 1,47.9584,17.6553
SK,929 48,Dunajská Streda 1,47.9584,17.6553
SK,929 63,Dunajská Streda 1,47.9584,17.6553
SK,929 71,Dunajská Streda 1,47.9584,17.6553
SK,931 03,Šamorín 3,48.0301,17.3097
SK,932 15,Veľký Meder,47.858,17.7688
SK,956 35,Pravotice,48.6831,18.292
SK,956 35,Vysočany,48.6789,18.3185
SK,956 35,Nedašovce,48.6695,18.3139
SK,956 36,Borčany,48.6588,18.2199
SK,956 36,Rybany,48.6665,18.2594
SK,956 36,Pečeňany,48.6754,18.2273
SK,956 37,Cimenná,48.7286,18.1409
SK,956 37,Zlatníky,48.7132,18.1235
SK,956 37,Malé Hoste,48.6973,18.1388
SK,956 38,Chudá Lehota,48.6486,18.1991
SK,956 38,Veľké Hoste,48.681,18.1576
SK,956 38,Libichava,48.6718,18.1722
SK,956 38,Pochabany,48.6907,18.1436
SK,956 38,Šišov,48.6567,18.1788
SK,956 41,Kšinná,48.8075,18.3529
SK,956 41,Horné Naštice,48.7356,18.2976
SK,956 41,Omastiná,48.7775,18.3882
SK,956 41,Uhrovec,48.7488,18.3384
SK,956 41,Žitná-Radiša,48.7667,18.3492
SK,956 52,Timoradza,48.8123,18.2354
SK,956 52,Podlužany,48.7726,18.237
SK,956 53,Slatina nad Bebravou,48.8366,18.2638
SK,956 53,Slatinka nad Bebravou,48.8461,18.2415
SK,956 53,Šípkov,48.8529,18.2951
SK,956 53,Čierna Lehota,48.865,18.3316
SK,956 53,Krásna Ves,48.8342,18.2353
SK,956 53,Trebichava,48.8224,18.3007
SK,956 54,Malá Hradná,48.7594,18.1605
SK,956 54,Veľké Držkovce,48.7353,18.1636
SK,956 54,Ruskovce,48.744,18.1918
SK,956 55,Haláčovce,48.7021,18.1972
SK,956 55,Otrhánky,48.6941,18.207
SK,956 55,Dvorec,48.7049,18.221
SK,956 55,Veľké Chlievany,48.7034,18.2302
SK,957 01,Brezolupy,48.7013,18.2999
SK,957 01,Uhrovec - Látkovce,48.7096,18.3575
SK,957 01,Miezgovce,48.7208,18.3122
SK,957 01,Dolné Naštice,48.694,18.2495
SK,957 01,Bánovce nad Bebravou,48.7213,18.2575
SK,957 03,Dubnička,48.7673,18.304
SK,957 03,Dežerice,48.7633,18.2164
SK,957 03,Prusy,48.7599,18.2607
SK,957 03,Ľutov,48.7767,18.2812
SK,957 04,Bánovce nad Bebravou,48.7213,18.2575
SK,018 31,Košecké Podhradie,48.972,18.3161
SK,018 32,Zliechov,48.9524,18.4347
SK,018 35,Horná Poruba,48.9415,18.305
SK,018 41,Dubnica nad Váhom,48.9598,18.1663
SK,018 51,Nová Dubnica,48.9348,18.1463
SK,018 52,Krivoklát,49.0449,18.1674
SK,018 52,Dulov,49.0394,18.2566
SK,018 52,Bohunice,49.0194,18.1957
SK,018 52,Vršatské Podhradie,49.0653,18.1543
SK,018 52,Pruské,49.0264,18.2126
SK,018 53,Bolešov,48.9873,18.1551
SK,018 53,Borčice,48.9782,18.1415
SK,018 54,Slavnica,48.9987,18.1792
SK,018 54,Kameničany,48.9911,18.1704
SK,018 54,Sedmerovec,49.0137,18.1743
SK,018 55,Tuchyňa,49.0414,18.2179
SK,018 56,Červený Kameň,49.0903,18.1774
SK,018 57,Mikušovce,49.0636,18.2066
SK,018 63,Ladce,49.04,18.2875
SK,018 64,Košeca,49.0089,18.2606
SK,019 01,Ilava,48.9977,18.2353
SK,906 06,Vrbovce,48.7995,17.469
SK,906 06,Chvojnica,48.7833,17.3667
SK,906 13,Hurbanova Dolina,48.6635,17.539
SK,906 13,Brezová pod Bradlom,48.6635,17.539
SK,906 14,Bukovec,48.6981,17.4967
SK,906 15,Košariská,48.6706,17.6024
SK,906 15,Priepasné,48.6953,17.5818
SK,906 21,Jablonka,48.75,17.6
SK,906 22,Poriadie,48.7755,17.6191
SK,906 23,Rudník,48.7577,17.6393
SK,907 01,Myjava,48.7588,17.5687
SK,907 01,Polianka,48.721,17.5825
SK,907 01,Stará Myjava,48.7932,17.5888
SK,907 01,Myjava 1,48.782,17.5746
SK,907 01,Brestovec,48.7941,17.5663
SK,907 03,Myjava 3,48.782,17.5746
SK,916 13,Kostolné,48.7356,17.7055
SK,916 14,Hrašné,48.75,17.6667
SK,916 16,Krajné,48.7024,17.6853
SK,916 16,Podkylava,48.6787,17.6664
SK,913 07,Trenčianske Bohuslavice,48.8012,17.861
SK,913 07,Zabudišová,48.8563,17.843
SK,913 07,Zemianske Podhradie,48.84,17.8335
SK,913 07,Haluzice,48.8238,17.867
SK,913 07,Bošáca,48.829,17.8404
SK,913 08,Nová Bošáca,48.8866,17.7902
SK,915 01,Nové Mesto nad Váhom,48.7576,17.8309
SK,915 01,Nové Mesto nad Váhom 1,48.7576,17.8309
SK,916 01,Jazviny,48.7807,17.6686
SK,916 01,Paprad,48.7843,17.6428
SK,916 01,Stará Turá,48.7772,17.6943
SK,916 01,Topolecká,48.7807,17.6686
SK,916 01,Černochov Vrch,48.7807,17.6686
SK,916 01,Súš,48.7807,17.6686
SK,916 11,Bzince pod Javorinou,48.7884,17.7745
SK,916 11,Rybníky,48.7817,17.7635
SK,916 11,Cetuna,48.7817,17.7635
SK,916 11,Hrušové,48.7749,17.7525
SK,916 11,Hrubá Strana,48.7817,17.7635
SK,916 12,Lubina,48.7845,17.7356
SK,916 12,Miškech Dedinka,48.7845,17.7356
SK,916 12,Hrnčiarové,48.7845,17.7356
SK,916 13,Vaďovce,48.7404,17.7216
SK,916 16,Višňové,48.7253,17.7534
SK,916 16,Hrachovište,48.7148,17.7297
SK,916 21,Čachtice,48.7123,17.787
SK,916 22,Podolie,48.6719,17.7712
SK,916 22,Očkov,48.6529,17.7658
SK,916 23,Pobedim,48.6498,17.8014
SK,916 24,Horná Streda,48.6564,17.8428
SK,916 25,Brunovce,48.6741,17.8533
SK,916 25,Potvorice,48.6887,17.8476
SK,916 26,Mošovce,48.7143,17.846
SK,916 26,Kríž nad Váhom,48.7,17.85
SK,916 26,Vieska,48.6989,17.8492
SK,916 26,Považany,48.7079,17.8468
SK,916 27,Častkovce,48.6921,17.7862
SK,916 31,Beckovská Vieska,48.7528,17.884
SK,916 31,Nová Ves nad Váhom,48.7304,17.8893
SK,916 31,Kočovce,48.7442,17.8875
SK,916 31,Rakoľuby,48.7667,17.8833
SK,916 32,Hôrka nad Váhom,48.7207,17.8924
SK,916 33,Hrádok,48.6963,17.883
SK,916 33,Lúka,48.6573,17.8802
SK,916 35,Stará Lehota,48.6507,17.9518
SK,916 35,Modrovka,48.6501,17.8812
SK,916 35,Nová Lehota,48.6576,17.9804
SK,916 35,Modrová,48.6438,17.8986
SK,916 37,Kálnica,48.7632,17.9219
SK,916 38,Beckov,48.7922,17.8932
SK,916 41,Dolné Srnie,48.8022,17.8206
SK,916 42,Brestové,48.8193,17.7953
SK,916 42,Moravské Lieskové,48.8193,17.7953
SK,916 42,Šance,48.8193,17.7953
SK,916 42,Bučkovec,48.8193,17.7953
SK,956 18,Bošany,48.5788,18.2486
SK,956 32,Livinské Opatovce,48.6482,18.2343
SK,956 32,Nadlice,48.6228,18.2472
SK,956 32,Livina,48.6493,18.2501
SK,956 33,Chynorany,48.6076,18.2765
SK,956 34,Ostratice,48.6477,18.2776
SK,958 01,Partizánske,48.6286,18.3846
SK,958 03,Pažiť,48.6315,18.4345
SK,958 03,Malé Kršteňany,48.6386,18.4281
SK,958 03,Malé Uherce,48.6204,18.4037
SK,958 03,Veľké Kršteňany,48.6454,18.4119
SK,958 04,Partizánske,48.6286,18.3846
SK,958 06,Partizánske,48.6286,18.3846
SK,958 41,Veľké Uherce,48.6068,18.4405
SK,958 41,Kolačno,48.5925,18.4264
SK,958 42,Brodzany,48.6083,18.3454
SK,958 43,Krásno,48.5973,18.3101
SK,958 43,Nedanovce,48.5938,18.2962
SK,958 44,Turčianky,48.5812,18.3224
SK,958 44,Klátova Nová Ves,48.5656,18.3046
SK,958 45,Veľký Klíž,48.5536,18.3688
SK,958 45,Ješkova Ves,48.5501,18.3449
SK,958 52,Žabokreky nad Nitrou,48.6242,18.3025
SK,958 53,Skačany,48.6619,18.3815
SK,958 54,Hradište,48.6843,18.3745
SK,017 01,Považská Bystrica,49.1215,18.4217
SK,017 01,Sverepec,49.0801,18.408
SK,017 04,Považská Bystrica,49.1215,18.4217
SK,017 05,Záskalie,49.1361,18.5174
SK,017 05,Kostolec,49.1271,18.531
SK,017 05,Vrchteplá,49.1301,18.5627
SK,017 06,Považská Bystrica,49.1215,18.4217
SK,017 07,Považská Bystrica,49.1215,18.4217
SK,018 01,Udiča,49.1667,18.4
SK,018 02,Dolná Mariková,49.25,18.3667
SK,018 02,Klieština,49.1823,18.3547
SK,018 02,Hatné,49.1864,18.3825
SK,018 03,Horná Mariková,49.2462,18.3092
SK,018 12,Brvnište,49.211,18.4307
SK,018 12,Stupné,49.1935,18.4409
SK,018 13,Papradno,49.2297,18.4115
SK,018 15,Bodiná,49.1081,18.5644
SK,018 15,Počarová,49.0705,18.5143
SK,018 15,Prečín,49.0842,18.5209
SK,018 16,Domaniža,49.0443,18.5574
SK,018 16,Sádočné,49.0193,18.5443
SK,018 16,Čelkova Lehota,49.0166,18.5268
SK,018 16,Malé Lednice,49.069,18.5729
SK,018 17,Jasenica,49.1801,18.4511
SK,018 21,Dolný Lieskov,49.0518,18.4215
SK,018 21,Horný Lieskov,49.0649,18.436
SK,018 21,Slopná,49.0487,18.4056
SK,018 22,Pružina,49.0163,18.48
SK,018 22,Dolný Lieskov - Tŕstie,49.0391,18.437
SK,018 22,Ďurďové,49.028,18.4984
SK,018 22,Podskalie,49.0448,18.4555
SK,018 26,Plevník-Drienové,49.1667,18.5
SK,971 01,Veľká Čausa,48.7777,18.696
SK,971 01,Prievidza,48.7745,18.6275
SK,971 01,Malá Čausa,48.7998,18.7021
SK,971 01,Cigeľ,48.7138,18.64
SK,972 01,Šútovce,48.8019,18.5369
SK,972 01,Bojnice,48.7851,18.5864
SK,972 02,Opatovce nad Nitrou,48.7645,18.5717
SK,972 02,Kocurany,48.7717,18.5439
SK,972 05,Sebedražie,48.7295,18.6226
SK,972 11,Lazany,48.8208,18.6195
SK,972 11,Poruba,48.8322,18.5913
SK,972 12,Nedožery-Brezany,48.8188,18.6465
SK,972 13,Nitrianske Pravno,48.8684,18.6336
SK,972 13,Chvojnica,48.8802,18.5627
SK,972 13,Malinová,48.8543,18.6142
SK,972 14,Tužina,48.8949,18.6157
SK,972 15,Kľačno,48.9,18.65
SK,972 16,Poluvsie,48.8446,18.6395
SK,972 16,Pravenec,48.8561,18.649
SK,972 17,Kanianka,48.8164,18.5854
SK,972 21,Nitrianske Sučany,48.7335,18.4684
SK,972 22,Horné Vestenice,48.7126,18.4293
SK,972 22,Nitrica,48.705,18.4509
SK,972 23,Dolné Vestenice,48.7034,18.3971
SK,972 24,Diviacka Nová Ves,48.7479,18.4965
SK,972 25,Diviaky nad Nitricou,48.7669,18.4918
SK,972 26,Seč,48.8213,18.5019
SK,972 26,Rudnianska Lehota,48.8078,18.4605
SK,972 26,Dlžín,48.8103,18.5135
SK,972 26,Kostolná Ves,48.8079,18.491
SK,972 26,Nitrianske Rudno,48.7954,18.4774
SK,972 27,Liešťany,48.8252,18.4788
SK,972 27,Nevidzany,48.8434,18.4869
SK,972 28,Valaská Belá,48.888,18.3952
SK,972 29,Temeš,48.8688,18.4773
SK,972 29,Čavoj,48.8862,18.4968
SK,972 31,Ráztočno,48.7694,18.7591
SK,972 31,Jalovec,48.7709,18.7424
SK,972 32,Lipník,48.7801,18.711
SK,972 32,Chrenovec-Brusno,48.7787,18.7267
SK,972 41,Koš,48.7414,18.5861
SK,972 42,Lehota pod Vtáčnikom,48.6914,18.5994
SK,972 42,Podhradie,48.6855,18.6344
SK,972 43,Zemianske Kostoľany,48.6876,18.5268
SK,972 44,Kamenec pod Vtáčnikom,48.6727,18.5496
SK,972 45,Bystričany,48.6597,18.5153
SK,972 46,Čereňany,48.6448,18.4874
SK,972 47,Oslany,48.6314,18.4703
SK,972 48,Radobica,48.5832,18.5022
SK,972 48,Horná Ves,48.6075,18.4898
SK,972 51,Ráztočno - Remata,48.7276,18.7601
SK,972 51,Handlová,48.7276,18.7601
SK,972 71,Nováky,48.7111,18.5339
SK,018 61,Visolaje,49.0674,18.3627
SK,018 61,Beluša,49.0649,18.3268
SK,020 01,Dolné Kočkovce,49.0944,18.3253
SK,020 01,Púchov,49.1249,18.326
SK,020 01,Streženice,49.1078,18.3058
SK,020 01,Vieska - Bezdedov,49.1336,18.2995
SK,020 01,Bezdedov - Vieska,49.1336,18.2995
SK,020 51,Dohňany,49.1487,18.2857
SK,020 52,Mestečko,49.1729,18.2599
SK,020 52,Záriečie,49.1839,18.2433
SK,020 53,Lúky,49.1898,18.2277
SK,020 53,Gaškovce,49.1982,18.2411
SK,020 53,Vydrná,49.2067,18.2544
SK,020 53,Pasiečka,49.1982,18.2411
SK,020 54,Lysá pod Makytou,49.1971,18.1964
SK,020 55,Lazy pod Makytou,49.2254,18.2139
SK,020 61,Lednické Rovne,49.0665,18.2848
SK,020 61,Dolná Breznica,49.0806,18.2608
SK,020 61,Horná Breznica,49.1095,18.2497
SK,020 62,Horovce,49.0465,18.2582
SK,020 62,Kvašov,49.0701,18.2267
SK,020 63,Lednica,49.1062,18.2159
SK,020 64,Zubák,49.1497,18.216
SK,020 71,Nimnica,49.1396,18.3566
SK,020 72,Mojtín,48.9858,18.4019
SK,911 01,Trenčín,48.8945,18.0444
SK,911 05,Zamarovce,48.9109,18.0498
SK,911 06,Trenčín,48.8945,18.0444
SK,911 08,Trenčín,48.8945,18.0444
SK,913 03,Drietoma,48.8942,17.952
SK,913 04,Kostolná-Záriečie,48.8787,17.9695
SK,913 04,Chocholná-Velčice,48.871,17.9359
SK,913 05,Štvrtok,48.8197,17.8812
SK,913 05,Melčice-Lieskové,48.8448,17.9096
SK,913 05,Adamovské Kochanovce,48.8531,17.9259
SK,913 05,Ivanovce,48.8301,17.9075
SK,913 11,Bodovka - Krivosúd,48.8552,17.9796
SK,913 11,Opatovce,48.8579,17.9761
SK,913 11,Krivosúd-Bodovka,48.8191,17.9436
SK,913 11,Trenčianske Stankovce,48.8365,17.9856
SK,913 11,Veľké Bierovce,48.8524,17.983
SK,913 21,Trenčianska Turná,48.8514,18.0197
SK,913 21,Mníchova Lehota,48.8356,18.0607
SK,913 22,Trenčianske Jastrabie,48.8013,18.1085
SK,913 22,Trenčianske Mitice,48.8141,18.1172
SK,913 23,Dubodiel,48.7612,18.1113
SK,913 24,Svinná,48.7878,18.1637
SK,913 24,Veľká Hradná,48.7685,18.1422
SK,913 24,Horňany,48.778,18.195
SK,913 25,Bobot,48.806,18.1914
SK,913 26,Petrova Lehota,48.8704,18.1741
SK,913 26,Motešice,48.8309,18.1805
SK,913 26,Neporadza,48.8206,18.1519
SK,913 31,Skalka nad Váhom,48.9264,18.0704
SK,913 32,Hrabovka,48.9341,18.0379
SK,913 32,Dolná Súča,48.9608,18.032
SK,913 33,Horná Súča,48.9729,17.9771
SK,913 36,Selec,48.784,17.9908
SK,913 38,Soblahov,48.8644,18.0726
SK,914 01,Trenčianska Teplá,48.9365,18.1174
SK,914 41,Nemšová,48.967,18.1189
SK,914 42,Horné Srnie,48.9918,18.1001
SK,914 43,Dolná Poruba,48.9121,18.2971
SK,914 43,Omšenie,48.9007,18.2256
SK,914 51,Trenčianske Teplice,48.9106,18.1669
SK,017 13,Považská Bystrica 1,49.1199,18.4632
SK,017 21,Považská Bystrica 1,49.1199,18.4632
SK,017 23,Považská Bystrica 1,49.1199,18.4632
SK,017 26,Považská Bystrica 1,49.1199,18.4632
SK,017 33,Považská Bystrica 1,49.1199,18.4632
SK,017 34,Považská Bystrica 1,49.1199,18.4632
SK,017 36,Považská Bystrica 1,49.1199,18.4632
SK,017 39,Považská Bystrica 1,49.1199,18.4632
SK,017 46,Považská Bystrica 1,49.1199,18.4632
SK,017 53,Považská Bystrica 1,49.1199,18.4632
SK,017 80,Považská Bystrica 1,49.1199,18.4632
SK,018 50,Dubnica nad Váhom 10,49.021,18.1825
SK,019 17,Ilava,48.9977,18.2353
SK,020 18,Púchov 1,49.1273,18.2718
SK,020 25,Púchov 1,49.1273,18.2718
SK,020 32,Púchov 1,49.1273,18.2718
SK,020 39,Púchov 1,49.1273,18.2718
SK,907 13,Myjava 1,48.782,17.5746
SK,907 14,Myjava 1,48.782,17.5746
SK,911 03,Trenčín 3,48.8986,18.0457
SK,911 04,Trenčín 4,48.8986,18.0457
SK,911 27,Trenčín 1,48.8986,18.0457
SK,911 32,Trenčín 1,48.8986,18.0457
SK,911 33,Trenčín 1,48.8986,18.0457
SK,911 37,Trenčín 5,48.8986,18.0457
SK,911 38,Trenčín 5,48.8986,18.0457
SK,911 42,Trenčín 1,48.8986,18.0457
SK,911 49,Trenčín 1,48.8986,18.0457
SK,911 50,Trenčín 1,48.8986,18.0457
SK,911 52,Trenčín 1,48.8986,18.0457
SK,911 62,Trenčín 1,48.8986,18.0457
SK,911 64,Trenčín 1,48.8986,18.0457
SK,911 67,Trenčín 5,48.8986,18.0457
SK,911 69,Trenčín 1,48.8986,18.0457
SK,911 71,Trenčín 1,48.8986,18.0457
SK,911 79,Trenčín 1,48.8986,18.0457
SK,911 80,Trenčín 1,48.8986,18.0457
SK,911 82,Trenčín 1,48.8986,18.0457
SK,911 96,Trenčín 1,48.8986,18.0457
SK,912 50,Trenčín 1,48.6432,17.7792
SK,915 03,Nové Mesto nad Váhom 3,48.7576,17.8309
SK,915 15,Nové Mesto nad Váhom 1,48.7576,17.8309
SK,915 17,Nové Mesto nad Váhom 1,48.7576,17.8309
SK,915 19,Nové Mesto nad Váhom 1,48.7576,17.8309
SK,915 24,Nové Mesto nad Váhom 1,48.7576,17.8309
SK,915 28,Nové Mesto nad Váhom 1,48.7576,17.8309
SK,915 31,Nové Mesto nad Váhom 1,48.7576,17.8309
SK,915 32,Nové Mesto nad Váhom 1,48.7576,17.8309
SK,915 41,Nové Mesto nad Váhom 1,48.7576,17.8309
SK,956 43,Kšinná,48.8075,18.3529
SK,957 16,Bánovce nad Bebravou 1,48.7335,18.2797
SK,957 17,Bánovce nad Bebravou 1,48.7335,18.2797
SK,958 07,Partizánske 7,48.6317,18.4045
SK,958 14,Partizánske 1,48.616,18.3712
SK,958 17,Partizánske 1,48.616,18.3712
SK,958 22,Partizánske 1,48.616,18.3712
SK,958 24,Partizánske 1,48.616,18.3712
SK,958 26,Partizánske 1,48.616,18.3712
SK,958 29,Partizánske 1,48.616,18.3712
SK,971 04,Prievidza 4,48.7665,18.6664
SK,971 06,Prievidza 6,48.7665,18.6664
SK,971 12,Prievidza 1,48.7665,18.6664
SK,971 13,Prievidza 1,48.7665,18.6664
SK,971 19,Prievidza 1,48.7665,18.6664
SK,971 26,Prievidza 1,48.7665,18.6664
SK,971 27,Prievidza 1,48.7665,18.6664
SK,971 31,Prievidza 1,48.7665,18.6664
SK,971 34,Prievidza 1,48.7665,18.6664
SK,971 36,Prievidza 1,48.7665,18.6664
SK,971 44,Prievidza 1,48.7665,18.6664
SK,971 48,Prievidza 1,48.7665,18.6664
SK,971 51,Prievidza 1,48.7665,18.6664
SK,971 53,Prievidza 1,48.7665,18.6664
SK,971 55,Prievidza 1,48.7665,18.6664
SK,971 57,Prievidza 1,48.7665,18.6664
SK,971 58,Prievidza 1,48.7665,18.6664
SK,971 66,Prievidza 1,48.7665,18.6664
SK,971 68,Prievidza 1,48.7665,18.6664
SK,971 72,Prievidza 1,48.7665,18.6664
SK,971 73,Prievidza 1,48.7665,18.6664
SK,971 74,Prievidza 1,48.7665,18.6664
SK,971 80,Prievidza 1,48.7665,18.6664
SK,013 51,Maršová-Rašov,49.1819,18.5139
SK,013 51,Predmier,49.1985,18.5327
SK,013 52,Súľov-Hradná,49.1483,18.5902
SK,013 52,Jablonové,49.1839,18.5645
SK,013 53,Petrovice,49.2579,18.5235
SK,013 54,Kolárovice,49.2723,18.5333
SK,013 55,Štiavnik,49.2384,18.4671
SK,013 56,Hvozdnica,49.2104,18.4894
SK,013 61,Kotešová,49.2414,18.5991
SK,013 62,Veľké Rovné,49.2913,18.5843
SK,014 01,Bytča,49.224,18.5588
SK,014 01,Hlboké nad Váhom,49.2111,18.5899
SK,022 01,Čadca,49.435,18.7889
SK,022 04,Čadca,49.435,18.7889
SK,023 01,Oščadnica,49.4357,18.8819
SK,023 02,Krásno nad Kysucou,49.3957,18.8343
SK,023 02,Dunajov,49.362,18.8214
SK,023 03,Zborov nad Bystricou,49.3797,18.8866
SK,023 04,Stará Bystrica,49.3474,18.9491
SK,023 04,Klubina,49.3544,18.8935
SK,023 04,Radôstka,49.3192,18.9395
SK,023 05,Nová Bystrica,49.345,19.0145
SK,023 11,Zákopčie,49.4073,18.7318
SK,023 11,Blažková,49.4073,18.7318
SK,023 12,Svrčinovec,49.4809,18.7962
SK,023 13,Čierne,49.4936,18.8195
SK,023 14,Skalité,49.4966,18.8971
SK,023 21,Korňa,49.4153,18.5536
SK,023 22,Klokočov,49.4483,18.5648
SK,023 51,Raková,49.4448,18.7379
SK,023 52,Olešná pri Čadci,49.4236,18.6762
SK,023 52,Olešná,49.4236,18.6762
SK,023 52,Klokočov - Hrubý Buk,49.4236,18.6762
SK,023 53,Staškov,49.421,18.6869
SK,023 54,Turzovka,49.4043,18.6226
SK,023 54,Dlhá nad Kysucou,49.3895,18.6401
SK,023 55,Vysoká nad Kysucou,49.3785,18.5441
SK,023 56,Makov,49.3705,18.4804
SK,023 57,Podvysoká,49.4127,18.6646
SK,026 01,Dolný Kubín,49.2098,19.3034
SK,026 01,Jasenová,49.1764,19.2957
SK,026 01,Pucov,49.2177,19.3785
SK,026 01,Leštiny,49.1885,19.3521
SK,026 01,Malatiná,49.1863,19.433
SK,026 01,Vyšný Kubín,49.1844,19.317
SK,026 01,Pokryváč,49.2029,19.394
SK,026 01,Osádka,49.1846,19.3885
SK,026 01,Bziny,49.2274,19.3232
SK,026 01,Párnica,49.1942,19.1976
SK,026 01,Medzibrodie nad Oravou,49.2352,19.3419
SK,027 05,Zázrivá,49.2763,19.1536
SK,027 21,Žaškov,49.1724,19.2174
SK,027 41,Horná Lehota,49.2543,19.4026
SK,027 41,Pribiš,49.2208,19.4051
SK,027 41,Oravský Podzámok,49.2594,19.3569
SK,027 51,Kraľovany,49.1518,19.1306
SK,027 53,Istebné,49.2151,19.2217
SK,027 54,Oravská Poruba,49.1969,19.2612
SK,027 54,Veličná - Revišné,49.2199,19.241
SK,027 54,Veličná,49.207,19.2473
SK,027 55,Krivá,49.2835,19.4798
SK,027 55,Sedliacka Dubová,49.2605,19.4299
SK,027 55,Dlhá nad Oravou,49.2667,19.45
SK,027 55,Chlebnice,49.2321,19.4624
SK,023 31,Rudinka,49.2723,18.7506
SK,023 31,Rudina,49.2888,18.7355
SK,023 31,Rudinská,49.315,18.7176
SK,023 32,Snežnica,49.2653,18.7872
SK,023 33,Povina,49.3117,18.81
SK,023 34,Lodno,49.3346,18.8678
SK,023 34,Kysucký Lieskovec,49.3388,18.8161
SK,023 35,Ochodnica,49.3489,18.7896
SK,023 36,Lopušné Pažite,49.2746,18.8379
SK,023 36,Radoľa,49.2942,18.7924
SK,023 41,Nesluša,49.3177,18.7415
SK,023 45,Horný Vadičov,49.275,18.8937
SK,023 45,Dolný Vadičov,49.2701,18.8462
SK,024 01,Kysucké Nové Mesto,49.3,18.7833
SK,024 04,Kysucké Nové Mesto,49.3,18.7833
SK,027 32,Huty,49.2224,19.5728
SK,027 32,Veľké Borové,49.198,19.5195
SK,027 32,Malé Borové,49.2271,19.5334
SK,031 01,Demänovská Dolina,48.9709,19.5843
SK,031 01,Pavčina Lehota,49.0331,19.564
SK,031 01,Liptovský Mikuláš,49.0806,19.6222
SK,031 01,Liptovský Trnovec,49.1204,19.5471
SK,031 04,Veterná Poruba,49.1091,19.6764
SK,031 05,Bobrovec-Škorupovo,49.0628,19.5988
SK,032 02,Závažná Poruba,49.054,19.6491
SK,032 03,Liptovský Ján,49.0486,19.6785
SK,032 03,Uhorská Ves,49.0584,19.6823
SK,032 04,Beňadiková,49.0756,19.6805
SK,032 04,Liptovský Ondrej,49.0974,19.713
SK,032 04,Konská,49.1179,19.7177
SK,032 04,Jakubovany,49.1031,19.7248
SK,032 05,Smrečany,49.1194,19.6518
SK,032 05,Žiar,49.1308,19.6652
SK,032 11,Lazisko,49.0295,19.5411
SK,032 11,Galovany,49.0736,19.5325
SK,032 11,Svätý Kríž,49.05,19.5333
SK,032 12,Dúbrava,49.0391,19.4953
SK,032 13,Vlachy,49.0931,19.478
SK,032 14,Liptovské Kľačany,49.0335,19.475
SK,032 14,Gôtovany,49.0603,19.5043
SK,032 14,Ľubeľa,49.0522,19.4793
SK,032 15,Malatíny,49.0692,19.4592
SK,032 15,Železnô,49.067,19.4472
SK,032 15,Partizánska Ľupča,49.0648,19.4352
SK,032 21,Bobrovec,49.1211,19.6141
SK,032 21,Trstené,49.1122,19.6192
SK,032 21,Bobrovček,49.1437,19.6045
SK,032 21,Pavlova Ves,49.1293,19.5842
SK,032 21,Liptovské Beharovce,49.1366,19.5779
SK,032 21,Jalovec,49.1363,19.6295
SK,032 23,Bobrovník,49.1162,19.4768
SK,032 23,Liptovská Sielnica - Brnice,49.138,19.5107
SK,032 23,Liptovské Matiašovce,49.1606,19.5649
SK,032 23,Liptovská Sielnica,49.1431,19.5142
SK,032 23,Bukovina,49.1348,19.4708
SK,032 23,Liptovská Anna,49.1467,19.4687
SK,032 23,Ižipovce,49.1405,19.4911
SK,032 23,Prosiek,49.1458,19.5017
SK,032 23,Kvačany,49.1683,19.5436
SK,032 31,Hybe,49.0444,19.8289
SK,032 32,Východná,49.0591,19.8901
SK,032 33,Kráľova Lehota,49.0226,19.7899
SK,032 34,Nižná Boca,48.9481,19.7695
SK,032 34,Vyšná Boca,48.9266,19.7527
SK,032 34,Malužiná,48.9804,19.7689
SK,032 42,Vavrišovo,49.0713,19.7616
SK,032 42,Pribylina,49.0995,19.7943
SK,032 44,Liptovská Kokava,49.0892,19.8175
SK,032 61,Važec,49.0597,19.9804
SK,033 01,Liptovský Peter,49.05,19.7333
SK,033 01,Podtureň,49.0529,19.6944
SK,033 01,Liptovská Porúbka,49.031,19.7359
SK,033 01,Jamník,49.0709,19.7098
SK,033 01,Liptovský Hrádok,49.0396,19.7234
SK,036 01,Martin,49.0665,18.924
SK,038 02,Dolný Kalník,49.0416,18.9629
SK,038 02,Turčianske Jaseno,49.0272,18.9928
SK,038 02,Diaková,49.0503,18.9631
SK,038 02,Horný Kalník,49.0344,18.969
SK,038 02,Dražkovce,49.051,18.9569
SK,038 03,Záborie,49.0371,18.9839
SK,038 03,Sklabinský Podzámok,49.052,19.0275
SK,038 03,Sklabiňa,49.0448,19.0028
SK,038 04,Bystrička,49.05,18.8833
SK,038 11,Belá-Dulice,49.0016,18.9799
SK,038 12,Necpaly,48.9871,18.9659
SK,038 15,Blatnica,48.937,18.9245
SK,038 15,Karlová,48.9606,18.9007
SK,038 31,Vrícko,48.97,18.7048
SK,038 35,Valča,49.0018,18.845
SK,038 40,Žabokreky,49.0243,18.9238
SK,038 41,Trnovo,49.0158,18.8586
SK,038 41,Turčiansky Peter,49.0315,18.8888
SK,038 41,Košťany nad Turcom,49.0299,18.9044
SK,038 41,Trebostovo,49.0246,18.8609
SK,038 42,Ležiachov,48.9794,18.8582
SK,038 42,Príbovce,49.001,18.8829
SK,038 42,Folkušová,48.9686,18.9477
SK,038 42,Rakovo,48.9888,18.882
SK,038 42,Ďanová,48.9765,18.9135
SK,038 42,Benice,48.9959,18.8716
SK,038 43,Kláštor pod Znievom,48.9762,18.8026
SK,038 43,Kláštor pod Znievom - Lazany,48.9801,18.7938
SK,038 43,Socovce,48.9511,18.867
SK,038 43,Slovany,48.9722,18.823
SK,038 43,Laskár,48.9566,18.8779
SK,038 43,Turčiansky Ďur,48.95,18.85
SK,038 51,Turčianska Štiavnička,49.0865,19.0232
SK,038 52,Sučany,49.0999,18.9907
SK,038 52,Podhradie,49.0861,19.0545
SK,038 53,Turany,49.1175,19.0403
SK,038 54,Ratkovo,49.1333,19.0833
SK,038 54,Nolčovo,49.1076,19.0795
SK,038 54,Šútovo,49.15,19.0833
SK,038 54,Krpeľany,49.1252,19.0904
SK,038 61,Lipovec,49.1289,18.9272
SK,038 61,Turčianske Kľačany,49.1163,18.9492
SK,038 61,Vrútky,49.1133,18.9171
SK,029 01,Vavrečka,49.3857,19.4665
SK,029 01,Námestovo,49.4079,19.4803
SK,029 41,Klin,49.4368,19.4925
SK,029 42,Bobrov,49.4287,19.5412
SK,029 43,Zubrohlava,49.4454,19.5117
SK,029 44,Rabča,49.486,19.4762
SK,029 45,Rabčice,49.5073,19.5238
SK,029 46,Sihelné,49.5082,19.4115
SK,029 47,Oravská Polhora,49.5272,19.4407
SK,029 51,Lokca,49.3678,19.4134
SK,029 51,Ťapešovo,49.3742,19.4461
SK,029 51,Vasiľov,49.3502,19.385
SK,029 52,Babín,49.3308,19.3807
SK,029 52,Hruštín,49.3239,19.3469
SK,029 53,Breza,49.3876,19.3844
SK,029 54,Lomná,49.3605,19.3034
SK,029 54,Krušetnica,49.3752,19.3388
SK,029 55,Novoť,49.4285,19.2654
SK,029 56,Zákamenné,49.3886,19.2929
SK,029 57,Oravská Lesná,49.3675,19.1842
SK,029 62,Oravské Veselé,49.466,19.3834
SK,029 63,Mútne,49.4623,19.3196
SK,029 63,Beňadovo,49.432,19.3423
SK,029 64,Oravská Jasenica,49.3905,19.4352
SK,034 01,Liptovská Štiavnica,49.0512,19.3567
SK,034 01,Ružomberok 1,49.0603,19.3494
SK,034 01,Štiavnička,49.0694,19.3421
SK,034 01,Kľačno,49.0603,19.3494
SK,034 03,Ružomberok,49.0748,19.3075
SK,034 06,Ružomberok,49.0748,19.3075
SK,034 71,Ludrová,49.05,19.3333
SK,034 72,Liptovská Lúžna,48.941,19.3238
SK,034 73,Korytnica - kúpele,48.9496,19.2618
SK,034 73,Liptovská Osada,48.9496,19.2618
SK,034 74,Liptovské Revúce,48.9206,19.1798
SK,034 81,Lisková,49.0902,19.3537
SK,034 82,Lúčky,49.1294,19.4023
SK,034 82,Kalameny,49.1252,19.4153
SK,034 82,Lúčky - kúpele,49.1273,19.4088
SK,034 83,Liptovský Michal,49.0959,19.4378
SK,034 83,Liptovská Teplá,49.1025,19.4097
SK,034 83,Ivachnová,49.0994,19.418
SK,034 83,Potok,49.1121,19.4478
SK,034 83,Bešeňová,49.1002,19.4347
SK,034 83,Turík,49.1076,19.3828
SK,034 83,Liptovská Teplá - Madočany,49.1098,19.4092
SK,034 84,Liptovské Sliače,49.063,19.3924
SK,034 91,Hubová,49.1169,19.1902
SK,034 91,Švošov,49.1237,19.1978
SK,034 91,Ľubochňa,49.1201,19.1689
SK,034 92,Stankovany,49.1423,19.1739
SK,034 95,Martinček,49.0917,19.339
SK,034 95,Likavka,49.0926,19.3116
SK,034 96,Komjatná,49.1469,19.2436
SK,034 96,Valaská Dubová,49.1407,19.2933
SK,038 21,Mošovce,48.9094,18.8848
SK,038 22,Liešno,48.8883,18.7643
SK,038 22,Abramová,48.936,18.7956
SK,038 22,Slovenské Pravno,48.9094,18.759
SK,038 22,Rudno,48.8856,18.7454
SK,038 22,Brieštie,48.9209,18.7361
SK,038 22,Ondrašová,48.9425,18.8075
SK,038 22,Jasenovo,48.879,18.7243
SK,038 22,Kaľamenová,48.8892,18.7757
SK,038 23,Dubové,48.8575,18.7939
SK,038 23,Budiš,48.8729,18.7585
SK,038 44,Blažovce,48.9401,18.8443
SK,038 44,Moškovec,48.9437,18.8284
SK,038 44,Jazernica,48.9262,18.8299
SK,038 44,Borcová,48.9288,18.8393
SK,038 45,Bodorová,48.9048,18.8496
SK,038 45,Ivančiná,48.9113,18.813
SK,038 45,Ivančiná - Dvorec,48.9076,18.8062
SK,038 45,Veľký Čepčín,48.8948,18.8091
SK,038 45,Malý Čepčín,48.9029,18.8393
SK,038 46,Horná Štubňa,48.825,18.8846
SK,038 47,Sklené,48.7862,18.8295
SK,038 48,Turček,48.7594,18.9212
SK,039 01,Rakša,48.8818,18.8825
SK,039 01,Háj,48.8638,18.8843
SK,039 01,Turčianske Teplice,48.8623,18.8605
SK,039 01,Čremošné,48.848,18.9042
SK,027 12,Vitanová,49.3548,19.7306
SK,027 12,Čimhová,49.3616,19.6922
SK,027 12,Liesek,49.3612,19.6749
SK,027 13,Hladovka,49.3697,19.7574
SK,027 13,Suchá Hora,49.3663,19.7899
SK,027 32,Habovka,49.2725,19.6059
SK,027 32,Zuberec,49.2616,19.6147
SK,027 42,Podbiel,49.3082,19.485
SK,027 42,Oravský Biely Potok,49.2863,19.5548
SK,027 43,Zemianska Dedina,49.3226,19.5151
SK,027 43,Nižná,49.3105,19.5243
SK,027 44,Tvrdošín,49.337,19.556
SK,027 44,Štefanov nad Oravou,49.3637,19.5326
SK,028 01,Zábiedovo,49.3214,19.6081
SK,028 01,Trstená,49.361,19.6125
SK,028 01,Brezovica,49.3419,19.6526
SK,010 01,Mojš,49.1992,18.8215
SK,010 01,Žilina,49.2231,18.7394
SK,010 03,Žilina,49.2231,18.7394
SK,010 04,Hôrky,49.2047,18.6931
SK,010 04,Bitarová,49.2084,18.6718
SK,010 04,Brezany,49.1889,18.6715
SK,010 04,Ovčiarsko,49.2237,18.6651
SK,010 07,Žilina,49.2231,18.7394
SK,010 08,Žilina,49.2231,18.7394
SK,010 09,Žilina,49.2231,18.7394
SK,010 14,Žilina,49.2231,18.7394
SK,010 15,Žilina,49.2231,18.7394
SK,013 01,Teplička nad Váhom,49.2243,18.7999
SK,013 02,Kotrčiná Lúčka,49.2503,18.839
SK,013 02,Nededza,49.2216,18.8356
SK,013 02,Gbeľany,49.2122,18.8445
SK,013 03,Varín,49.2023,18.8707
SK,013 03,Krasňany,49.2149,18.8872
SK,013 04,Stráža,49.2258,18.9078
SK,013 04,Dolná Tižina,49.2156,18.9157
SK,013 05,Lysica,49.2446,18.9173
SK,013 05,Lutiše,49.2908,18.9574
SK,013 05,Belá,49.2337,18.9458
SK,013 05,Belá pri Varíne,49.2564,18.9402
SK,013 06,Nižné Kamence,49.259,19.0294
SK,013 06,Terchová,49.259,19.0294
SK,013 11,Porúbka,49.1544,18.7263
SK,013 11,Lietavská Svinná-Babkov,49.1534,18.6625
SK,013 11,Lietavská Lúčka,49.1731,18.7139
SK,013 12,Turie,49.1491,18.7498
SK,013 13,Rajecké Teplice,49.1272,18.6865
SK,013 13,Stránske,49.12,18.7067
SK,013 13,Konská,49.1111,18.6781
SK,013 13,Kunerad,49.0979,18.7131
SK,013 14,Kamenná Poruba,49.0923,18.6884
SK,013 15,Fačkov,49.0106,18.6026
SK,013 15,Čičmany,48.955,18.5161
SK,013 15,Rajecká Lesná,49.0444,18.6357
SK,013 18,Lietava,49.1698,18.6751
SK,013 18,Podhorie,49.1725,18.644
SK,013 19,Kľače,49.1064,18.6485
SK,013 19,Zbyňov,49.1208,18.6487
SK,013 19,Jasenové,49.1106,18.6365
SK,013 22,Rosina,49.1833,18.7667
SK,013 23,Višňové,49.1608,18.7843
SK,013 24,Nezbudská Lúčka,49.1737,18.8679
SK,013 24,Strečno,49.188,18.8645
SK,013 25,Stráňavy,49.1715,18.8218
SK,013 31,Divina,49.2718,18.6952
SK,013 31,Divinka,49.2543,18.6998
SK,013 32,Dlhé Pole,49.3073,18.6317
SK,013 32,Keblov - Zárieč,49.262,18.6418
SK,013 32,Svederník,49.2653,18.6467
SK,013 41,Paština Závada,49.2102,18.6425
SK,013 41,Hričovské Podhradie,49.2222,18.6226
SK,013 41,Dolný Hričov,49.2319,18.6333
SK,013 42,Horný Hričov,49.2582,18.6631
SK,015 01,Veľká Čierna,49.0907,18.5907
SK,015 01,Šuja,49.0694,18.6287
SK,015 01,Rajec,49.089,18.6401
SK,015 01,Malá Čierna,49.1028,18.5971
SK,015 01,Ďurčiná,49.0635,18.6529
SK,010 02,Žilina 2,49.2141,18.722
SK,010 10,Žilina 10,49.2231,18.7394
SK,010 24,Žilina 1,49.2156,18.7249
SK,010 25,Žilina 1,49.2156,18.7249
SK,010 26,Žilina 1,49.2156,18.7249
SK,010 28,Žilina 1,49.2156,18.7249
SK,010 29,Žilina 1,49.2156,18.7249
SK,010 32,Žilina 1,49.2156,18.7249
SK,010 33,Žilina 1,49.2156,18.7249
SK,010 36,Žilina 1,49.2156,18.7249
SK,010 37,Žilina 1,49.2156,18.7249
SK,010 38,Žilina 1,49.2156,18.7249
SK,010 40,Žilina 1,49.2156,18.7249
SK,010 43,Žilina 1,49.2156,18.7249
SK,010 46,Žilina 1,49.2156,18.7249
SK,010 50,Žilina 1,49.2156,18.7249
SK,010 51,Žilina 1,49.2156,18.7249
SK,010 53,Žilina 1,49.2156,18.7249
SK,010 55,Žilina 1,49.2156,18.7249
SK,010 56,Žilina 1,49.2156,18.7249
SK,010 58,Žilina 1,49.2156,18.7249
SK,010 59,Žilina 1,49.2156,18.7249
SK,010 60,Žilina 1,49.2156,18.7249
SK,010 63,Žilina 1,49.2156,18.7249
SK,010 65,Žilina 1,49.2156,18.7249
SK,010 66,Žilina 1,49.2156,18.7249
SK,010 69,Žilina 1,49.2156,18.7249
SK,010 75,Žilina 1,49.2156,18.7249
SK,010 77,Žilina 1,49.2156,18.7249
SK,010 80,Žilina 1,49.2156,18.7249
SK,010 83,Žilina 1,49.2156,18.7249
SK,010 85,Žilina 1,49.2156,18.7249
SK,010 86,Žilina 1,49.2156,18.7249
SK,010 88,Žilina 1,49.2156,18.7249
SK,010 91,Žilina 1,49.2156,18.7249
SK,010 93,Žilina 1,49.2156,18.7249
SK,010 94,Žilina 1,49.2156,18.7249
SK,010 98,Žilina 1,49.2156,18.7249
SK,010 99,Žilina 1,49.2156,18.7249
SK,011 00,Žilina 1,49.1381,18.5521
SK,011 01,Žilina 1,49.1381,18.5521
SK,011 04,Žilina 1,49.1381,18.5521
SK,011 06,Žilina 1,49.1381,18.5521
SK,011 09,Žilina 1,49.1381,18.5521
SK,011 11,Žilina 1,49.1381,18.5521
SK,011 12,Žilina 1,49.1381,18.5521
SK,011 14,Žilina 1,49.1381,18.5521
SK,011 15,Žilina 1,49.1381,18.5521
SK,011 18,Žilina 1,49.1381,18.5521
SK,011 19,Žilina 1,49.1381,18.5521
SK,011 20,Žilina 1,49.1381,18.5521
SK,011 21,Žilina 1,49.1381,18.5521
SK,011 23,Žilina 2,49.1381,18.5521
SK,011 24,Žilina 1,49.1381,18.5521
SK,011 26,Žilina 1,49.1381,18.5521
SK,011 28,Žilina 1,49.1381,18.5521
SK,011 29,Žilina 1,49.1381,18.5521
SK,011 30,Žilina 1,49.1381,18.5521
SK,011 31,Žilina 1,49.1381,18.5521
SK,011 35,Žilina 1,49.1381,18.5521
SK,011 36,Žilina 1,49.1381,18.5521
SK,011 37,Žilina 1,49.1381,18.5521
SK,011 40,Žilina 1,49.1381,18.5521
SK,011 41,Žilina 1,49.1381,18.5521
SK,011 43,Žilina 1,49.1381,18.5521
SK,011 45,Žilina 1,49.1381,18.5521
SK,011 47,Žilina 1,49.1381,18.5521
SK,011 48,Žilina 1,49.1381,18.5521
SK,011 55,Žilina 1,49.1381,18.5521
SK,011 56,Žilina 1,49.1381,18.5521
SK,011 57,Žilina 1,49.1381,18.5521
SK,011 58,Žilina 1,49.1381,18.5521
SK,011 59,Žilina 1,49.1381,18.5521
SK,011 61,Žilina 1,49.1381,18.5521
SK,011 62,Žilina 1,49.1381,18.5521
SK,011 63,Žilina 1,49.1381,18.5521
SK,011 65,Žilina 1,49.1381,18.5521
SK,011 67,Žilina 1,49.1381,18.5521
SK,011 69,Žilina 1,49.1381,18.5521
SK,011 70,Žilina 1,49.1381,18.5521
SK,011 71,Žilina 1,49.1381,18.5521
SK,011 74,Žilina 1,49.1381,18.5521
SK,011 77,Žilina 1,49.1381,18.5521
SK,011 78,Žilina 1,49.1381,18.5521
SK,011 79,Žilina 1,49.1381,18.5521
SK,011 80,Žilina 1,49.1381,18.5521
SK,011 84,Žilina 1,49.1381,18.5521
SK,011 86,Žilina 1,49.1381,18.5521
SK,011 87,Žilina 1,49.1381,18.5521
SK,011 88,Žilina 1,49.1381,18.5521
SK,011 91,Žilina 1,49.1381,18.5521
SK,011 92,Žilina 1,49.1381,18.5521
SK,011 93,Žilina 1,49.1381,18.5521
SK,011 94,Žilina 1,49.1381,18.5521
SK,011 95,Žilina 1,49.1381,18.5521
SK,011 96,Žilina 1,49.1381,18.5521
SK,011 97,Žilina 1,49.1381,18.5521
SK,011 98,Žilina 1,49.1381,18.5521
SK,012 00,Žilina 1,49.1381,18.5521
SK,012 02,Žilina 1,49.1381,18.5521
SK,012 05,Žilina 1,49.1381,18.5521
SK,012 06,Žilina 1,49.1381,18.5521
SK,012 07,Žilina 1,49.1381,18.5521
SK,012 08,Žilina 1,49.1381,18.5521
SK,012 09,Žilina 1,49.1381,18.5521
SK,012 14,Žilina 1,49.1381,18.5521
SK,012 15,Žilina 1,49.1381,18.5521
SK,012 17,Žilina 1,49.1381,18.5521
SK,012 19,Žilina 1,49.1381,18.5521
SK,012 23,Žilina 1,49.1381,18.5521
SK,012 25,Žilina 1,49.1381,18.5521
SK,012 27,Žilina 1,49.1381,18.5521
SK,012 28,Žilina 1,49.1381,18.5521
SK,012 32,Žilina 1,49.1381,18.5521
SK,012 35,Žilina 1,49.1381,18.5521
SK,012 41,Žilina 1,49.1381,18.5521
SK,012 45,Žilina 1,49.1381,18.5521
SK,012 47,Žilina 1,49.1381,18.5521
SK,012 51,Žilina 1,49.1381,18.5521
SK,012 52,Žilina 1,49.1381,18.5521
SK,012 53,Žilina 1,49.1381,18.5521
SK,014 18,Bytča 1,49.224,18.5588
SK,014 35,Bytča 1,49.224,18.5588
SK,014 38,Bytča 1,49.224,18.5588
SK,014 44,Bytča 1,49.224,18.5588
SK,014 83,Bytča 1,49.224,18.5588
SK,015 14,Rajec nad Rajčiankou,49.088,18.6141
SK,015 21,Rajec nad Rajčiankou,49.088,18.6141
SK,015 22,Rajec nad Rajčiankou,49.088,18.6141
SK,015 26,Rajec nad Rajčiankou,49.088,18.6141
SK,015 41,Rajec nad Rajčiankou,49.088,18.6141
SK,022 16,Čadca 1,49.435,18.7889
SK,022 21,Čadca 1,49.435,18.7889
SK,022 27,Čadca 1,49.435,18.7889
SK,022 47,Čadca 1,49.435,18.7889
SK,022 74,Čadca 1,49.435,18.7889
SK,024 41,Kysucké Nové Mesto 1,49.3,18.7833
SK,026 12,Dolný Kubín 1,49.2007,19.3386
SK,026 14,Dolný Kubín 1,49.2007,19.3386
SK,026 17,Dolný Kubín 1,49.2007,19.3386
SK,026 19,Dolný Kubín 1,49.2007,19.3386
SK,026 21,Dolný Kubín 1,49.2007,19.3386
SK,026 24,Dolný Kubín 1,49.2007,19.3386
SK,026 25,Dolný Kubín 1,49.2007,19.3386
SK,026 26,Dolný Kubín 1,49.2007,19.3386
SK,026 27,Dolný Kubín 1,49.2007,19.3386
SK,026 80,Dolný Kubín 1,49.2007,19.3386
SK,028 13,Trstená,49.361,19.6125
SK,028 15,Trstená,49.361,19.6125
SK,029 13,Námestovo 1,49.4141,19.3986
SK,029 15,Námestovo 1,49.4141,19.3986
SK,029 17,Námestovo 1,49.4141,19.3986
SK,029 21,Námestovo 1,49.4141,19.3986
SK,031 06,Liptovský Mikuláš 6,49.0628,19.5988
SK,031 23,Liptovský Mikuláš 1,49.0628,19.5988
SK,031 25,Liptovský Mikuláš 1,49.0628,19.5988
SK,031 28,Liptovský Mikuláš 1,49.0628,19.5988
SK,031 29,Liptovský Mikuláš 1,49.0628,19.5988
SK,031 32,Liptovský Mikuláš 1,49.0628,19.5988
SK,031 33,Liptovský Mikuláš 1,49.0628,19.5988
SK,031 36,Liptovský Mikuláš 1,49.0628,19.5988
SK,031 39,Liptovský Mikuláš 1,49.0628,19.5988
SK,031 41,Liptovský Mikuláš 1,49.0628,19.5988
SK,031 42,Liptovský Mikuláš 1,49.0628,19.5988
SK,031 46,Liptovský Mikuláš 1,49.0628,19.5988
SK,031 48,Liptovský Mikuláš 1,49.0628,19.5988
SK,031 80,Liptovský Mikuláš 1,49.0628,19.5988
SK,033 11,Liptovský Hrádok 1,49.0489,19.7194
SK,033 12,Liptovský Hrádok 1,49.0489,19.7194
SK,033 14,Liptovský Hrádok 1,49.0489,19.7194
SK,033 15,Liptovský Hrádok 1,49.0489,19.7194
SK,033 17,Liptovský Hrádok 1,49.0489,19.7194
SK,033 19,Liptovský Hrádok 1,49.0489,19.7194
SK,034 04,Ružomberok 4,49.0676,19.3285
SK,034 05,Ružomberok 5,49.0676,19.3285
SK,034 16,Ružomberok 1,49.083,19.3272
SK,034 17,Ružomberok 1,49.083,19.3272
SK,034 26,Ružomberok 1,49.083,19.3272
SK,034 50,Ružomberok 1,49.083,19.3272
SK,034 53,Ružomberok 1,49.083,19.3272
SK,036 03,Martin 3,49.0665,18.924
SK,036 04,Martin 4,49.0665,18.924
SK,036 05,Martin 5,49.0665,18.924
SK,036 08,Martin 8,49.0665,18.924
SK,036 09,Martin 9,49.0665,18.924
SK,036 25,Martin 1,49.0665,18.924
SK,036 32,Martin 1,49.0665,18.924
SK,036 36,Martin 1,49.0665,18.924
SK,036 37,Martin 1,49.0665,18.924
SK,036 49,Martin 1,49.0665,18.924
SK,036 52,Martin 1,49.0665,18.924
SK,036 53,Martin 1,49.0665,18.924
SK,036 55,Martin 1,49.0665,18.924
SK,036 57,Martin 1,49.0665,18.924
SK,036 58,Martin 1,49.0665,18.924
SK,036 59,Martin 1,49.0665,18.924
SK,036 63,Martin 1,49.0665,18.924
SK,036 65,Martin 1,49.0665,18.924
SK,036 80,Martin 1,49.0665,18.924
SK,036 97,Martin 1,49.0665,18.924
SK,039 12,Turčianske Teplice,48.8623,18.8605
SK,039 14,Turčianske Teplice,48.8623,18.8605
SK,039 17,Turčianske Teplice,48.8623,18.8605
SK,039 19,Turčianske Teplice,48.8623,18.8605
SK,039 46,Turčianske Teplice,48.8623,18.8605
